;FLAVOR:Marlin
;TIME:1482
;Filament used: 3.70117m
;Layer height: 0.4
;MINX:92.6
;MINY:47.4
;MINZ:0.4
;MAXX:127.4
;MAXY:172.6
;MAXZ:8.8
;Generated with Cura_SteamEngine 4.11.0
M140 S80
M105
M190 S80
M104 S245
M105
M109 S245
M82 ;absolute extrusion mode
; Ender 3 Custom Start G-code
G92 E0 ; Reset Extruder
G28 ; Home all axes
G1 Z2.0 F3000 ; Move Z Axis up little to prevent scratching of Heat Bed
G1 X0.1 Y20 Z0.3 F5000.0 ; Move to start position
G1 X0.1 Y200.0 Z0.3 F1500.0 E15 ; Draw the first line
G1 X0.4 Y200.0 Z0.3 F5000.0 ; Move to side a little
G1 X0.4 Y20 Z0.3 F1500.0 E30 ; Draw the second line
G92 E0 ; Reset Extruder
G1 Z2.0 F3000 ; Move Z Axis up little to prevent scratching of Heat Bed
G1 X5 Y20 Z0.3 F5000.0 ; Move over to prevent blob squish
G92 E0
G92 E0
G1 F1500 E-6.5
;LAYER_COUNT:23
;LAYER:0
M107
G0 F6000 X93.578 Y51.504 Z0.4
;TYPE:SKIRT
G1 F1500 E0
G1 F1200 X93.995 Y50.845 E0.10375
G1 X94.478 Y50.233 E0.20748
G1 X94.826 Y49.86 E0.27534
G1 X95.06 Y49.626 E0.31937
G1 X95.639 Y49.104 E0.42308
G1 X96.268 Y48.644 E0.52676
G1 X96.941 Y48.25 E0.63051
G1 X97.651 Y47.928 E0.73423
G1 X98.39 Y47.68 E0.83793
G1 X99.15 Y47.509 E0.94157
G1 X99.924 Y47.417 E1.04527
G1 X100.434 Y47.4 E1.11316
G1 X119.566 Y47.4 E3.65849
G1 X120.344 Y47.44 E3.76213
G1 X121.115 Y47.559 E3.86592
G1 X121.869 Y47.757 E3.96963
G1 X122.598 Y48.031 E4.07325
G1 X123.296 Y48.378 E4.17695
G1 X123.955 Y48.795 E4.2807
G1 X124.567 Y49.278 E4.38442
G1 X124.94 Y49.626 E4.45229
G1 X125.174 Y49.86 E4.49632
G1 X125.696 Y50.439 E4.60003
G1 X126.156 Y51.068 E4.70371
G1 X126.55 Y51.741 E4.80746
G1 X126.872 Y52.451 E4.91118
G1 X127.12 Y53.19 E5.01488
G1 X127.291 Y53.95 E5.11852
G1 X127.383 Y54.724 E5.22222
G1 X127.4 Y55.234 E5.29011
G1 X127.4 Y164.766 E19.8623
G1 X127.36 Y165.544 E19.96595
G1 X127.241 Y166.315 E20.06974
G1 X127.043 Y167.069 E20.17345
G1 X126.769 Y167.798 E20.27706
G1 X126.422 Y168.496 E20.38076
G1 X126.005 Y169.155 E20.48452
G1 X125.522 Y169.767 E20.58824
G1 X125.174 Y170.14 E20.65611
G1 X124.94 Y170.374 E20.70013
G1 X124.361 Y170.896 E20.80385
G1 X123.732 Y171.356 E20.90752
G1 X123.059 Y171.75 E21.01127
G1 X122.349 Y172.072 E21.11499
G1 X121.61 Y172.32 E21.2187
G1 X120.85 Y172.491 E21.32234
G1 X120.076 Y172.583 E21.42603
G1 X119.566 Y172.6 E21.49392
G1 X100.434 Y172.6 E24.03925
G1 X99.656 Y172.56 E24.1429
G1 X98.885 Y172.441 E24.24668
G1 X98.131 Y172.243 E24.3504
G1 X97.402 Y171.969 E24.45401
G1 X96.704 Y171.622 E24.55771
G1 X96.045 Y171.205 E24.66147
G1 X95.433 Y170.722 E24.76519
G1 X95.06 Y170.374 E24.83306
G1 X94.826 Y170.14 E24.87708
G1 X94.304 Y169.561 E24.9808
G1 X93.844 Y168.932 E25.08447
G1 X93.45 Y168.259 E25.18822
G1 X93.128 Y167.549 E25.29194
G1 X92.88 Y166.81 E25.39565
G1 X92.709 Y166.05 E25.49929
G1 X92.617 Y165.276 E25.60298
G1 X92.6 Y164.766 E25.67087
G1 X92.6 Y55.234 E40.24307
G1 X92.64 Y54.456 E40.34671
G1 X92.759 Y53.685 E40.4505
G1 X92.957 Y52.931 E40.55421
G1 X93.231 Y52.202 E40.65782
G1 X93.578 Y51.504 E40.76153
G0 F6000 X94.376 Y51.724
G1 F1200 X94.79 Y51.114 E40.85961
G1 X95.392 Y50.426 E40.98123
G1 X95.626 Y50.192 E41.02526
G1 X96.175 Y49.699 E41.12343
G1 X96.773 Y49.269 E41.22142
G1 X97.415 Y48.907 E41.31947
G1 X98.093 Y48.616 E41.41763
G1 X98.798 Y48.4 E41.51573
G1 X99.522 Y48.261 E41.61381
G1 X100.434 Y48.2 E41.73541
G1 X119.566 Y48.2 E44.28074
G1 X120.302 Y48.24 E44.37881
G1 X121.03 Y48.359 E44.47695
G1 X121.74 Y48.557 E44.57501
G1 X122.425 Y48.83 E44.67311
G1 X123.076 Y49.176 E44.77119
G1 X123.686 Y49.59 E44.86927
G1 X124.374 Y50.192 E44.9909
G1 X124.608 Y50.426 E45.03493
G1 X125.101 Y50.975 E45.13309
G1 X125.531 Y51.573 E45.23108
G1 X125.893 Y52.215 E45.32914
G1 X126.184 Y52.893 E45.4273
G1 X126.4 Y53.598 E45.52539
G1 X126.539 Y54.322 E45.62347
G1 X126.6 Y55.234 E45.74508
G1 X126.6 Y164.766 E60.31727
G1 X126.56 Y165.502 E60.41534
G1 X126.441 Y166.23 E60.51348
G1 X126.243 Y166.94 E60.61154
G1 X125.97 Y167.625 E60.70964
G1 X125.624 Y168.276 E60.80772
G1 X125.21 Y168.886 E60.9058
G1 X124.608 Y169.574 E61.02743
G1 X124.374 Y169.808 E61.07146
G1 X123.825 Y170.301 E61.16962
G1 X123.227 Y170.731 E61.26761
G1 X122.585 Y171.093 E61.36567
G1 X121.907 Y171.384 E61.46383
G1 X121.202 Y171.6 E61.56192
G1 X120.478 Y171.739 E61.66
G1 X119.566 Y171.8 E61.78161
G1 X100.434 Y171.8 E64.32694
G1 X99.698 Y171.76 E64.425
G1 X98.97 Y171.641 E64.52314
G1 X98.26 Y171.443 E64.6212
G1 X97.575 Y171.17 E64.71931
G1 X96.924 Y170.824 E64.81739
G1 X96.314 Y170.41 E64.91547
G1 X95.626 Y169.808 E65.0371
G1 X95.392 Y169.574 E65.08112
G1 X94.899 Y169.025 E65.17929
G1 X94.469 Y168.427 E65.27728
G1 X94.107 Y167.785 E65.37533
G1 X93.816 Y167.107 E65.47349
G1 X93.6 Y166.402 E65.57159
G1 X93.461 Y165.678 E65.66967
G1 X93.4 Y164.766 E65.79127
G1 X93.4 Y55.234 E80.36347
G1 X93.44 Y54.498 E80.46153
G1 X93.559 Y53.77 E80.55967
G1 X93.757 Y53.06 E80.65773
G1 X94.03 Y52.375 E80.75584
G1 X94.376 Y51.724 E80.85392
G0 F6000 X94.829 Y52.56
G1 F1200 X95.173 Y51.959 E80.94605
G1 X95.584 Y51.401 E81.03825
G1 X95.957 Y50.991 E81.11199
G1 X96.191 Y50.757 E81.15602
G1 X96.708 Y50.297 E81.24808
G1 X97.275 Y49.899 E81.34025
G1 X97.884 Y49.569 E81.4324
G1 X98.527 Y49.311 E81.52457
G1 X99.195 Y49.129 E81.61668
G1 X99.88 Y49.026 E81.70884
G1 X100.434 Y49 E81.78263
G1 X119.566 Y49 E84.32796
G1 X120.257 Y49.04 E84.42004
G1 X120.94 Y49.159 E84.51228
G1 X121.603 Y49.357 E84.60434
G1 X122.24 Y49.629 E84.69648
G1 X122.841 Y49.973 E84.78861
G1 X123.399 Y50.384 E84.88081
G1 X123.809 Y50.757 E84.95456
G1 X124.043 Y50.991 E84.99858
G1 X124.503 Y51.508 E85.09065
G1 X124.901 Y52.075 E85.18281
G1 X125.231 Y52.684 E85.27496
G1 X125.489 Y53.327 E85.36714
G1 X125.671 Y53.995 E85.45925
G1 X125.774 Y54.68 E85.55141
G1 X125.8 Y55.234 E85.62519
G1 X125.8 Y164.766 E100.19739
G1 X125.76 Y165.457 E100.28947
G1 X125.641 Y166.14 E100.38171
G1 X125.443 Y166.803 E100.47376
G1 X125.171 Y167.44 E100.56591
G1 X124.827 Y168.041 E100.65804
G1 X124.416 Y168.599 E100.75024
G1 X124.043 Y169.009 E100.82398
G1 X123.809 Y169.243 E100.86801
G1 X123.292 Y169.703 E100.96008
G1 X122.725 Y170.101 E101.05224
G1 X122.116 Y170.431 E101.14439
G1 X121.473 Y170.689 E101.23657
G1 X120.805 Y170.871 E101.32868
G1 X120.12 Y170.974 E101.42084
G1 X119.566 Y171 E101.49462
G1 X100.434 Y171 E104.03995
G1 X99.743 Y170.96 E104.13204
G1 X99.06 Y170.841 E104.22427
G1 X98.397 Y170.643 E104.31633
G1 X97.76 Y170.371 E104.40848
G1 X97.159 Y170.027 E104.50061
G1 X96.601 Y169.616 E104.59281
G1 X96.191 Y169.243 E104.66655
G1 X95.957 Y169.009 E104.71058
G1 X95.497 Y168.492 E104.80264
G1 X95.099 Y167.925 E104.8948
G1 X94.769 Y167.316 E104.98696
G1 X94.511 Y166.673 E105.07913
G1 X94.329 Y166.005 E105.17124
G1 X94.226 Y165.32 E105.2634
G1 X94.2 Y164.766 E105.33718
G1 X94.2 Y55.234 E119.90938
G1 X94.24 Y54.543 E120.00147
G1 X94.359 Y53.86 E120.0937
G1 X94.557 Y53.197 E120.18576
G1 X94.829 Y52.56 E120.27791
G0 F6000 X95.627 Y52.758
G1 F1200 X95.969 Y52.211 E120.36373
G1 X96.523 Y51.557 E120.47776
G1 X96.757 Y51.323 E120.52179
G1 X97.24 Y50.896 E120.60756
G1 X97.773 Y50.533 E120.69335
G1 X98.346 Y50.238 E120.77909
G1 X98.951 Y50.016 E120.86483
G1 X99.579 Y49.871 E120.95058
G1 X100.434 Y49.8 E121.06472
G1 X119.566 Y49.8 E123.61005
G1 X120.209 Y49.84 E123.69576
G1 X120.843 Y49.959 E123.78158
G1 X121.457 Y50.156 E123.86737
G1 X122.042 Y50.427 E123.95315
G1 X122.589 Y50.769 E124.03897
G1 X123.243 Y51.323 E124.153
G1 X123.477 Y51.557 E124.19703
G1 X123.904 Y52.04 E124.2828
G1 X124.267 Y52.573 E124.36859
G1 X124.562 Y53.146 E124.45433
G1 X124.784 Y53.751 E124.54007
G1 X124.929 Y54.379 E124.62582
G1 X125 Y55.234 E124.73996
G1 X125 Y164.766 E139.31216
G1 X124.96 Y165.409 E139.39787
G1 X124.841 Y166.043 E139.48369
G1 X124.644 Y166.657 E139.56948
G1 X124.373 Y167.242 E139.65525
G1 X124.031 Y167.789 E139.74108
G1 X123.477 Y168.443 E139.85511
G1 X123.243 Y168.677 E139.89913
G1 X122.76 Y169.104 E139.9849
G1 X122.227 Y169.467 E140.0707
G1 X121.654 Y169.762 E140.15644
G1 X121.049 Y169.984 E140.24218
G1 X120.421 Y170.129 E140.32792
G1 X119.566 Y170.2 E140.44206
G1 X100.434 Y170.2 E142.9874
G1 X99.791 Y170.16 E143.07311
G1 X99.157 Y170.041 E143.15893
G1 X98.543 Y169.844 E143.24472
G1 X97.958 Y169.573 E143.33049
G1 X97.411 Y169.231 E143.41632
G1 X96.757 Y168.677 E143.53035
G1 X96.523 Y168.443 E143.57437
G1 X96.096 Y167.96 E143.66014
G1 X95.733 Y167.427 E143.74594
G1 X95.438 Y166.854 E143.83168
G1 X95.216 Y166.249 E143.91741
G1 X95.071 Y165.621 E144.00316
G1 X95 Y164.766 E144.1173
G1 X95 Y55.234 E158.6895
G1 X95.04 Y54.591 E158.77521
G1 X95.159 Y53.957 E158.86103
G1 X95.356 Y53.343 E158.94682
G1 X95.627 Y52.758 E159.03259
G0 F6000 X96.425 Y52.974
G1 F1200 X96.763 Y52.487 E159.11146
G1 X97.089 Y52.123 E159.17647
G1 X97.323 Y51.889 E159.2205
G1 X97.769 Y51.499 E159.29932
G1 X98.264 Y51.172 E159.37825
G1 X98.799 Y50.915 E159.45721
G1 X99.363 Y50.732 E159.53609
G1 X99.946 Y50.627 E159.6149
G1 X100.434 Y50.6 E159.67993
G1 X119.566 Y50.6 E162.22526
G1 X120.158 Y50.64 E162.3042
G1 X120.738 Y50.759 E162.38297
G1 X121.298 Y50.955 E162.4619
G1 X121.826 Y51.225 E162.5408
G1 X122.313 Y51.563 E162.61967
G1 X122.677 Y51.889 E162.68468
G1 X122.911 Y52.123 E162.7287
G1 X123.301 Y52.569 E162.80753
G1 X123.628 Y53.064 E162.88645
G1 X123.885 Y53.599 E162.96542
G1 X124.068 Y54.163 E163.0443
G1 X124.173 Y54.746 E163.12311
G1 X124.2 Y55.234 E163.18814
G1 X124.2 Y164.766 E177.76033
G1 X124.16 Y165.358 E177.83927
G1 X124.041 Y165.938 E177.91804
G1 X123.845 Y166.498 E177.99698
G1 X123.575 Y167.026 E178.07587
G1 X123.237 Y167.513 E178.15474
G1 X122.911 Y167.877 E178.21975
G1 X122.677 Y168.111 E178.26378
G1 X122.231 Y168.501 E178.3426
G1 X121.736 Y168.828 E178.42152
G1 X121.201 Y169.085 E178.50049
G1 X120.637 Y169.268 E178.57937
G1 X120.054 Y169.373 E178.65818
G1 X119.566 Y169.4 E178.72321
G1 X100.434 Y169.4 E181.26854
G1 X99.842 Y169.36 E181.34748
G1 X99.262 Y169.241 E181.42625
G1 X98.702 Y169.045 E181.50518
G1 X98.174 Y168.775 E181.58408
G1 X97.687 Y168.437 E181.66295
G1 X97.323 Y168.111 E181.72796
G1 X97.089 Y167.877 E181.77198
G1 X96.699 Y167.431 E181.85081
G1 X96.372 Y166.936 E181.92973
G1 X96.115 Y166.401 E182.0087
G1 X95.932 Y165.837 E182.08758
G1 X95.827 Y165.254 E182.16639
G1 X95.8 Y164.766 E182.23142
G1 X95.8 Y55.234 E196.80361
G1 X95.84 Y54.642 E196.88255
G1 X95.959 Y54.062 E196.96132
G1 X96.155 Y53.502 E197.04026
G1 X96.425 Y52.974 E197.11915
G0 F6000 X96.954 Y53.677
G1 F1200 X97.222 Y53.212 E197.19056
G1 X97.654 Y52.688 E197.28091
G1 X97.888 Y52.454 E197.32493
G1 X98.295 Y52.105 E197.39626
G1 X98.749 Y51.819 E197.46765
G1 X99.24 Y51.604 E197.53896
G1 X99.758 Y51.464 E197.61035
G1 X100.434 Y51.4 E197.70068
G1 X119.566 Y51.4 E200.24602
G1 X120.101 Y51.44 E200.31739
G1 X120.624 Y51.559 E200.38875
G1 X121.123 Y51.754 E200.46003
G1 X121.588 Y52.022 E200.53143
G1 X122.112 Y52.454 E200.62178
G1 X122.346 Y52.688 E200.66581
G1 X122.695 Y53.095 E200.73713
G1 X122.981 Y53.549 E200.80852
G1 X123.196 Y54.04 E200.87983
G1 X123.336 Y54.558 E200.95122
G1 X123.4 Y55.234 E201.04156
G1 X123.4 Y164.766 E215.61375
G1 X123.36 Y165.301 E215.68513
G1 X123.241 Y165.824 E215.75649
G1 X123.046 Y166.323 E215.82776
G1 X122.778 Y166.788 E215.89917
G1 X122.346 Y167.312 E215.98952
G1 X122.112 Y167.546 E216.03354
G1 X121.705 Y167.895 E216.10487
G1 X121.251 Y168.181 E216.17626
G1 X120.76 Y168.396 E216.24757
G1 X120.242 Y168.536 E216.31896
G1 X119.566 Y168.6 E216.40929
G1 X100.434 Y168.6 E218.95463
G1 X99.899 Y168.56 E219.026
G1 X99.376 Y168.441 E219.09736
G1 X98.877 Y168.246 E219.16864
G1 X98.412 Y167.978 E219.24004
G1 X97.888 Y167.546 E219.33039
G1 X97.654 Y167.312 E219.37442
G1 X97.305 Y166.905 E219.44574
G1 X97.019 Y166.451 E219.51713
G1 X96.804 Y165.96 E219.58844
G1 X96.664 Y165.442 E219.65983
G1 X96.6 Y164.766 E219.75017
G1 X96.6 Y55.234 E234.32236
G1 X96.64 Y54.699 E234.39374
G1 X96.759 Y54.176 E234.4651
G1 X96.954 Y53.677 E234.53637
G0 F6000 X97.753 Y53.874
G1 F1200 X98.016 Y53.481 E234.59929
G1 X98.22 Y53.254 E234.63989
G1 X98.454 Y53.02 E234.68392
G1 X98.816 Y52.715 E234.74689
G1 X99.223 Y52.475 E234.80975
G1 X99.665 Y52.308 E234.87261
G1 X100.129 Y52.217 E234.93552
G1 X100.434 Y52.2 E234.97616
G1 X119.566 Y52.2 E237.52149
G1 X120.037 Y52.24 E237.58438
G1 X120.495 Y52.359 E237.64734
G1 X120.926 Y52.553 E237.71022
G1 X121.319 Y52.816 E237.77313
G1 X121.546 Y53.02 E237.81373
G1 X121.78 Y53.254 E237.85776
G1 X122.085 Y53.616 E237.92074
G1 X122.325 Y54.023 E237.9836
G1 X122.492 Y54.465 E238.04646
G1 X122.583 Y54.929 E238.10937
G1 X122.6 Y55.234 E238.15001
G1 X122.6 Y164.766 E252.7222
G1 X122.56 Y165.237 E252.78509
G1 X122.441 Y165.695 E252.84805
G1 X122.247 Y166.126 E252.91093
G1 X121.984 Y166.519 E252.97384
G1 X121.78 Y166.746 E253.01444
G1 X121.546 Y166.98 E253.05847
G1 X121.184 Y167.285 E253.12145
G1 X120.777 Y167.525 E253.18431
G1 X120.335 Y167.692 E253.24717
G1 X119.871 Y167.783 E253.31007
G1 X119.566 Y167.8 E253.35071
G1 X100.434 Y167.8 E255.89605
G1 X99.963 Y167.76 E255.95893
G1 X99.505 Y167.641 E256.02189
G1 X99.074 Y167.447 E256.08477
G1 X98.681 Y167.184 E256.14768
G1 X98.454 Y166.98 E256.18829
G1 X98.22 Y166.746 E256.23231
G1 X97.915 Y166.384 E256.29529
G1 X97.675 Y165.977 E256.35815
G1 X97.508 Y165.535 E256.42101
G1 X97.417 Y165.071 E256.48392
G1 X97.4 Y164.766 E256.52456
G1 X97.4 Y55.234 E271.09675
G1 X97.44 Y54.763 E271.15964
G1 X97.559 Y54.305 E271.2226
G1 X97.753 Y53.874 E271.28548
G0 F6000 X98.55 Y54.104
G1 F1200 X98.786 Y53.82 E271.33461
G1 X99.02 Y53.586 E271.37863
G1 X99.329 Y53.333 E271.43176
G1 X99.682 Y53.147 E271.48485
G1 X100.066 Y53.034 E271.5381
G1 X100.434 Y53 E271.58727
G1 X119.566 Y53 E274.1326
G1 X119.964 Y53.04 E274.18582
G1 X120.345 Y53.158 E274.23888
G1 X120.696 Y53.35 E274.29211
G1 X120.98 Y53.586 E274.34123
G1 X121.214 Y53.82 E274.38526
G1 X121.467 Y54.129 E274.43839
G1 X121.653 Y54.482 E274.49148
G1 X121.766 Y54.866 E274.54473
G1 X121.8 Y55.234 E274.5939
G1 X121.8 Y164.766 E289.16609
G1 X121.76 Y165.164 E289.21931
G1 X121.642 Y165.545 E289.27237
G1 X121.45 Y165.896 E289.3256
G1 X121.214 Y166.18 E289.37473
G1 X120.98 Y166.414 E289.41875
G1 X120.671 Y166.667 E289.47189
G1 X120.318 Y166.853 E289.52497
G1 X119.934 Y166.966 E289.57822
G1 X119.566 Y167 E289.62739
G1 X100.434 Y167 E292.17272
G1 X100.036 Y166.96 E292.22594
G1 X99.655 Y166.842 E292.279
G1 X99.304 Y166.65 E292.33223
G1 X99.02 Y166.414 E292.38136
G1 X98.786 Y166.18 E292.42538
G1 X98.533 Y165.871 E292.47851
G1 X98.347 Y165.518 E292.5316
G1 X98.234 Y165.134 E292.58485
G1 X98.2 Y164.766 E292.63402
G1 X98.2 Y55.234 E307.20622
G1 X98.24 Y54.836 E307.25943
G1 X98.358 Y54.455 E307.3125
G1 X98.55 Y54.104 E307.36572
G0 F6000 X99.157 Y54.641
G1 F1200 X99.351 Y54.385 E307.40846
G1 X99.585 Y54.151 E307.45248
G1 X99.83 Y53.963 E307.49357
G1 X100.115 Y53.843 E307.53471
G1 X100.434 Y53.8 E307.57753
G1 X119.566 Y53.8 E310.12286
G1 X119.873 Y53.84 E310.16405
G1 X120.159 Y53.957 E310.20516
G1 X120.415 Y54.151 E310.2479
G1 X120.649 Y54.385 E310.29192
G1 X120.837 Y54.63 E310.33301
G1 X120.957 Y54.915 E310.37415
G1 X121 Y55.234 E310.41697
G1 X121 Y164.766 E324.98917
G1 X120.96 Y165.073 E325.03036
G1 X120.843 Y165.359 E325.07147
G1 X120.649 Y165.615 E325.1142
G1 X120.415 Y165.849 E325.15823
G1 X120.17 Y166.037 E325.19931
G1 X119.885 Y166.157 E325.24045
G1 X119.566 Y166.2 E325.28328
G1 X100.434 Y166.2 E327.82861
G1 X100.127 Y166.16 E327.8698
G1 X99.841 Y166.043 E327.91091
G1 X99.585 Y165.849 E327.95364
G1 X99.351 Y165.615 E327.99767
G1 X99.163 Y165.37 E328.03875
G1 X99.043 Y165.085 E328.07989
G1 X99 Y164.766 E328.12272
G1 X99 Y55.234 E342.69491
G1 X99.04 Y54.927 E342.7361
G1 X99.157 Y54.641 E342.77721
G0 F6000 X99.84 Y55.061
G1 F1200 X99.917 Y54.951 E342.79508
G1 X100.151 Y54.717 E342.8391
G1 X100.302 Y54.623 E342.86277
G1 X100.434 Y54.6 E342.88059
G1 X119.566 Y54.6 E345.42593
G1 X119.739 Y54.64 E345.44955
G1 X119.849 Y54.717 E345.46741
G1 X120.083 Y54.951 E345.51144
G1 X120.177 Y55.102 E345.5351
G1 X120.2 Y55.234 E345.55293
G1 X120.2 Y164.766 E360.12512
G1 X120.161 Y164.939 E360.14872
G1 X120.083 Y165.049 E360.16666
G1 X119.849 Y165.283 E360.21068
G1 X119.698 Y165.377 E360.23435
G1 X119.566 Y165.4 E360.25217
G1 X100.434 Y165.4 E362.79751
G1 X100.261 Y165.361 E362.8211
G1 X100.151 Y165.283 E362.83904
G1 X99.917 Y165.049 E362.88307
G1 X99.823 Y164.898 E362.90673
G1 X99.8 Y164.766 E362.92456
G1 X99.8 Y55.234 E377.49675
G1 X99.84 Y55.061 E377.52038
G1 F1500 E371.02038
;MESH:zanza fissa prolunga mobile.stl
G0 F6000 X102.61 Y57.41
G0 X117.418 Y57.382
G0 X118.9 Y164.13
G1 F1500 E377.52038
G0 F6000 X119.4 Y164.6
;TYPE:WALL-OUTER
G1 F1200 X100.6 Y164.6 E380.02154
G1 X100.6 Y55.4 E394.54956
G1 X119.4 Y55.4 E397.05073
G1 X119.4 Y164.6 E411.57875
G0 F6000 X118.93 Y164.13
G0 X118.6 Y163.8
;TYPE:WALL-INNER
G1 F1200 X101.4 Y163.8 E413.86705
G1 X101.4 Y56.2 E428.18221
G1 X118.6 Y56.2 E430.47051
G1 X118.6 Y163.8 E444.78567
G0 F6000 X117.8 Y163
G1 F1200 X102.2 Y163 E446.86111
G1 X102.2 Y57 E460.9634
G1 X117.8 Y57 E463.03884
G1 X117.8 Y163 E477.14113
G0 F6000 X117.49 Y162.21
G0 X117.01 Y162.21
;TYPE:SKIN
G1 F1200 X102.99 Y162.21 E479.00636
G1 X102.99 Y57.79 E492.89845
G1 X117.01 Y57.79 E494.76368
G1 X117.01 Y162.21 E508.65578
G0 F6000 X117.49 Y162.21
G0 X117.418 Y162.618
G0 X104.189 Y162.69
G0 X104.189 Y161.889
G1 F1200 X103.309 Y161.009 E508.82135
G0 F6000 X102.51 Y161.009
G0 X102.51 Y159.878
G0 X103.309 Y159.878
G1 F1200 X105.32 Y161.889 E509.19971
G0 F6000 X105.32 Y162.69
G0 X106.452 Y162.69
G0 X106.452 Y161.889
G1 F1200 X103.309 Y158.746 E509.79106
G0 F6000 X102.51 Y158.746
G0 X102.51 Y157.615
G0 X103.309 Y157.615
G1 F1200 X107.583 Y161.889 E510.5952
G0 F6000 X107.583 Y162.69
G0 X108.714 Y162.69
G0 X108.714 Y161.889
G1 F1200 X103.309 Y156.484 E511.61214
G0 F6000 X102.51 Y156.484
G0 X102.51 Y155.352
G0 X103.309 Y155.352
G1 F1200 X109.846 Y161.889 E512.84206
G0 F6000 X109.846 Y162.69
G0 X110.977 Y162.69
G0 X110.977 Y161.889
G1 F1200 X103.309 Y154.221 E514.28478
G0 F6000 X102.51 Y154.221
G0 X102.51 Y153.09
G0 X103.309 Y153.09
G1 F1200 X112.108 Y161.889 E515.94029
G0 F6000 X112.108 Y162.69
G0 X113.24 Y162.69
G0 X113.24 Y161.889
G1 F1200 X103.309 Y151.958 E517.80879
G0 F6000 X102.51 Y151.958
G0 X102.51 Y150.827
G0 X103.309 Y150.827
G1 F1200 X114.371 Y161.889 E519.89008
G0 F6000 X114.371 Y162.69
G0 X115.503 Y162.69
G0 X115.503 Y161.889
G1 F1200 X103.309 Y149.695 E522.18435
G0 F6000 X102.51 Y149.695
G0 X102.51 Y148.564
G0 X103.309 Y148.564
G1 F1200 X116.634 Y161.889 E524.69142
G0 F6000 X116.634 Y162.69
G0 X117.418 Y162.618
G0 X117.49 Y160.813
G0 X116.689 Y160.813
G1 F1200 X103.309 Y147.433 E527.20884
G0 F6000 X102.51 Y147.433
G0 X102.51 Y146.301
G0 X103.309 Y146.301
G1 F1200 X116.689 Y159.681 E529.72625
G0 F6000 X117.49 Y159.681
G0 X117.49 Y158.55
G0 X116.689 Y158.55
G1 F1200 X103.309 Y145.17 E532.24367
G0 F6000 X102.51 Y145.17
G0 X102.51 Y144.039
G0 X103.309 Y144.039
G1 F1200 X116.689 Y157.418 E534.76099
G0 F6000 X117.49 Y157.418
G0 X117.49 Y156.287
G0 X116.689 Y156.287
G1 F1200 X103.309 Y142.907 E537.27841
G0 F6000 X102.51 Y142.907
G0 X102.51 Y141.776
G0 X103.309 Y141.776
G1 F1200 X116.689 Y155.156 E539.79583
G0 F6000 X117.49 Y155.156
G0 X117.49 Y154.024
G0 X116.689 Y154.024
G1 F1200 X103.309 Y140.644 E542.31324
G0 F6000 X102.51 Y140.644
G0 X102.51 Y139.513
G0 X103.309 Y139.513
G1 F1200 X116.689 Y152.893 E544.83066
G0 F6000 X117.49 Y152.893
G0 X117.49 Y151.762
G0 X116.689 Y151.762
G1 F1200 X103.309 Y138.382 E547.34808
G0 F6000 X102.51 Y138.382
G0 X102.51 Y137.25
G0 X103.309 Y137.25
G1 F1200 X116.689 Y150.63 E549.86549
G0 F6000 X117.49 Y150.63
G0 X117.49 Y149.499
G0 X116.689 Y149.499
G1 F1200 X103.309 Y136.119 E552.38291
G0 F6000 X102.51 Y136.119
G0 X102.51 Y134.988
G0 X103.309 Y134.988
G1 F1200 X116.689 Y148.367 E554.90023
G0 F6000 X117.49 Y148.367
G0 X117.49 Y147.236
G0 X116.689 Y147.236
G1 F1200 X103.309 Y133.856 E557.41765
G0 F6000 X102.51 Y133.856
G0 X102.51 Y132.725
G0 X103.309 Y132.725
G1 F1200 X116.689 Y146.105 E559.93506
G0 F6000 X117.49 Y146.105
G0 X117.49 Y144.973
G0 X116.689 Y144.973
G1 F1200 X103.309 Y131.593 E562.45248
G0 F6000 X102.51 Y131.593
G0 X102.51 Y130.462
G0 X103.309 Y130.462
G1 F1200 X116.689 Y143.842 E564.9699
G0 F6000 X117.49 Y143.842
G0 X117.49 Y142.711
G0 X116.689 Y142.711
G1 F1200 X103.309 Y129.331 E567.48731
G0 F6000 X102.51 Y129.331
G0 X102.51 Y128.199
G0 X103.309 Y128.199
G1 F1200 X116.689 Y141.579 E570.00473
G0 F6000 X117.49 Y141.579
G0 X117.49 Y140.448
G0 X116.689 Y140.448
G1 F1200 X103.309 Y127.068 E572.52215
G0 F6000 X102.51 Y127.068
G0 X102.51 Y125.937
G0 X103.309 Y125.937
G1 F1200 X116.689 Y139.317 E575.03956
G0 F6000 X117.49 Y139.317
G0 X117.49 Y138.185
G0 X116.689 Y138.185
G1 F1200 X103.309 Y124.805 E577.55698
G0 F6000 X102.51 Y124.805
G0 X102.51 Y123.674
G0 X103.309 Y123.674
G1 F1200 X116.689 Y137.054 E580.0744
G0 F6000 X117.49 Y137.054
G0 X117.49 Y135.922
G0 X116.689 Y135.922
G1 F1200 X103.309 Y122.543 E582.59172
G0 F6000 X102.51 Y122.543
G0 X102.51 Y121.411
G0 X103.309 Y121.411
G1 F1200 X116.689 Y134.791 E585.10914
G0 F6000 X117.49 Y134.791
G0 X117.49 Y133.66
G0 X116.689 Y133.66
G1 F1200 X103.309 Y120.28 E587.62655
G0 F6000 X102.51 Y120.28
G0 X102.51 Y119.148
G0 X103.309 Y119.148
G1 F1200 X116.689 Y132.528 E590.14397
G0 F6000 X117.49 Y132.528
G0 X117.49 Y131.397
G0 X116.689 Y131.397
G1 F1200 X103.309 Y118.017 E592.66139
G0 F6000 X102.51 Y118.017
G0 X102.51 Y116.886
G0 X103.309 Y116.886
G1 F1200 X116.689 Y130.266 E595.1788
G0 F6000 X117.49 Y130.266
G0 X117.49 Y129.134
G0 X116.689 Y129.134
G1 F1200 X103.309 Y115.754 E597.69622
G0 F6000 X102.51 Y115.754
G0 X102.51 Y114.623
G0 X103.309 Y114.623
G1 F1200 X116.689 Y128.003 E600.21364
G0 F6000 X117.49 Y128.003
G0 X117.49 Y126.871
G0 X116.689 Y126.871
G1 F1200 X103.309 Y113.492 E602.73096
G0 F6000 X102.51 Y113.492
G0 X102.51 Y112.36
G0 X103.309 Y112.36
G1 F1200 X116.689 Y125.74 E605.24838
G0 F6000 X117.49 Y125.74
G0 X117.49 Y124.609
G0 X116.689 Y124.609
G1 F1200 X103.309 Y111.229 E607.76579
G0 F6000 X102.51 Y111.229
G0 X102.51 Y110.097
G0 X103.309 Y110.097
G1 F1200 X116.689 Y123.477 E610.28321
G0 F6000 X117.49 Y123.477
G0 X117.49 Y122.346
G0 X116.689 Y122.346
G1 F1200 X103.309 Y108.966 E612.80063
G0 F6000 X102.51 Y108.966
G0 X102.51 Y107.835
G0 X103.309 Y107.835
G1 F1200 X116.689 Y121.215 E615.31804
G0 F6000 X117.49 Y121.215
G0 X117.49 Y120.083
G0 X116.689 Y120.083
G1 F1200 X103.309 Y106.703 E617.83546
G0 F6000 X102.51 Y106.703
G0 X102.51 Y105.572
G0 X103.309 Y105.572
G1 F1200 X116.689 Y118.952 E620.35288
G0 F6000 X117.49 Y118.952
G0 X117.49 Y117.82
G0 X116.689 Y117.82
G1 F1200 X103.309 Y104.441 E622.8702
G0 F6000 X102.51 Y104.441
G0 X102.51 Y103.309
G0 X103.309 Y103.309
G1 F1200 X116.689 Y116.689 E625.38762
G0 F6000 X117.49 Y116.689
G0 X117.49 Y115.558
G0 X116.689 Y115.558
G1 F1200 X103.309 Y102.178 E627.90503
G0 F6000 X102.51 Y102.178
G0 X102.51 Y101.046
G0 X103.309 Y101.046
G1 F1200 X116.689 Y114.426 E630.42245
G0 F6000 X117.49 Y114.426
G0 X117.49 Y113.295
G0 X116.689 Y113.295
G1 F1200 X103.309 Y99.915 E632.93987
G0 F6000 X102.51 Y99.915
G0 X102.51 Y98.784
G0 X103.309 Y98.784
G1 F1200 X116.689 Y112.164 E635.45728
G0 F6000 X117.49 Y112.164
G0 X117.49 Y111.032
G0 X116.689 Y111.032
G1 F1200 X103.309 Y97.652 E637.9747
G0 F6000 X102.51 Y97.652
G0 X102.51 Y96.521
G0 X103.309 Y96.521
G1 F1200 X116.689 Y109.901 E640.49212
G0 F6000 X117.49 Y109.901
G0 X117.49 Y108.769
G0 X116.689 Y108.769
G1 F1200 X103.309 Y95.39 E643.00944
G0 F6000 X102.51 Y95.39
G0 X102.51 Y94.258
G0 X103.309 Y94.258
G1 F1200 X116.689 Y107.638 E645.52686
G0 F6000 X117.49 Y107.638
G0 X117.49 Y106.507
G0 X116.689 Y106.507
G1 F1200 X103.309 Y93.127 E648.04427
G0 F6000 X102.51 Y93.127
G0 X102.51 Y91.996
G0 X103.309 Y91.996
G1 F1200 X116.689 Y105.375 E650.5616
G0 F6000 X117.49 Y105.375
G0 X117.49 Y104.244
G0 X116.689 Y104.244
G1 F1200 X103.309 Y90.864 E653.07901
G0 F6000 X102.51 Y90.864
G0 X102.51 Y89.733
G0 X103.309 Y89.733
G1 F1200 X116.689 Y103.113 E655.59643
G0 F6000 X117.49 Y103.113
G0 X117.49 Y101.981
G0 X116.689 Y101.981
G1 F1200 X103.309 Y88.601 E658.11385
G0 F6000 X102.51 Y88.601
G0 X102.51 Y87.47
G0 X103.309 Y87.47
G1 F1200 X116.689 Y100.85 E660.63126
G0 F6000 X117.49 Y100.85
G0 X117.49 Y99.719
G0 X116.689 Y99.719
G1 F1200 X103.309 Y86.339 E663.14868
G0 F6000 X102.51 Y86.339
G0 X102.51 Y85.207
G0 X103.309 Y85.207
G1 F1200 X116.689 Y98.587 E665.6661
G0 F6000 X117.49 Y98.587
G0 X117.49 Y97.456
G0 X116.689 Y97.456
G1 F1200 X103.309 Y84.076 E668.18351
G0 F6000 X102.51 Y84.076
G0 X102.51 Y82.945
G0 X103.309 Y82.945
G1 F1200 X116.689 Y96.324 E670.70084
G0 F6000 X117.49 Y96.324
G0 X117.49 Y95.193
G0 X116.689 Y95.193
G1 F1200 X103.309 Y81.813 E673.21825
G0 F6000 X102.51 Y81.813
G0 X102.51 Y80.682
G0 X103.309 Y80.682
G1 F1200 X116.689 Y94.062 E675.73567
G0 F6000 X117.49 Y94.062
G0 X117.49 Y92.93
G0 X116.689 Y92.93
G1 F1200 X103.309 Y79.55 E678.25309
G0 F6000 X102.51 Y79.55
G0 X102.51 Y78.419
G0 X103.309 Y78.419
G1 F1200 X116.689 Y91.799 E680.7705
G0 F6000 X117.49 Y91.799
G0 X117.49 Y90.668
G0 X116.689 Y90.668
G1 F1200 X103.309 Y77.288 E683.28792
G0 F6000 X102.51 Y77.288
G0 X102.51 Y76.156
G0 X103.309 Y76.156
G1 F1200 X116.689 Y89.536 E685.80534
G0 F6000 X117.49 Y89.536
G0 X117.49 Y88.405
G0 X116.689 Y88.405
G1 F1200 X103.309 Y75.025 E688.32275
G0 F6000 X102.51 Y75.025
G0 X102.51 Y73.894
G0 X103.309 Y73.894
G1 F1200 X116.689 Y87.273 E690.84008
G0 F6000 X117.49 Y87.273
G0 X117.49 Y86.142
G0 X116.689 Y86.142
G1 F1200 X103.309 Y72.762 E693.35749
G0 F6000 X102.51 Y72.762
G0 X102.51 Y71.631
G0 X103.309 Y71.631
G1 F1200 X116.689 Y85.011 E695.87491
G0 F6000 X117.49 Y85.011
G0 X117.49 Y83.879
G0 X116.689 Y83.879
G1 F1200 X103.309 Y70.499 E698.39233
G0 F6000 X102.51 Y70.499
G0 X102.51 Y69.368
G0 X103.309 Y69.368
G1 F1200 X116.689 Y82.748 E700.90974
G0 F6000 X117.49 Y82.748
G0 X117.49 Y81.617
G0 X116.689 Y81.617
G1 F1200 X103.309 Y68.237 E703.42716
G0 F6000 X102.51 Y68.237
G0 X102.51 Y67.105
G0 X103.309 Y67.105
G1 F1200 X116.689 Y80.485 E705.94458
G0 F6000 X117.49 Y80.485
G0 X117.49 Y79.354
G0 X116.689 Y79.354
G1 F1200 X103.309 Y65.974 E708.46199
G0 F6000 X102.51 Y65.974
G0 X102.51 Y64.843
G0 X103.309 Y64.843
G1 F1200 X116.689 Y78.222 E710.97931
G0 F6000 X117.49 Y78.222
G0 X117.49 Y77.091
G0 X116.689 Y77.091
G1 F1200 X103.309 Y63.711 E713.49673
G0 F6000 X102.51 Y63.711
G0 X102.51 Y62.58
G0 X103.309 Y62.58
G1 F1200 X116.689 Y75.96 E716.01415
G0 F6000 X117.49 Y75.96
G0 X117.49 Y74.828
G0 X116.689 Y74.828
G1 F1200 X103.309 Y61.448 E718.53156
G0 F6000 X102.51 Y61.448
G0 X102.51 Y60.317
G0 X103.309 Y60.317
G1 F1200 X116.689 Y73.697 E721.04898
G0 F6000 X117.49 Y73.697
G0 X117.49 Y72.566
G0 X116.689 Y72.566
G1 F1200 X103.309 Y59.186 E723.5664
G0 F6000 X102.51 Y59.186
G0 X102.582 Y57.382
G0 X103.364 Y57.31
G0 X103.364 Y58.11
G1 F1200 X116.689 Y71.434 E726.07337
G0 F6000 X117.49 Y71.434
G0 X117.49 Y70.303
G0 X116.689 Y70.303
G1 F1200 X104.496 Y58.11 E728.36746
G0 F6000 X104.496 Y57.31
G0 X105.627 Y57.31
G0 X105.627 Y58.11
G1 F1200 X116.689 Y69.172 E730.44875
G0 F6000 X117.49 Y69.172
G0 X117.49 Y68.04
G0 X116.689 Y68.04
G1 F1200 X106.758 Y58.11 E732.31715
G0 F6000 X106.758 Y57.31
G0 X107.89 Y57.31
G0 X107.89 Y58.11
G1 F1200 X116.689 Y66.909 E733.97266
G0 F6000 X117.49 Y66.909
G0 X117.49 Y65.777
G0 X116.689 Y65.777
G1 F1200 X109.021 Y58.11 E735.41528
G0 F6000 X109.021 Y57.31
G0 X110.153 Y57.31
G0 X110.153 Y58.11
G1 F1200 X116.689 Y64.646 E736.64502
G0 F6000 X117.49 Y64.646
G0 X117.49 Y63.515
G0 X116.689 Y63.515
G1 F1200 X111.284 Y58.11 E737.66196
G0 F6000 X111.284 Y57.31
G0 X112.415 Y57.31
G0 X112.415 Y58.11
G1 F1200 X116.689 Y62.383 E738.46601
G0 F6000 X117.49 Y62.383
G0 X117.49 Y61.252
G0 X116.689 Y61.252
G1 F1200 X113.547 Y58.11 E739.05717
G0 F6000 X113.547 Y57.31
G0 X114.678 Y57.31
G0 X114.678 Y58.11
G1 F1200 X116.689 Y60.121 E739.43553
G0 F6000 X117.49 Y60.121
G0 X117.49 Y58.989
G0 X116.689 Y58.989
G1 F1200 X115.809 Y58.11 E739.60101
G0 F6000 X115.809 Y56.61
G1 F1500 E733.10101
;MESH:NONMESH
G0 F300 X115.809 Y56.61 Z0.8
G0 F6000 X117.418 Y57.382
G0 X117.8 Y163
;TIME_ELAPSED:309.479580
;LAYER:1
;TYPE:WALL-INNER
;MESH:zanza fissa prolunga mobile.stl
G1 F1500 E739.60101
G1 F1350 X102.2 Y163 E741.67644
G1 X102.2 Y57 E755.77874
G1 X117.8 Y57 E757.85417
G1 X117.8 Y163 E771.95647
G0 F7500 X118.6 Y163.8
G1 F1350 X101.4 Y163.8 E774.24476
G1 X101.4 Y56.2 E788.55993
G1 X118.6 Y56.2 E790.84822
G1 X118.6 Y163.8 E805.16339
G0 F7500 X118.93 Y164.13
G0 X119.4 Y164.6
;TYPE:WALL-OUTER
G1 F1350 X100.6 Y164.6 E807.66455
G1 X100.6 Y55.4 E822.19257
G1 X119.4 Y55.4 E824.69374
G1 X119.4 Y164.6 E839.22176
G0 F7500 X118.93 Y164.13
G0 X117.49 Y162.21
G0 X117.01 Y162.21
;TYPE:SKIN
G1 F1350 X102.99 Y162.21 E841.08699
G1 X102.99 Y57.79 E854.97909
G1 X117.01 Y57.79 E856.84431
G1 X117.01 Y162.21 E870.73641
G0 F7500 X116.427 Y161.889
G1 F1350 X116.689 Y161.627 E870.7857
G0 F7500 X117.49 Y161.627
G0 X117.49 Y160.496
G0 X116.689 Y160.496
G1 F1350 X115.296 Y161.889 E871.04779
G0 F7500 X115.296 Y162.69
G0 X114.165 Y162.69
G0 X114.165 Y161.889
G1 F1350 X116.689 Y159.364 E871.52277
G0 F7500 X117.49 Y159.364
G0 X117.49 Y158.233
G0 X116.689 Y158.233
G1 F1350 X113.033 Y161.889 E872.21064
G0 F7500 X113.033 Y162.69
G0 X111.902 Y162.69
G0 X111.902 Y161.889
G1 F1350 X116.689 Y157.102 E873.1113
G0 F7500 X117.49 Y157.102
G0 X117.49 Y155.97
G0 X116.689 Y155.97
G1 F1350 X110.771 Y161.889 E874.22485
G0 F7500 X110.771 Y162.69
G0 X109.639 Y162.69
G0 X109.639 Y161.889
G1 F1350 X116.689 Y154.839 E875.5513
G0 F7500 X117.49 Y154.839
G0 X117.49 Y153.708
G0 X116.689 Y153.708
G1 F1350 X108.508 Y161.889 E877.09053
G0 F7500 X108.508 Y162.69
G0 X107.376 Y162.69
G0 X107.376 Y161.889
G1 F1350 X116.689 Y152.576 E878.84275
G0 F7500 X117.49 Y152.576
G0 X117.49 Y151.445
G0 X116.689 Y151.445
G1 F1350 X106.245 Y161.889 E880.80777
G0 F7500 X106.245 Y162.69
G0 X105.114 Y162.69
G0 X105.114 Y161.889
G1 F1350 X116.689 Y150.313 E882.98567
G0 F7500 X117.49 Y150.313
G0 X117.49 Y149.182
G0 X116.689 Y149.182
G1 F1350 X103.982 Y161.889 E885.37646
G0 F7500 X103.309 Y161.431
G1 F1350 X116.689 Y148.051 E887.89388
G0 F7500 X117.49 Y148.051
G0 X117.49 Y146.919
G0 X116.689 Y146.919
G1 F1350 X103.309 Y160.299 E890.4113
G0 F7500 X102.51 Y160.299
G0 X102.51 Y159.168
G0 X103.309 Y159.168
G1 F1350 X116.689 Y145.788 E892.92871
G0 F7500 X117.49 Y145.788
G0 X117.49 Y144.657
G0 X116.689 Y144.657
G1 F1350 X103.309 Y158.036 E895.44604
G0 F7500 X102.51 Y158.036
G0 X102.51 Y156.905
G0 X103.309 Y156.905
G1 F1350 X116.689 Y143.525 E897.96345
G0 F7500 X117.49 Y143.525
G0 X117.49 Y142.394
G0 X116.689 Y142.394
G1 F1350 X103.309 Y155.774 E900.48087
G0 F7500 X102.51 Y155.774
G0 X102.51 Y154.642
G0 X103.309 Y154.642
G1 F1350 X116.689 Y141.262 E902.99829
G0 F7500 X117.49 Y141.262
G0 X117.49 Y140.131
G0 X116.689 Y140.131
G1 F1350 X103.309 Y153.511 E905.5157
G0 F7500 X102.51 Y153.511
G0 X102.51 Y152.38
G0 X103.309 Y152.38
G1 F1350 X116.689 Y139 E908.03312
G0 F7500 X117.49 Y139
G0 X117.49 Y137.868
G0 X116.689 Y137.868
G1 F1350 X103.309 Y151.248 E910.55054
G0 F7500 X102.51 Y151.248
G0 X102.51 Y150.117
G0 X103.309 Y150.117
G1 F1350 X116.689 Y136.737 E913.06795
G0 F7500 X117.49 Y136.737
G0 X117.49 Y135.606
G0 X116.689 Y135.606
G1 F1350 X103.309 Y148.985 E915.58528
G0 F7500 X102.51 Y148.985
G0 X102.51 Y147.854
G0 X103.309 Y147.854
G1 F1350 X116.689 Y134.474 E918.10269
G0 F7500 X117.49 Y134.474
G0 X117.49 Y133.343
G0 X116.689 Y133.343
G1 F1350 X103.309 Y146.723 E920.62011
G0 F7500 X102.51 Y146.723
G0 X102.51 Y145.591
G0 X103.309 Y145.591
G1 F1350 X116.689 Y132.211 E923.13753
G0 F7500 X117.49 Y132.211
G0 X117.49 Y131.08
G0 X116.689 Y131.08
G1 F1350 X103.309 Y144.46 E925.65494
G0 F7500 X102.51 Y144.46
G0 X102.51 Y143.329
G0 X103.309 Y143.329
G1 F1350 X116.689 Y129.949 E928.17236
G0 F7500 X117.49 Y129.949
G0 X117.49 Y128.817
G0 X116.689 Y128.817
G1 F1350 X103.309 Y142.197 E930.68978
G0 F7500 X102.51 Y142.197
G0 X102.51 Y141.066
G0 X103.309 Y141.066
G1 F1350 X116.689 Y127.686 E933.20719
G0 F7500 X117.49 Y127.686
G0 X117.49 Y126.555
G0 X116.689 Y126.555
G1 F1350 X103.309 Y139.935 E935.72461
G0 F7500 X102.51 Y139.935
G0 X102.51 Y138.803
G0 X103.309 Y138.803
G1 F1350 X116.689 Y125.423 E938.24203
G0 F7500 X117.49 Y125.423
G0 X117.49 Y124.292
G0 X116.689 Y124.292
G1 F1350 X103.309 Y137.672 E940.75944
G0 F7500 X102.51 Y137.672
G0 X102.51 Y136.54
G0 X103.309 Y136.54
G1 F1350 X116.689 Y123.161 E943.27677
G0 F7500 X117.49 Y123.161
G0 X117.49 Y122.029
G0 X116.689 Y122.029
G1 F1350 X103.309 Y135.409 E945.79418
G0 F7500 X102.51 Y135.409
G0 X102.51 Y134.278
G0 X103.309 Y134.278
G1 F1350 X116.689 Y120.898 E948.3116
G0 F7500 X117.49 Y120.898
G0 X117.49 Y119.766
G0 X116.689 Y119.766
G1 F1350 X103.309 Y133.146 E950.82902
G0 F7500 X102.51 Y133.146
G0 X102.51 Y132.015
G0 X103.309 Y132.015
G1 F1350 X116.689 Y118.635 E953.34643
G0 F7500 X117.49 Y118.635
G0 X117.49 Y117.504
G0 X116.689 Y117.504
G1 F1350 X103.309 Y130.884 E955.86385
G0 F7500 X102.51 Y130.884
G0 X102.51 Y129.752
G0 X103.309 Y129.752
G1 F1350 X116.689 Y116.372 E958.38127
G0 F7500 X117.49 Y116.372
G0 X117.49 Y115.241
G0 X116.689 Y115.241
G1 F1350 X103.309 Y128.621 E960.89868
G0 F7500 X102.51 Y128.621
G0 X102.51 Y127.489
G0 X103.309 Y127.489
G1 F1350 X116.689 Y114.11 E963.41601
G0 F7500 X117.49 Y114.11
G0 X117.49 Y112.978
G0 X116.689 Y112.978
G1 F1350 X103.309 Y126.358 E965.93342
G0 F7500 X102.51 Y126.358
G0 X102.51 Y125.227
G0 X103.309 Y125.227
G1 F1350 X116.689 Y111.847 E968.45084
G0 F7500 X117.49 Y111.847
G0 X117.49 Y110.715
G0 X116.689 Y110.715
G1 F1350 X103.309 Y124.095 E970.96826
G0 F7500 X102.51 Y124.095
G0 X102.51 Y122.964
G0 X103.309 Y122.964
G1 F1350 X116.689 Y109.584 E973.48567
G0 F7500 X117.49 Y109.584
G0 X117.49 Y108.453
G0 X116.689 Y108.453
G1 F1350 X103.309 Y121.833 E976.00309
G0 F7500 X102.51 Y121.833
G0 X102.51 Y120.701
G0 X103.309 Y120.701
G1 F1350 X116.689 Y107.321 E978.52051
G0 F7500 X117.49 Y107.321
G0 X117.49 Y106.19
G0 X116.689 Y106.19
G1 F1350 X103.309 Y119.57 E981.03792
G0 F7500 X102.51 Y119.57
G0 X102.51 Y118.438
G0 X103.309 Y118.438
G1 F1350 X116.689 Y105.059 E983.55525
G0 F7500 X117.49 Y105.059
G0 X117.49 Y103.927
G0 X116.689 Y103.927
G1 F1350 X103.309 Y117.307 E986.07266
G0 F7500 X102.51 Y117.307
G0 X102.51 Y116.176
G0 X103.309 Y116.176
G1 F1350 X116.689 Y102.796 E988.59008
G0 F7500 X117.49 Y102.796
G0 X117.49 Y101.664
G0 X116.689 Y101.664
G1 F1350 X103.309 Y115.044 E991.1075
G0 F7500 X102.51 Y115.044
G0 X102.51 Y113.913
G0 X103.309 Y113.913
G1 F1350 X116.689 Y100.533 E993.62491
G0 F7500 X117.49 Y100.533
G0 X117.49 Y99.402
G0 X116.689 Y99.402
G1 F1350 X103.309 Y112.782 E996.14233
G0 F7500 X102.51 Y112.782
G0 X102.51 Y111.65
G0 X103.309 Y111.65
G1 F1350 X116.689 Y98.27 E998.65975
G0 F7500 X117.49 Y98.27
G0 X117.49 Y97.139
G0 X116.689 Y97.139
G1 F1350 X103.309 Y110.519 E1001.17716
G0 F7500 X102.51 Y110.519
G0 X102.51 Y109.388
G0 X103.309 Y109.388
G1 F1350 X116.689 Y96.008 E1003.69458
G0 F7500 X117.49 Y96.008
G0 X117.49 Y94.876
G0 X116.689 Y94.876
G1 F1350 X103.309 Y108.256 E1006.212
G0 F7500 X102.51 Y108.256
G0 X102.51 Y107.125
G0 X103.309 Y107.125
G1 F1350 X116.689 Y93.745 E1008.72941
G0 F7500 X117.49 Y93.745
G0 X117.49 Y92.614
G0 X116.689 Y92.614
G1 F1350 X103.309 Y105.993 E1011.24674
G0 F7500 X102.51 Y105.993
G0 X102.51 Y104.862
G0 X103.309 Y104.862
G1 F1350 X116.689 Y91.482 E1013.76415
G0 F7500 X117.49 Y91.482
G0 X117.49 Y90.351
G0 X116.689 Y90.351
G1 F1350 X103.309 Y103.731 E1016.28157
G0 F7500 X102.51 Y103.731
G0 X102.51 Y102.599
G0 X103.309 Y102.599
G1 F1350 X116.689 Y89.219 E1018.79899
G0 F7500 X117.49 Y89.219
G0 X117.49 Y88.088
G0 X116.689 Y88.088
G1 F1350 X103.309 Y101.468 E1021.3164
G0 F7500 X102.51 Y101.468
G0 X102.51 Y100.337
G0 X103.309 Y100.337
G1 F1350 X116.689 Y86.957 E1023.83382
G0 F7500 X117.49 Y86.957
G0 X117.49 Y85.825
G0 X116.689 Y85.825
G1 F1350 X103.309 Y99.205 E1026.35124
G0 F7500 X102.51 Y99.205
G0 X102.51 Y98.074
G0 X103.309 Y98.074
G1 F1350 X116.689 Y84.694 E1028.86865
G0 F7500 X117.49 Y84.694
G0 X117.49 Y83.563
G0 X116.689 Y83.563
G1 F1350 X103.309 Y96.942 E1031.38598
G0 F7500 X102.51 Y96.942
G0 X102.51 Y95.811
G0 X103.309 Y95.811
G1 F1350 X116.689 Y82.431 E1033.90339
G0 F7500 X117.49 Y82.431
G0 X117.49 Y81.3
G0 X116.689 Y81.3
G1 F1350 X103.309 Y94.68 E1036.42081
G0 F7500 X102.51 Y94.68
G0 X102.51 Y93.548
G0 X103.309 Y93.548
G1 F1350 X116.689 Y80.168 E1038.93823
G0 F7500 X117.49 Y80.168
G0 X117.49 Y79.037
G0 X116.689 Y79.037
G1 F1350 X103.309 Y92.417 E1041.45564
G0 F7500 X102.51 Y92.417
G0 X102.51 Y91.286
G0 X103.309 Y91.286
G1 F1350 X116.689 Y77.906 E1043.97306
G0 F7500 X117.49 Y77.906
G0 X117.49 Y76.774
G0 X116.689 Y76.774
G1 F1350 X103.309 Y90.154 E1046.49048
G0 F7500 X102.51 Y90.154
G0 X102.51 Y89.023
G0 X103.309 Y89.023
G1 F1350 X116.689 Y75.643 E1049.00789
G0 F7500 X117.49 Y75.643
G0 X117.49 Y74.512
G0 X116.689 Y74.512
G1 F1350 X103.309 Y87.891 E1051.52521
G0 F7500 X102.51 Y87.891
G0 X102.51 Y86.76
G0 X103.309 Y86.76
G1 F1350 X116.689 Y73.38 E1054.04263
G0 F7500 X117.49 Y73.38
G0 X117.49 Y72.249
G0 X116.689 Y72.249
G1 F1350 X103.309 Y85.629 E1056.56005
G0 F7500 X102.51 Y85.629
G0 X102.51 Y84.497
G0 X103.309 Y84.497
G1 F1350 X116.689 Y71.117 E1059.07746
G0 F7500 X117.49 Y71.117
G0 X117.49 Y69.986
G0 X116.689 Y69.986
G1 F1350 X103.309 Y83.366 E1061.59488
G0 F7500 X102.51 Y83.366
G0 X102.51 Y82.235
G0 X103.309 Y82.235
G1 F1350 X116.689 Y68.855 E1064.1123
G0 F7500 X117.49 Y68.855
G0 X117.49 Y67.723
G0 X116.689 Y67.723
G1 F1350 X103.309 Y81.103 E1066.62971
G0 F7500 X102.51 Y81.103
G0 X102.51 Y79.972
G0 X103.309 Y79.972
G1 F1350 X116.689 Y66.592 E1069.14713
G0 F7500 X117.49 Y66.592
G0 X117.49 Y65.461
G0 X116.689 Y65.461
G1 F1350 X103.309 Y78.84 E1071.66445
G0 F7500 X102.51 Y78.84
G0 X102.51 Y77.709
G0 X103.309 Y77.709
G1 F1350 X116.689 Y64.329 E1074.18187
G0 F7500 X117.49 Y64.329
G0 X117.49 Y63.198
G0 X116.689 Y63.198
G1 F1350 X103.309 Y76.578 E1076.69929
G0 F7500 X102.51 Y76.578
G0 X102.51 Y75.446
G0 X103.309 Y75.446
G1 F1350 X116.689 Y62.067 E1079.21661
G0 F7500 X117.49 Y62.067
G0 X117.49 Y60.935
G0 X116.689 Y60.935
G1 F1350 X103.309 Y74.315 E1081.73403
G0 F7500 X102.51 Y74.315
G0 X102.51 Y73.184
G0 X103.309 Y73.184
G1 F1350 X116.689 Y59.804 E1084.25144
G0 F7500 X117.49 Y59.804
G0 X117.49 Y58.672
G0 X116.689 Y58.672
G1 F1350 X103.309 Y72.052 E1086.76886
G0 F7500 X102.51 Y72.052
G0 X102.51 Y70.921
G0 X103.309 Y70.921
G1 F1350 X116.121 Y58.11 E1089.17932
G0 F7500 X116.121 Y57.31
G0 X114.989 Y57.31
G0 X114.989 Y58.11
G1 F1350 X103.309 Y69.79 E1091.37688
G0 F7500 X102.51 Y69.79
G0 X102.51 Y68.658
G0 X103.309 Y68.658
G1 F1350 X113.858 Y58.11 E1093.36156
G0 F7500 X113.858 Y57.31
G0 X112.726 Y57.31
G0 X112.726 Y58.11
G1 F1350 X103.309 Y67.527 E1095.13334
G0 F7500 X102.51 Y67.527
G0 X102.51 Y66.395
G0 X103.309 Y66.395
G1 F1350 X111.595 Y58.11 E1096.69224
G0 F7500 X111.595 Y57.31
G0 X110.464 Y57.31
G0 X110.464 Y58.11
G1 F1350 X103.309 Y65.264 E1098.03835
G0 F7500 X102.51 Y65.264
G0 X102.51 Y64.133
G0 X103.309 Y64.133
G1 F1350 X109.332 Y58.11 E1099.17156
G0 F7500 X109.332 Y57.31
G0 X108.201 Y57.31
G0 X108.201 Y58.11
G1 F1350 X103.309 Y63.001 E1100.09188
G0 F7500 X102.51 Y63.001
G0 X102.51 Y61.87
G0 X103.309 Y61.87
G1 F1350 X107.07 Y58.11 E1100.79941
G0 F7500 X107.07 Y57.31
G0 X105.938 Y57.31
G0 X105.938 Y58.11
G1 F1350 X103.309 Y60.739 E1101.29405
G0 F7500 X102.51 Y60.739
G0 X102.51 Y59.607
G0 X103.309 Y59.607
G1 F1350 X104.807 Y58.11 E1101.57581
G0 F7500 X104.807 Y57.31
G0 X103.675 Y57.31
G0 X103.675 Y58.11
G1 F1350 X103.309 Y58.476 E1101.64467
G0 F7500 X101.81 Y58.476
G1 F1500 E1095.14467
;MESH:NONMESH
G0 F300 X101.81 Y58.476 Z1.2
G0 F7500 X102.582 Y162.618
G0 X117.8 Y163
;TIME_ELAPSED:454.983755
;LAYER:2
;TYPE:WALL-INNER
;MESH:zanza fissa prolunga mobile.stl
G1 F1500 E1101.64467
G1 X102.2 Y163 E1103.7201
G1 X102.2 Y57 E1117.8224
G1 X117.8 Y57 E1119.89783
G1 X117.8 Y163 E1134.00013
G0 F9000 X118.6 Y163.8
G1 F1500 X101.4 Y163.8 E1136.28842
G1 X101.4 Y56.2 E1150.60359
G1 X118.6 Y56.2 E1152.89188
G1 X118.6 Y163.8 E1167.20705
G0 F9000 X118.93 Y164.13
G0 X119.4 Y164.6
;TYPE:WALL-OUTER
G1 F1500 X100.6 Y164.6 E1169.70821
G1 X100.6 Y55.4 E1184.23623
G1 X119.4 Y55.4 E1186.7374
G1 X119.4 Y164.6 E1201.26542
G0 F9000 X118.93 Y164.13
G0 X117.49 Y162.21
G0 X117.01 Y162.21
;TYPE:SKIN
G1 F1500 X102.99 Y162.21 E1203.13065
G1 X102.99 Y57.79 E1217.02275
G1 X117.01 Y57.79 E1218.88797
G1 X117.01 Y162.21 E1232.78007
G0 F9000 X117.49 Y162.21
G0 X117.418 Y162.618
G0 X104.189 Y162.69
G0 X104.189 Y161.889
G1 F1500 X103.309 Y161.009 E1232.94564
G0 F9000 X102.51 Y161.009
G0 X102.51 Y159.878
G0 X103.309 Y159.878
G1 F1500 X105.32 Y161.889 E1233.324
G0 F9000 X105.32 Y162.69
G0 X106.452 Y162.69
G0 X106.452 Y161.889
G1 F1500 X103.309 Y158.746 E1233.91535
G0 F9000 X102.51 Y158.746
G0 X102.51 Y157.615
G0 X103.309 Y157.615
G1 F1500 X107.583 Y161.889 E1234.71949
G0 F9000 X107.583 Y162.69
G0 X108.714 Y162.69
G0 X108.714 Y161.889
G1 F1500 X103.309 Y156.484 E1235.73643
G0 F9000 X102.51 Y156.484
G0 X102.51 Y155.352
G0 X103.309 Y155.352
G1 F1500 X109.846 Y161.889 E1236.96635
G0 F9000 X109.846 Y162.69
G0 X110.977 Y162.69
G0 X110.977 Y161.889
G1 F1500 X103.309 Y154.221 E1238.40907
G0 F9000 X102.51 Y154.221
G0 X102.51 Y153.09
G0 X103.309 Y153.09
G1 F1500 X112.108 Y161.889 E1240.06458
G0 F9000 X112.108 Y162.69
G0 X113.24 Y162.69
G0 X113.24 Y161.889
G1 F1500 X103.309 Y151.958 E1241.93308
G0 F9000 X102.51 Y151.958
G0 X102.51 Y150.827
G0 X103.309 Y150.827
G1 F1500 X114.371 Y161.889 E1244.01437
G0 F9000 X114.371 Y162.69
G0 X115.503 Y162.69
G0 X115.503 Y161.889
G1 F1500 X103.309 Y149.695 E1246.30864
G0 F9000 X102.51 Y149.695
G0 X102.51 Y148.564
G0 X103.309 Y148.564
G1 F1500 X116.634 Y161.889 E1248.81571
G0 F9000 X116.634 Y162.69
G0 X117.418 Y162.618
G0 X117.49 Y160.813
G0 X116.689 Y160.813
G1 F1500 X103.309 Y147.433 E1251.33313
G0 F9000 X102.51 Y147.433
G0 X102.51 Y146.301
G0 X103.309 Y146.301
G1 F1500 X116.689 Y159.681 E1253.85054
G0 F9000 X117.49 Y159.681
G0 X117.49 Y158.55
G0 X116.689 Y158.55
G1 F1500 X103.309 Y145.17 E1256.36796
G0 F9000 X102.51 Y145.17
G0 X102.51 Y144.039
G0 X103.309 Y144.039
G1 F1500 X116.689 Y157.418 E1258.88528
G0 F9000 X117.49 Y157.418
G0 X117.49 Y156.287
G0 X116.689 Y156.287
G1 F1500 X103.309 Y142.907 E1261.4027
G0 F9000 X102.51 Y142.907
G0 X102.51 Y141.776
G0 X103.309 Y141.776
G1 F1500 X116.689 Y155.156 E1263.92012
G0 F9000 X117.49 Y155.156
G0 X117.49 Y154.024
G0 X116.689 Y154.024
G1 F1500 X103.309 Y140.644 E1266.43753
G0 F9000 X102.51 Y140.644
G0 X102.51 Y139.513
G0 X103.309 Y139.513
G1 F1500 X116.689 Y152.893 E1268.95495
G0 F9000 X117.49 Y152.893
G0 X117.49 Y151.762
G0 X116.689 Y151.762
G1 F1500 X103.309 Y138.382 E1271.47237
G0 F9000 X102.51 Y138.382
G0 X102.51 Y137.25
G0 X103.309 Y137.25
G1 F1500 X116.689 Y150.63 E1273.98978
G0 F9000 X117.49 Y150.63
G0 X117.49 Y149.499
G0 X116.689 Y149.499
G1 F1500 X103.309 Y136.119 E1276.5072
G0 F9000 X102.51 Y136.119
G0 X102.51 Y134.988
G0 X103.309 Y134.988
G1 F1500 X116.689 Y148.367 E1279.02452
G0 F9000 X117.49 Y148.367
G0 X117.49 Y147.236
G0 X116.689 Y147.236
G1 F1500 X103.309 Y133.856 E1281.54194
G0 F9000 X102.51 Y133.856
G0 X102.51 Y132.725
G0 X103.309 Y132.725
G1 F1500 X116.689 Y146.105 E1284.05936
G0 F9000 X117.49 Y146.105
G0 X117.49 Y144.973
G0 X116.689 Y144.973
G1 F1500 X103.309 Y131.593 E1286.57677
G0 F9000 X102.51 Y131.593
G0 X102.51 Y130.462
G0 X103.309 Y130.462
G1 F1500 X116.689 Y143.842 E1289.09419
G0 F9000 X117.49 Y143.842
G0 X117.49 Y142.711
G0 X116.689 Y142.711
G1 F1500 X103.309 Y129.331 E1291.61161
G0 F9000 X102.51 Y129.331
G0 X102.51 Y128.199
G0 X103.309 Y128.199
G1 F1500 X116.689 Y141.579 E1294.12902
G0 F9000 X117.49 Y141.579
G0 X117.49 Y140.448
G0 X116.689 Y140.448
G1 F1500 X103.309 Y127.068 E1296.64644
G0 F9000 X102.51 Y127.068
G0 X102.51 Y125.937
G0 X103.309 Y125.937
G1 F1500 X116.689 Y139.317 E1299.16386
G0 F9000 X117.49 Y139.317
G0 X117.49 Y138.185
G0 X116.689 Y138.185
G1 F1500 X103.309 Y124.805 E1301.68127
G0 F9000 X102.51 Y124.805
G0 X102.51 Y123.674
G0 X103.309 Y123.674
G1 F1500 X116.689 Y137.054 E1304.19869
G0 F9000 X117.49 Y137.054
G0 X117.49 Y135.922
G0 X116.689 Y135.922
G1 F1500 X103.309 Y122.543 E1306.71601
G0 F9000 X102.51 Y122.543
G0 X102.51 Y121.411
G0 X103.309 Y121.411
G1 F1500 X116.689 Y134.791 E1309.23343
G0 F9000 X117.49 Y134.791
G0 X117.49 Y133.66
G0 X116.689 Y133.66
G1 F1500 X103.309 Y120.28 E1311.75085
G0 F9000 X102.51 Y120.28
G0 X102.51 Y119.148
G0 X103.309 Y119.148
G1 F1500 X116.689 Y132.528 E1314.26826
G0 F9000 X117.49 Y132.528
G0 X117.49 Y131.397
G0 X116.689 Y131.397
G1 F1500 X103.309 Y118.017 E1316.78568
G0 F9000 X102.51 Y118.017
G0 X102.51 Y116.886
G0 X103.309 Y116.886
G1 F1500 X116.689 Y130.266 E1319.3031
G0 F9000 X117.49 Y130.266
G0 X117.49 Y129.134
G0 X116.689 Y129.134
G1 F1500 X103.309 Y115.754 E1321.82051
G0 F9000 X102.51 Y115.754
G0 X102.51 Y114.623
G0 X103.309 Y114.623
G1 F1500 X116.689 Y128.003 E1324.33793
G0 F9000 X117.49 Y128.003
G0 X117.49 Y126.871
G0 X116.689 Y126.871
G1 F1500 X103.309 Y113.492 E1326.85525
G0 F9000 X102.51 Y113.492
G0 X102.51 Y112.36
G0 X103.309 Y112.36
G1 F1500 X116.689 Y125.74 E1329.37267
G0 F9000 X117.49 Y125.74
G0 X117.49 Y124.609
G0 X116.689 Y124.609
G1 F1500 X103.309 Y111.229 E1331.89009
G0 F9000 X102.51 Y111.229
G0 X102.51 Y110.097
G0 X103.309 Y110.097
G1 F1500 X116.689 Y123.477 E1334.4075
G0 F9000 X117.49 Y123.477
G0 X117.49 Y122.346
G0 X116.689 Y122.346
G1 F1500 X103.309 Y108.966 E1336.92492
G0 F9000 X102.51 Y108.966
G0 X102.51 Y107.835
G0 X103.309 Y107.835
G1 F1500 X116.689 Y121.215 E1339.44234
G0 F9000 X117.49 Y121.215
G0 X117.49 Y120.083
G0 X116.689 Y120.083
G1 F1500 X103.309 Y106.703 E1341.95975
G0 F9000 X102.51 Y106.703
G0 X102.51 Y105.572
G0 X103.309 Y105.572
G1 F1500 X116.689 Y118.952 E1344.47717
G0 F9000 X117.49 Y118.952
G0 X117.49 Y117.82
G0 X116.689 Y117.82
G1 F1500 X103.309 Y104.441 E1346.99449
G0 F9000 X102.51 Y104.441
G0 X102.51 Y103.309
G0 X103.309 Y103.309
G1 F1500 X116.689 Y116.689 E1349.51191
G0 F9000 X117.49 Y116.689
G0 X117.49 Y115.558
G0 X116.689 Y115.558
G1 F1500 X103.309 Y102.178 E1352.02933
G0 F9000 X102.51 Y102.178
G0 X102.51 Y101.046
G0 X103.309 Y101.046
G1 F1500 X116.689 Y114.426 E1354.54674
G0 F9000 X117.49 Y114.426
G0 X117.49 Y113.295
G0 X116.689 Y113.295
G1 F1500 X103.309 Y99.915 E1357.06416
G0 F9000 X102.51 Y99.915
G0 X102.51 Y98.784
G0 X103.309 Y98.784
G1 F1500 X116.689 Y112.164 E1359.58158
G0 F9000 X117.49 Y112.164
G0 X117.49 Y111.032
G0 X116.689 Y111.032
G1 F1500 X103.309 Y97.652 E1362.09899
G0 F9000 X102.51 Y97.652
G0 X102.51 Y96.521
G0 X103.309 Y96.521
G1 F1500 X116.689 Y109.901 E1364.61641
G0 F9000 X117.49 Y109.901
G0 X117.49 Y108.769
G0 X116.689 Y108.769
G1 F1500 X103.309 Y95.39 E1367.13373
G0 F9000 X102.51 Y95.39
G0 X102.51 Y94.258
G0 X103.309 Y94.258
G1 F1500 X116.689 Y107.638 E1369.65115
G0 F9000 X117.49 Y107.638
G0 X117.49 Y106.507
G0 X116.689 Y106.507
G1 F1500 X103.309 Y93.127 E1372.16856
G0 F9000 X102.51 Y93.127
G0 X102.51 Y91.996
G0 X103.309 Y91.996
G1 F1500 X116.689 Y105.375 E1374.68589
G0 F9000 X117.49 Y105.375
G0 X117.49 Y104.244
G0 X116.689 Y104.244
G1 F1500 X103.309 Y90.864 E1377.2033
G0 F9000 X102.51 Y90.864
G0 X102.51 Y89.733
G0 X103.309 Y89.733
G1 F1500 X116.689 Y103.113 E1379.72072
G0 F9000 X117.49 Y103.113
G0 X117.49 Y101.981
G0 X116.689 Y101.981
G1 F1500 X103.309 Y88.601 E1382.23814
G0 F9000 X102.51 Y88.601
G0 X102.51 Y87.47
G0 X103.309 Y87.47
G1 F1500 X116.689 Y100.85 E1384.75555
G0 F9000 X117.49 Y100.85
G0 X117.49 Y99.719
G0 X116.689 Y99.719
G1 F1500 X103.309 Y86.339 E1387.27297
G0 F9000 X102.51 Y86.339
G0 X102.51 Y85.207
G0 X103.309 Y85.207
G1 F1500 X116.689 Y98.587 E1389.79039
G0 F9000 X117.49 Y98.587
G0 X117.49 Y97.456
G0 X116.689 Y97.456
G1 F1500 X103.309 Y84.076 E1392.3078
G0 F9000 X102.51 Y84.076
G0 X102.51 Y82.945
G0 X103.309 Y82.945
G1 F1500 X116.689 Y96.324 E1394.82513
G0 F9000 X117.49 Y96.324
G0 X117.49 Y95.193
G0 X116.689 Y95.193
G1 F1500 X103.309 Y81.813 E1397.34254
G0 F9000 X102.51 Y81.813
G0 X102.51 Y80.682
G0 X103.309 Y80.682
G1 F1500 X116.689 Y94.062 E1399.85996
G0 F9000 X117.49 Y94.062
G0 X117.49 Y92.93
G0 X116.689 Y92.93
G1 F1500 X103.309 Y79.55 E1402.37738
G0 F9000 X102.51 Y79.55
G0 X102.51 Y78.419
G0 X103.309 Y78.419
G1 F1500 X116.689 Y91.799 E1404.89479
G0 F9000 X117.49 Y91.799
G0 X117.49 Y90.668
G0 X116.689 Y90.668
G1 F1500 X103.309 Y77.288 E1407.41221
G0 F9000 X102.51 Y77.288
G0 X102.51 Y76.156
G0 X103.309 Y76.156
G1 F1500 X116.689 Y89.536 E1409.92963
G0 F9000 X117.49 Y89.536
G0 X117.49 Y88.405
G0 X116.689 Y88.405
G1 F1500 X103.309 Y75.025 E1412.44704
G0 F9000 X102.51 Y75.025
G0 X102.51 Y73.894
G0 X103.309 Y73.894
G1 F1500 X116.689 Y87.273 E1414.96437
G0 F9000 X117.49 Y87.273
G0 X117.49 Y86.142
G0 X116.689 Y86.142
G1 F1500 X103.309 Y72.762 E1417.48178
G0 F9000 X102.51 Y72.762
G0 X102.51 Y71.631
G0 X103.309 Y71.631
G1 F1500 X116.689 Y85.011 E1419.9992
G0 F9000 X117.49 Y85.011
G0 X117.49 Y83.879
G0 X116.689 Y83.879
G1 F1500 X103.309 Y70.499 E1422.51662
G0 F9000 X102.51 Y70.499
G0 X102.51 Y69.368
G0 X103.309 Y69.368
G1 F1500 X116.689 Y82.748 E1425.03403
G0 F9000 X117.49 Y82.748
G0 X117.49 Y81.617
G0 X116.689 Y81.617
G1 F1500 X103.309 Y68.237 E1427.55145
G0 F9000 X102.51 Y68.237
G0 X102.51 Y67.105
G0 X103.309 Y67.105
G1 F1500 X116.689 Y80.485 E1430.06887
G0 F9000 X117.49 Y80.485
G0 X117.49 Y79.354
G0 X116.689 Y79.354
G1 F1500 X103.309 Y65.974 E1432.58628
G0 F9000 X102.51 Y65.974
G0 X102.51 Y64.843
G0 X103.309 Y64.843
G1 F1500 X116.689 Y78.222 E1435.10361
G0 F9000 X117.49 Y78.222
G0 X117.49 Y77.091
G0 X116.689 Y77.091
G1 F1500 X103.309 Y63.711 E1437.62102
G0 F9000 X102.51 Y63.711
G0 X102.51 Y62.58
G0 X103.309 Y62.58
G1 F1500 X116.689 Y75.96 E1440.13844
G0 F9000 X117.49 Y75.96
G0 X117.49 Y74.828
G0 X116.689 Y74.828
G1 F1500 X103.309 Y61.448 E1442.65586
G0 F9000 X102.51 Y61.448
G0 X102.51 Y60.317
G0 X103.309 Y60.317
G1 F1500 X116.689 Y73.697 E1445.17327
G0 F9000 X117.49 Y73.697
G0 X117.49 Y72.566
G0 X116.689 Y72.566
G1 F1500 X103.309 Y59.186 E1447.69069
G0 F9000 X102.51 Y59.186
G0 X102.582 Y57.382
G0 X103.364 Y57.31
G0 X103.364 Y58.11
G1 F1500 X116.689 Y71.434 E1450.19766
G0 F9000 X117.49 Y71.434
G0 X117.49 Y70.303
G0 X116.689 Y70.303
G1 F1500 X104.496 Y58.11 E1452.49175
G0 F9000 X104.496 Y57.31
G0 X105.627 Y57.31
G0 X105.627 Y58.11
G1 F1500 X116.689 Y69.172 E1454.57304
G0 F9000 X117.49 Y69.172
G0 X117.49 Y68.04
G0 X116.689 Y68.04
G1 F1500 X106.758 Y58.11 E1456.44144
G0 F9000 X106.758 Y57.31
G0 X107.89 Y57.31
G0 X107.89 Y58.11
G1 F1500 X116.689 Y66.909 E1458.09695
G0 F9000 X117.49 Y66.909
G0 X117.49 Y65.777
G0 X116.689 Y65.777
G1 F1500 X109.021 Y58.11 E1459.53958
G0 F9000 X109.021 Y57.31
G0 X110.153 Y57.31
G0 X110.153 Y58.11
G1 F1500 X116.689 Y64.646 E1460.76931
G0 F9000 X117.49 Y64.646
G0 X117.49 Y63.515
G0 X116.689 Y63.515
G1 F1500 X111.284 Y58.11 E1461.78625
G0 F9000 X111.284 Y57.31
G0 X112.415 Y57.31
G0 X112.415 Y58.11
G1 F1500 X116.689 Y62.383 E1462.5903
G0 F9000 X117.49 Y62.383
G0 X117.49 Y61.252
G0 X116.689 Y61.252
G1 F1500 X113.547 Y58.11 E1463.18146
G0 F9000 X113.547 Y57.31
G0 X114.678 Y57.31
G0 X114.678 Y58.11
G1 F1500 X116.689 Y60.121 E1463.55982
G0 F9000 X117.49 Y60.121
G0 X117.49 Y58.989
G0 X116.689 Y58.989
G1 F1500 X115.809 Y58.11 E1463.7253
G0 F9000 X115.809 Y56.61
G1 F1500 E1457.2253
;MESH:NONMESH
G0 F300 X115.809 Y56.61 Z1.6
G0 F9000 X117.418 Y57.382
G0 X117.418 Y162.618
G0 X117.299 Y163
;TIME_ELAPSED:589.158074
;LAYER:3
;TYPE:WALL-INNER
;MESH:zanza fissa prolunga mobile.stl
G1 F1500 E1463.7253
G1 X102.2 Y163 E1465.73408
G1 X102.2 Y57 E1479.83637
G1 X117.299 Y57 E1481.84515
G1 X117.299 Y163 E1495.94745
G0 F9000 X118.099 Y163.8
G1 F1500 X101.4 Y163.8 E1498.1691
G1 X101.4 Y56.2 E1512.48426
G1 X118.099 Y56.2 E1514.7059
G1 X118.099 Y163.8 E1529.02106
G0 F9000 X118.429 Y164.13
G0 X118.899 Y164.6
;TYPE:WALL-OUTER
G1 F1500 X100.6 Y164.6 E1531.45557
G1 X100.6 Y55.4 E1545.9836
G1 X118.899 Y55.4 E1548.41811
G1 X118.899 Y164.6 E1562.94613
G0 F9000 X118.429 Y164.13
G0 X116.989 Y162.21
G0 X116.509 Y162.21
;TYPE:SKIN
G1 F1500 X102.99 Y162.21 E1564.74471
G1 X102.99 Y57.79 E1578.6368
G1 X116.509 Y57.79 E1580.43538
G1 X116.509 Y162.21 E1594.32747
G0 F9000 X116.989 Y162.21
G0 X116.917 Y162.618
G0 X115.296 Y162.69
G0 X115.296 Y161.889
G1 F1500 X116.188 Y160.996 E1594.49539
G0 F9000 X116.989 Y160.996
G0 X116.989 Y159.865
G0 X116.188 Y159.865
G1 F1500 X114.165 Y161.889 E1594.87611
G0 F9000 X114.165 Y162.69
G0 X113.033 Y162.69
G0 X113.033 Y161.889
G1 F1500 X116.188 Y158.734 E1595.46972
G0 F9000 X116.989 Y158.734
G0 X116.989 Y157.602
G0 X116.188 Y157.602
G1 F1500 X111.902 Y161.889 E1596.27621
G0 F9000 X111.902 Y162.69
G0 X110.771 Y162.69
G0 X110.771 Y161.889
G1 F1500 X116.188 Y156.471 E1597.2955
G0 F9000 X116.989 Y156.471
G0 X116.989 Y155.34
G0 X116.188 Y155.34
G1 F1500 X109.639 Y161.889 E1598.52768
G0 F9000 X109.639 Y162.69
G0 X108.508 Y162.69
G0 X108.508 Y161.889
G1 F1500 X116.188 Y154.208 E1599.97275
G0 F9000 X116.989 Y154.208
G0 X116.989 Y153.077
G0 X116.188 Y153.077
G1 F1500 X107.376 Y161.889 E1601.63071
G0 F9000 X107.376 Y162.69
G0 X106.245 Y162.69
G0 X106.245 Y161.889
G1 F1500 X116.188 Y151.945 E1603.50156
G0 F9000 X116.989 Y151.945
G0 X116.989 Y150.814
G0 X116.188 Y150.814
G1 F1500 X105.114 Y161.889 E1605.5852
G0 F9000 X105.114 Y162.69
G0 X103.982 Y162.69
G0 X103.982 Y161.889
G1 F1500 X116.188 Y149.683 E1607.88173
G0 F9000 X116.989 Y149.683
G0 X116.989 Y148.551
G0 X116.188 Y148.551
G1 F1500 X103.309 Y161.431 E1610.30498
G0 F9000 X102.51 Y161.431
G0 X102.51 Y160.299
G0 X103.309 Y160.299
G1 F1500 X116.188 Y147.42 E1612.72813
G0 F9000 X116.989 Y147.42
G0 X116.989 Y146.289
G0 X116.188 Y146.289
G1 F1500 X103.309 Y159.168 E1615.15129
G0 F9000 X102.51 Y159.168
G0 X102.51 Y158.036
G0 X103.309 Y158.036
G1 F1500 X116.188 Y145.157 E1617.57444
G0 F9000 X116.989 Y145.157
G0 X116.989 Y144.026
G0 X116.188 Y144.026
G1 F1500 X103.309 Y156.905 E1619.9976
G0 F9000 X102.51 Y156.905
G0 X102.51 Y155.774
G0 X103.309 Y155.774
G1 F1500 X116.188 Y142.894 E1622.42084
G0 F9000 X116.989 Y142.894
G0 X116.989 Y141.763
G0 X116.188 Y141.763
G1 F1500 X103.309 Y154.642 E1624.844
G0 F9000 X102.51 Y154.642
G0 X102.51 Y153.511
G0 X103.309 Y153.511
G1 F1500 X116.188 Y140.632 E1627.26715
G0 F9000 X116.989 Y140.632
G0 X116.989 Y139.5
G0 X116.188 Y139.5
G1 F1500 X103.309 Y152.38 E1629.6904
G0 F9000 X102.51 Y152.38
G0 X102.51 Y151.248
G0 X103.309 Y151.248
G1 F1500 X116.188 Y138.369 E1632.11356
G0 F9000 X116.989 Y138.369
G0 X116.989 Y137.238
G0 X116.188 Y137.238
G1 F1500 X103.309 Y150.117 E1634.53671
G0 F9000 X102.51 Y150.117
G0 X102.51 Y148.985
G0 X103.309 Y148.985
G1 F1500 X116.188 Y136.106 E1636.95987
G0 F9000 X116.989 Y136.106
G0 X116.989 Y134.975
G0 X116.188 Y134.975
G1 F1500 X103.309 Y147.854 E1639.38302
G0 F9000 X102.51 Y147.854
G0 X102.51 Y146.723
G0 X103.309 Y146.723
G1 F1500 X116.188 Y133.843 E1641.80627
G0 F9000 X116.989 Y133.843
G0 X116.989 Y132.712
G0 X116.188 Y132.712
G1 F1500 X103.309 Y145.591 E1644.22943
G0 F9000 X102.51 Y145.591
G0 X102.51 Y144.46
G0 X103.309 Y144.46
G1 F1500 X116.188 Y131.581 E1646.65258
G0 F9000 X116.989 Y131.581
G0 X116.989 Y130.449
G0 X116.188 Y130.449
G1 F1500 X103.309 Y143.329 E1649.07583
G0 F9000 X102.51 Y143.329
G0 X102.51 Y142.197
G0 X103.309 Y142.197
G1 F1500 X116.188 Y129.318 E1651.49898
G0 F9000 X116.989 Y129.318
G0 X116.989 Y128.187
G0 X116.188 Y128.187
G1 F1500 X103.309 Y141.066 E1653.92214
G0 F9000 X102.51 Y141.066
G0 X102.51 Y139.935
G0 X103.309 Y139.935
G1 F1500 X116.188 Y127.055 E1656.34539
G0 F9000 X116.989 Y127.055
G0 X116.989 Y125.924
G0 X116.188 Y125.924
G1 F1500 X103.309 Y138.803 E1658.76854
G0 F9000 X102.51 Y138.803
G0 X102.51 Y137.672
G0 X103.309 Y137.672
G1 F1500 X116.188 Y124.793 E1661.1917
G0 F9000 X116.989 Y124.793
G0 X116.989 Y123.661
G0 X116.188 Y123.661
G1 F1500 X103.309 Y136.54 E1663.61485
G0 F9000 X102.51 Y136.54
G0 X102.51 Y135.409
G0 X103.309 Y135.409
G1 F1500 X116.188 Y122.53 E1666.03801
G0 F9000 X116.989 Y122.53
G0 X116.989 Y121.398
G0 X116.188 Y121.398
G1 F1500 X103.309 Y134.278 E1668.46125
G0 F9000 X102.51 Y134.278
G0 X102.51 Y133.146
G0 X103.309 Y133.146
G1 F1500 X116.188 Y120.267 E1670.88441
G0 F9000 X116.989 Y120.267
G0 X116.989 Y119.136
G0 X116.188 Y119.136
G1 F1500 X103.309 Y132.015 E1673.30756
G0 F9000 X102.51 Y132.015
G0 X102.51 Y130.884
G0 X103.309 Y130.884
G1 F1500 X116.188 Y118.004 E1675.73081
G0 F9000 X116.989 Y118.004
G0 X116.989 Y116.873
G0 X116.188 Y116.873
G1 F1500 X103.309 Y129.752 E1678.15397
G0 F9000 X102.51 Y129.752
G0 X102.51 Y128.621
G0 X103.309 Y128.621
G1 F1500 X116.188 Y115.742 E1680.57712
G0 F9000 X116.989 Y115.742
G0 X116.989 Y114.61
G0 X116.188 Y114.61
G1 F1500 X103.309 Y127.489 E1683.00028
G0 F9000 X102.51 Y127.489
G0 X102.51 Y126.358
G0 X103.309 Y126.358
G1 F1500 X116.188 Y113.479 E1685.42343
G0 F9000 X116.989 Y113.479
G0 X116.989 Y112.347
G0 X116.188 Y112.347
G1 F1500 X103.309 Y125.227 E1687.84668
G0 F9000 X102.51 Y125.227
G0 X102.51 Y124.095
G0 X103.309 Y124.095
G1 F1500 X116.188 Y111.216 E1690.26983
G0 F9000 X116.989 Y111.216
G0 X116.989 Y110.085
G0 X116.188 Y110.085
G1 F1500 X103.309 Y122.964 E1692.69299
G0 F9000 X102.51 Y122.964
G0 X102.51 Y121.833
G0 X103.309 Y121.833
G1 F1500 X116.188 Y108.953 E1695.11624
G0 F9000 X116.989 Y108.953
G0 X116.989 Y107.822
G0 X116.188 Y107.822
G1 F1500 X103.309 Y120.701 E1697.53939
G0 F9000 X102.51 Y120.701
G0 X102.51 Y119.57
G0 X103.309 Y119.57
G1 F1500 X116.188 Y106.691 E1699.96255
G0 F9000 X116.989 Y106.691
G0 X116.989 Y105.559
G0 X116.188 Y105.559
G1 F1500 X103.309 Y118.438 E1702.3857
G0 F9000 X102.51 Y118.438
G0 X102.51 Y117.307
G0 X103.309 Y117.307
G1 F1500 X116.188 Y104.428 E1704.80886
G0 F9000 X116.989 Y104.428
G0 X116.989 Y103.296
G0 X116.188 Y103.296
G1 F1500 X103.309 Y116.176 E1707.23211
G0 F9000 X102.51 Y116.176
G0 X102.51 Y115.044
G0 X103.309 Y115.044
G1 F1500 X116.188 Y102.165 E1709.65526
G0 F9000 X116.989 Y102.165
G0 X116.989 Y101.034
G0 X116.188 Y101.034
G1 F1500 X103.309 Y113.913 E1712.07842
G0 F9000 X102.51 Y113.913
G0 X102.51 Y112.782
G0 X103.309 Y112.782
G1 F1500 X116.188 Y99.902 E1714.50166
G0 F9000 X116.989 Y99.902
G0 X116.989 Y98.771
G0 X116.188 Y98.771
G1 F1500 X103.309 Y111.65 E1716.92482
G0 F9000 X102.51 Y111.65
G0 X102.51 Y110.519
G0 X103.309 Y110.519
G1 F1500 X116.188 Y97.64 E1719.34797
G0 F9000 X116.989 Y97.64
G0 X116.989 Y96.508
G0 X116.188 Y96.508
G1 F1500 X103.309 Y109.388 E1721.77122
G0 F9000 X102.51 Y109.388
G0 X102.51 Y108.256
G0 X103.309 Y108.256
G1 F1500 X116.188 Y95.377 E1724.19438
G0 F9000 X116.989 Y95.377
G0 X116.989 Y94.246
G0 X116.188 Y94.246
G1 F1500 X103.309 Y107.125 E1726.61753
G0 F9000 X102.51 Y107.125
G0 X102.51 Y105.993
G0 X103.309 Y105.993
G1 F1500 X116.188 Y93.114 E1729.04069
G0 F9000 X116.989 Y93.114
G0 X116.989 Y91.983
G0 X116.188 Y91.983
G1 F1500 X103.309 Y104.862 E1731.46384
G0 F9000 X102.51 Y104.862
G0 X102.51 Y103.731
G0 X103.309 Y103.731
G1 F1500 X116.188 Y90.851 E1733.88709
G0 F9000 X116.989 Y90.851
G0 X116.989 Y89.72
G0 X116.188 Y89.72
G1 F1500 X103.309 Y102.599 E1736.31024
G0 F9000 X102.51 Y102.599
G0 X102.51 Y101.468
G0 X103.309 Y101.468
G1 F1500 X116.188 Y88.589 E1738.7334
G0 F9000 X116.989 Y88.589
G0 X116.989 Y87.457
G0 X116.188 Y87.457
G1 F1500 X103.309 Y100.337 E1741.15665
G0 F9000 X102.51 Y100.337
G0 X102.51 Y99.205
G0 X103.309 Y99.205
G1 F1500 X116.188 Y86.326 E1743.5798
G0 F9000 X116.989 Y86.326
G0 X116.989 Y85.195
G0 X116.188 Y85.195
G1 F1500 X103.309 Y98.074 E1746.00296
G0 F9000 X102.51 Y98.074
G0 X102.51 Y96.942
G0 X103.309 Y96.942
G1 F1500 X116.188 Y84.063 E1748.42611
G0 F9000 X116.989 Y84.063
G0 X116.989 Y82.932
G0 X116.188 Y82.932
G1 F1500 X103.309 Y95.811 E1750.84927
G0 F9000 X102.51 Y95.811
G0 X102.51 Y94.68
G0 X103.309 Y94.68
G1 F1500 X116.188 Y81.8 E1753.27252
G0 F9000 X116.989 Y81.8
G0 X116.989 Y80.669
G0 X116.188 Y80.669
G1 F1500 X103.309 Y93.548 E1755.69567
G0 F9000 X102.51 Y93.548
G0 X102.51 Y92.417
G0 X103.309 Y92.417
G1 F1500 X116.188 Y79.538 E1758.11882
G0 F9000 X116.989 Y79.538
G0 X116.989 Y78.406
G0 X116.188 Y78.406
G1 F1500 X103.309 Y91.286 E1760.54207
G0 F9000 X102.51 Y91.286
G0 X102.51 Y90.154
G0 X103.309 Y90.154
G1 F1500 X116.188 Y77.275 E1762.96523
G0 F9000 X116.989 Y77.275
G0 X116.989 Y76.144
G0 X116.188 Y76.144
G1 F1500 X103.309 Y89.023 E1765.38838
G0 F9000 X102.51 Y89.023
G0 X102.51 Y87.891
G0 X103.309 Y87.891
G1 F1500 X116.188 Y75.012 E1767.81154
G0 F9000 X116.989 Y75.012
G0 X116.989 Y73.881
G0 X116.188 Y73.881
G1 F1500 X103.309 Y86.76 E1770.23469
G0 F9000 X102.51 Y86.76
G0 X102.51 Y85.629
G0 X103.309 Y85.629
G1 F1500 X116.188 Y72.749 E1772.65794
G0 F9000 X116.989 Y72.749
G0 X116.989 Y71.618
G0 X116.188 Y71.618
G1 F1500 X103.309 Y84.497 E1775.0811
G0 F9000 X102.51 Y84.497
G0 X102.51 Y83.366
G0 X103.309 Y83.366
G1 F1500 X116.188 Y70.487 E1777.50425
G0 F9000 X116.989 Y70.487
G0 X116.989 Y69.355
G0 X116.188 Y69.355
G1 F1500 X103.309 Y82.235 E1779.9275
G0 F9000 X102.51 Y82.235
G0 X102.51 Y81.103
G0 X103.309 Y81.103
G1 F1500 X116.188 Y68.224 E1782.35065
G0 F9000 X116.989 Y68.224
G0 X116.989 Y67.093
G0 X116.188 Y67.093
G1 F1500 X103.309 Y79.972 E1784.77381
G0 F9000 X102.51 Y79.972
G0 X102.51 Y78.84
G0 X103.309 Y78.84
G1 F1500 X116.188 Y65.961 E1787.19696
G0 F9000 X116.989 Y65.961
G0 X116.989 Y64.83
G0 X116.188 Y64.83
G1 F1500 X103.309 Y77.709 E1789.62012
G0 F9000 X102.51 Y77.709
G0 X102.51 Y76.578
G0 X103.309 Y76.578
G1 F1500 X116.188 Y63.699 E1792.04327
G0 F9000 X116.989 Y63.699
G0 X116.989 Y62.567
G0 X116.188 Y62.567
G1 F1500 X103.309 Y75.446 E1794.46643
G0 F9000 X102.51 Y75.446
G0 X102.51 Y74.315
G0 X103.309 Y74.315
G1 F1500 X116.188 Y61.436 E1796.88958
G0 F9000 X116.989 Y61.436
G0 X116.989 Y60.304
G0 X116.188 Y60.304
G1 F1500 X103.309 Y73.184 E1799.31283
G0 F9000 X102.51 Y73.184
G0 X102.51 Y72.052
G0 X103.309 Y72.052
G1 F1500 X116.188 Y59.173 E1801.73599
G0 F9000 X116.989 Y59.173
G0 X116.917 Y57.382
G0 X116.121 Y57.31
G0 X116.121 Y58.11
G1 F1500 X103.309 Y70.921 E1804.14644
G0 F9000 X102.51 Y70.921
G0 X102.51 Y69.79
G0 X103.309 Y69.79
G1 F1500 X114.989 Y58.11 E1806.34401
G0 F9000 X114.989 Y57.31
G0 X113.858 Y57.31
G0 X113.858 Y58.11
G1 F1500 X103.309 Y68.658 E1808.32868
G0 F9000 X102.51 Y68.658
G0 X102.51 Y67.527
G0 X103.309 Y67.527
G1 F1500 X112.726 Y58.11 E1810.10047
G0 F9000 X112.726 Y57.31
G0 X111.595 Y57.31
G0 X111.595 Y58.11
G1 F1500 X103.309 Y66.395 E1811.65937
G0 F9000 X102.51 Y66.395
G0 X102.51 Y65.264
G0 X103.309 Y65.264
G1 F1500 X110.464 Y58.11 E1813.00547
G0 F9000 X110.464 Y57.31
G0 X109.332 Y57.31
G0 X109.332 Y58.11
G1 F1500 X103.309 Y64.133 E1814.13868
G0 F9000 X102.51 Y64.133
G0 X102.51 Y63.001
G0 X103.309 Y63.001
G1 F1500 X108.201 Y58.11 E1815.05901
G0 F9000 X108.201 Y57.31
G0 X107.07 Y57.31
G0 X107.07 Y58.11
G1 F1500 X103.309 Y61.87 E1815.76654
G0 F9000 X102.51 Y61.87
G0 X102.51 Y60.739
G0 X103.309 Y60.739
G1 F1500 X105.938 Y58.11 E1816.26118
G0 F9000 X105.938 Y57.31
G0 X104.807 Y57.31
G0 X104.807 Y58.11
G1 F1500 X103.309 Y59.607 E1816.54293
G0 F9000 X102.51 Y59.607
G0 X102.51 Y58.476
G0 X103.309 Y58.476
G1 F1500 X103.675 Y58.11 E1816.61179
G0 F9000 X103.675 Y56.61
G1 F1500 E1810.11179
;MESH:NONMESH
G0 F300 X103.675 Y56.61 Z2
G0 F9000 X116.917 Y57.382
G0 X116.917 Y162.618
G0 X116.199 Y163
;TIME_ELAPSED:720.531334
;LAYER:4
;TYPE:WALL-INNER
;MESH:zanza fissa prolunga mobile.stl
G1 F1500 E1816.61179
G1 X102.2 Y163 E1818.47423
G1 X102.2 Y57 E1832.57652
G1 X116.199 Y57 E1834.43896
G1 X116.199 Y163 E1848.54126
G0 F9000 X116.999 Y163.8
G1 F1500 X101.4 Y163.8 E1850.61656
G1 X101.4 Y56.2 E1864.93172
G1 X116.999 Y56.2 E1867.00702
G1 X116.999 Y163.8 E1881.32218
G0 F9000 X117.329 Y164.13
G0 X117.799 Y164.6
;TYPE:WALL-OUTER
G1 F1500 X100.6 Y164.6 E1883.61034
G1 X100.6 Y55.4 E1898.13837
G1 X117.799 Y55.4 E1900.42653
G1 X117.799 Y164.6 E1914.95456
G0 F9000 X117.329 Y164.13
G0 X115.889 Y162.21
G0 X115.409 Y162.21
;TYPE:SKIN
G1 F1500 X102.99 Y162.21 E1916.60679
G1 X102.99 Y57.79 E1930.49889
G1 X115.409 Y57.79 E1932.15112
G1 X115.409 Y162.21 E1946.04321
G0 F9000 X115.889 Y162.21
G0 X115.817 Y162.618
G0 X104.189 Y162.69
G0 X104.189 Y161.889
G1 F1500 X103.309 Y161.009 E1946.20878
G0 F9000 X102.51 Y161.009
G0 X102.51 Y159.878
G0 X103.309 Y159.878
G1 F1500 X105.32 Y161.889 E1946.58714
G0 F9000 X105.32 Y162.69
G0 X106.452 Y162.69
G0 X106.452 Y161.889
G1 F1500 X103.309 Y158.746 E1947.17849
G0 F9000 X102.51 Y158.746
G0 X102.51 Y157.615
G0 X103.309 Y157.615
G1 F1500 X107.583 Y161.889 E1947.98264
G0 F9000 X107.583 Y162.69
G0 X108.714 Y162.69
G0 X108.714 Y161.889
G1 F1500 X103.309 Y156.484 E1948.99957
G0 F9000 X102.51 Y156.484
G0 X102.51 Y155.352
G0 X103.309 Y155.352
G1 F1500 X109.846 Y161.889 E1950.2295
G0 F9000 X109.846 Y162.69
G0 X110.977 Y162.69
G0 X110.977 Y161.889
G1 F1500 X103.309 Y154.221 E1951.67221
G0 F9000 X102.51 Y154.221
G0 X102.51 Y153.09
G0 X103.309 Y153.09
G1 F1500 X112.108 Y161.889 E1953.32772
G0 F9000 X112.108 Y162.69
G0 X113.24 Y162.69
G0 X113.24 Y161.889
G1 F1500 X103.309 Y151.958 E1955.19622
G0 F9000 X102.51 Y151.958
G0 X102.51 Y150.827
G0 X103.309 Y150.827
G1 F1500 X114.371 Y161.889 E1957.27751
G0 F9000 X115.088 Y161.474
G1 F1500 X103.309 Y149.695 E1959.4937
G0 F9000 X102.51 Y149.695
G0 X102.51 Y148.564
G0 X103.309 Y148.564
G1 F1500 X115.088 Y160.343 E1961.70989
G0 F9000 X115.889 Y160.343
G0 X115.889 Y159.212
G0 X115.088 Y159.212
G1 F1500 X103.309 Y147.433 E1963.92609
G0 F9000 X102.51 Y147.433
G0 X102.51 Y146.301
G0 X103.309 Y146.301
G1 F1500 X115.088 Y158.08 E1966.14228
G0 F9000 X115.889 Y158.08
G0 X115.889 Y156.949
G0 X115.088 Y156.949
G1 F1500 X103.309 Y145.17 E1968.35847
G0 F9000 X102.51 Y145.17
G0 X102.51 Y144.039
G0 X103.309 Y144.039
G1 F1500 X115.088 Y155.818 E1970.57466
G0 F9000 X115.889 Y155.818
G0 X115.889 Y154.686
G0 X115.088 Y154.686
G1 F1500 X103.309 Y142.907 E1972.79086
G0 F9000 X102.51 Y142.907
G0 X102.51 Y141.776
G0 X103.309 Y141.776
G1 F1500 X115.088 Y153.555 E1975.00705
G0 F9000 X115.889 Y153.555
G0 X115.889 Y152.423
G0 X115.088 Y152.423
G1 F1500 X103.309 Y140.644 E1977.22324
G0 F9000 X102.51 Y140.644
G0 X102.51 Y139.513
G0 X103.309 Y139.513
G1 F1500 X115.088 Y151.292 E1979.43943
G0 F9000 X115.889 Y151.292
G0 X115.889 Y150.161
G0 X115.088 Y150.161
G1 F1500 X103.309 Y138.382 E1981.65562
G0 F9000 X102.51 Y138.382
G0 X102.51 Y137.25
G0 X103.309 Y137.25
G1 F1500 X115.088 Y149.029 E1983.87182
G0 F9000 X115.889 Y149.029
G0 X115.889 Y147.898
G0 X115.088 Y147.898
G1 F1500 X103.309 Y136.119 E1986.08801
G0 F9000 X102.51 Y136.119
G0 X102.51 Y134.988
G0 X103.309 Y134.988
G1 F1500 X115.088 Y146.767 E1988.3042
G0 F9000 X115.889 Y146.767
G0 X115.889 Y145.635
G0 X115.088 Y145.635
G1 F1500 X103.309 Y133.856 E1990.52039
G0 F9000 X102.51 Y133.856
G0 X102.51 Y132.725
G0 X103.309 Y132.725
G1 F1500 X115.088 Y144.504 E1992.73659
G0 F9000 X115.889 Y144.504
G0 X115.889 Y143.372
G0 X115.088 Y143.372
G1 F1500 X103.309 Y131.593 E1994.95278
G0 F9000 X102.51 Y131.593
G0 X102.51 Y130.462
G0 X103.309 Y130.462
G1 F1500 X115.088 Y142.241 E1997.16897
G0 F9000 X115.889 Y142.241
G0 X115.889 Y141.11
G0 X115.088 Y141.11
G1 F1500 X103.309 Y129.331 E1999.38516
G0 F9000 X102.51 Y129.331
G0 X102.51 Y128.199
G0 X103.309 Y128.199
G1 F1500 X115.088 Y139.978 E2001.60135
G0 F9000 X115.889 Y139.978
G0 X115.889 Y138.847
G0 X115.088 Y138.847
G1 F1500 X103.309 Y127.068 E2003.81755
G0 F9000 X102.51 Y127.068
G0 X102.51 Y125.937
G0 X103.309 Y125.937
G1 F1500 X115.088 Y137.716 E2006.03374
G0 F9000 X115.889 Y137.716
G0 X115.889 Y136.584
G0 X115.088 Y136.584
G1 F1500 X103.309 Y124.805 E2008.24993
G0 F9000 X102.51 Y124.805
G0 X102.51 Y123.674
G0 X103.309 Y123.674
G1 F1500 X115.088 Y135.453 E2010.46612
G0 F9000 X115.889 Y135.453
G0 X115.889 Y134.322
G0 X115.088 Y134.322
G1 F1500 X103.309 Y122.543 E2012.68231
G0 F9000 X102.51 Y122.543
G0 X102.51 Y121.411
G0 X103.309 Y121.411
G1 F1500 X115.088 Y133.19 E2014.89851
G0 F9000 X115.889 Y133.19
G0 X115.889 Y132.059
G0 X115.088 Y132.059
G1 F1500 X103.309 Y120.28 E2017.1147
G0 F9000 X102.51 Y120.28
G0 X102.51 Y119.148
G0 X103.309 Y119.148
G1 F1500 X115.088 Y130.927 E2019.33089
G0 F9000 X115.889 Y130.927
G0 X115.889 Y129.796
G0 X115.088 Y129.796
G1 F1500 X103.309 Y118.017 E2021.54708
G0 F9000 X102.51 Y118.017
G0 X102.51 Y116.886
G0 X103.309 Y116.886
G1 F1500 X115.088 Y128.665 E2023.76328
G0 F9000 X115.889 Y128.665
G0 X115.889 Y127.533
G0 X115.088 Y127.533
G1 F1500 X103.309 Y115.754 E2025.97947
G0 F9000 X102.51 Y115.754
G0 X102.51 Y114.623
G0 X103.309 Y114.623
G1 F1500 X115.088 Y126.402 E2028.19566
G0 F9000 X115.889 Y126.402
G0 X115.889 Y125.271
G0 X115.088 Y125.271
G1 F1500 X103.309 Y113.492 E2030.41185
G0 F9000 X102.51 Y113.492
G0 X102.51 Y112.36
G0 X103.309 Y112.36
G1 F1500 X115.088 Y124.139 E2032.62804
G0 F9000 X115.889 Y124.139
G0 X115.889 Y123.008
G0 X115.088 Y123.008
G1 F1500 X103.309 Y111.229 E2034.84424
G0 F9000 X102.51 Y111.229
G0 X102.51 Y110.097
G0 X103.309 Y110.097
G1 F1500 X115.088 Y121.876 E2037.06043
G0 F9000 X115.889 Y121.876
G0 X115.889 Y120.745
G0 X115.088 Y120.745
G1 F1500 X103.309 Y108.966 E2039.27662
G0 F9000 X102.51 Y108.966
G0 X102.51 Y107.835
G0 X103.309 Y107.835
G1 F1500 X115.088 Y119.614 E2041.49281
G0 F9000 X115.889 Y119.614
G0 X115.889 Y118.482
G0 X115.088 Y118.482
G1 F1500 X103.309 Y106.703 E2043.70901
G0 F9000 X102.51 Y106.703
G0 X102.51 Y105.572
G0 X103.309 Y105.572
G1 F1500 X115.088 Y117.351 E2045.9252
G0 F9000 X115.889 Y117.351
G0 X115.889 Y116.22
G0 X115.088 Y116.22
G1 F1500 X103.309 Y104.441 E2048.14139
G0 F9000 X102.51 Y104.441
G0 X102.51 Y103.309
G0 X103.309 Y103.309
G1 F1500 X115.088 Y115.088 E2050.35758
G0 F9000 X115.889 Y115.088
G0 X115.889 Y113.957
G0 X115.088 Y113.957
G1 F1500 X103.309 Y102.178 E2052.57377
G0 F9000 X102.51 Y102.178
G0 X102.51 Y101.046
G0 X103.309 Y101.046
G1 F1500 X115.088 Y112.825 E2054.78997
G0 F9000 X115.889 Y112.825
G0 X115.889 Y111.694
G0 X115.088 Y111.694
G1 F1500 X103.309 Y99.915 E2057.00616
G0 F9000 X102.51 Y99.915
G0 X102.51 Y98.784
G0 X103.309 Y98.784
G1 F1500 X115.088 Y110.563 E2059.22235
G0 F9000 X115.889 Y110.563
G0 X115.889 Y109.431
G0 X115.088 Y109.431
G1 F1500 X103.309 Y97.652 E2061.43854
G0 F9000 X102.51 Y97.652
G0 X102.51 Y96.521
G0 X103.309 Y96.521
G1 F1500 X115.088 Y108.3 E2063.65474
G0 F9000 X115.889 Y108.3
G0 X115.889 Y107.169
G0 X115.088 Y107.169
G1 F1500 X103.309 Y95.39 E2065.87093
G0 F9000 X102.51 Y95.39
G0 X102.51 Y94.258
G0 X103.309 Y94.258
G1 F1500 X115.088 Y106.037 E2068.08712
G0 F9000 X115.889 Y106.037
G0 X115.889 Y104.906
G0 X115.088 Y104.906
G1 F1500 X103.309 Y93.127 E2070.30331
G0 F9000 X102.51 Y93.127
G0 X102.51 Y91.996
G0 X103.309 Y91.996
G1 F1500 X115.088 Y103.774 E2072.51941
G0 F9000 X115.889 Y103.774
G0 X115.889 Y102.643
G0 X115.088 Y102.643
G1 F1500 X103.309 Y90.864 E2074.7356
G0 F9000 X102.51 Y90.864
G0 X102.51 Y89.733
G0 X103.309 Y89.733
G1 F1500 X115.088 Y101.512 E2076.95179
G0 F9000 X115.889 Y101.512
G0 X115.889 Y100.38
G0 X115.088 Y100.38
G1 F1500 X103.309 Y88.601 E2079.16799
G0 F9000 X102.51 Y88.601
G0 X102.51 Y87.47
G0 X103.309 Y87.47
G1 F1500 X115.088 Y99.249 E2081.38418
G0 F9000 X115.889 Y99.249
G0 X115.889 Y98.118
G0 X115.088 Y98.118
G1 F1500 X103.309 Y86.339 E2083.60037
G0 F9000 X102.51 Y86.339
G0 X102.51 Y85.207
G0 X103.309 Y85.207
G1 F1500 X115.088 Y96.986 E2085.81656
G0 F9000 X115.889 Y96.986
G0 X115.889 Y95.855
G0 X115.088 Y95.855
G1 F1500 X103.309 Y84.076 E2088.03276
G0 F9000 X102.51 Y84.076
G0 X102.51 Y82.945
G0 X103.309 Y82.945
G1 F1500 X115.088 Y94.724 E2090.24895
G0 F9000 X115.889 Y94.724
G0 X115.889 Y93.592
G0 X115.088 Y93.592
G1 F1500 X103.309 Y81.813 E2092.46514
G0 F9000 X102.51 Y81.813
G0 X102.51 Y80.682
G0 X103.309 Y80.682
G1 F1500 X115.088 Y92.461 E2094.68133
G0 F9000 X115.889 Y92.461
G0 X115.889 Y91.329
G0 X115.088 Y91.329
G1 F1500 X103.309 Y79.55 E2096.89752
G0 F9000 X102.51 Y79.55
G0 X102.51 Y78.419
G0 X103.309 Y78.419
G1 F1500 X115.088 Y90.198 E2099.11372
G0 F9000 X115.889 Y90.198
G0 X115.889 Y89.067
G0 X115.088 Y89.067
G1 F1500 X103.309 Y77.288 E2101.32991
G0 F9000 X102.51 Y77.288
G0 X102.51 Y76.156
G0 X103.309 Y76.156
G1 F1500 X115.088 Y87.935 E2103.5461
G0 F9000 X115.889 Y87.935
G0 X115.889 Y86.804
G0 X115.088 Y86.804
G1 F1500 X103.309 Y75.025 E2105.76229
G0 F9000 X102.51 Y75.025
G0 X102.51 Y73.894
G0 X103.309 Y73.894
G1 F1500 X115.088 Y85.673 E2107.97848
G0 F9000 X115.889 Y85.673
G0 X115.889 Y84.541
G0 X115.088 Y84.541
G1 F1500 X103.309 Y72.762 E2110.19468
G0 F9000 X102.51 Y72.762
G0 X102.51 Y71.631
G0 X103.309 Y71.631
G1 F1500 X115.088 Y83.41 E2112.41087
G0 F9000 X115.889 Y83.41
G0 X115.889 Y82.278
G0 X115.088 Y82.278
G1 F1500 X103.309 Y70.499 E2114.62706
G0 F9000 X102.51 Y70.499
G0 X102.51 Y69.368
G0 X103.309 Y69.368
G1 F1500 X115.088 Y81.147 E2116.84325
G0 F9000 X115.889 Y81.147
G0 X115.889 Y80.016
G0 X115.088 Y80.016
G1 F1500 X103.309 Y68.237 E2119.05945
G0 F9000 X102.51 Y68.237
G0 X102.51 Y67.105
G0 X103.309 Y67.105
G1 F1500 X115.088 Y78.884 E2121.27564
G0 F9000 X115.889 Y78.884
G0 X115.889 Y77.753
G0 X115.088 Y77.753
G1 F1500 X103.309 Y65.974 E2123.49183
G0 F9000 X102.51 Y65.974
G0 X102.51 Y64.843
G0 X103.309 Y64.843
G1 F1500 X115.088 Y76.622 E2125.70802
G0 F9000 X115.889 Y76.622
G0 X115.889 Y75.49
G0 X115.088 Y75.49
G1 F1500 X103.309 Y63.711 E2127.92421
G0 F9000 X102.51 Y63.711
G0 X102.51 Y62.58
G0 X103.309 Y62.58
G1 F1500 X115.088 Y74.359 E2130.14041
G0 F9000 X115.889 Y74.359
G0 X115.889 Y73.227
G0 X115.088 Y73.227
G1 F1500 X103.309 Y61.448 E2132.3566
G0 F9000 X102.51 Y61.448
G0 X102.51 Y60.317
G0 X103.309 Y60.317
G1 F1500 X115.088 Y72.096 E2134.57279
G0 F9000 X115.889 Y72.096
G0 X115.889 Y70.965
G0 X115.088 Y70.965
G1 F1500 X103.309 Y59.186 E2136.78898
G0 F9000 X102.51 Y59.186
G0 X102.582 Y57.382
G0 X103.364 Y57.31
G0 X103.364 Y58.11
G1 F1500 X115.088 Y69.833 E2138.99473
G0 F9000 X115.889 Y69.833
G0 X115.889 Y68.702
G0 X115.088 Y68.702
G1 F1500 X104.496 Y58.11 E2140.98759
G0 F9000 X104.496 Y57.31
G0 X105.627 Y57.31
G0 X105.627 Y58.11
G1 F1500 X115.088 Y67.571 E2142.76766
G0 F9000 X115.889 Y67.571
G0 X115.889 Y66.439
G0 X115.088 Y66.439
G1 F1500 X106.758 Y58.11 E2144.33484
G0 F9000 X106.758 Y57.31
G0 X107.89 Y57.31
G0 X107.89 Y58.11
G1 F1500 X115.088 Y65.308 E2145.68912
G0 F9000 X115.889 Y65.308
G0 X115.889 Y64.177
G0 X115.088 Y64.177
G1 F1500 X109.021 Y58.11 E2146.83062
G0 F9000 X109.021 Y57.31
G0 X110.153 Y57.31
G0 X110.153 Y58.11
G1 F1500 X115.088 Y63.045 E2147.75913
G0 F9000 X115.889 Y63.045
G0 X115.889 Y61.914
G0 X115.088 Y61.914
G1 F1500 X111.284 Y58.11 E2148.47484
G0 F9000 X111.284 Y57.31
G0 X112.415 Y57.31
G0 X112.415 Y58.11
G1 F1500 X115.088 Y60.782 E2148.97766
G0 F9000 X115.889 Y60.782
G0 X115.889 Y59.651
G0 X115.088 Y59.651
G1 F1500 X113.547 Y58.11 E2149.2676
G0 F9000 X113.547 Y57.31
G0 X114.678 Y57.31
G0 X114.678 Y58.11
G1 F1500 X115.088 Y58.52 E2149.34474
G0 F9000 X116.589 Y58.52
G1 F1500 E2142.84474
;MESH:NONMESH
G0 F300 X116.589 Y58.52 Z2.4
G0 F9000 X115.817 Y162.618
G0 X113.4 Y163.8
;TIME_ELAPSED:845.454450
;LAYER:5
;TYPE:WALL-INNER
;MESH:zanza fissa prolunga mobile.stl
G1 F1500 E2149.34474
G1 X113.4 Y56.2 E2163.6599
G1 X113.5 Y56.2 E2163.67321
G1 X113.5 Y163.8 E2165.46484
G1 X113.4 Y163.8 E2165.47815
G0 F9000 X113.07 Y164.13
G0 X112.6 Y164.6
;TYPE:WALL-OUTER
G1 F1500 X112.6 Y55.4 E2180.00617
G1 X114.3 Y55.4 E2180.23234
G1 X114.3 Y164.6 E2194.76037
G1 X112.6 Y164.6 E2194.98654
G0 F9000 X113.1 Y163.635
G1 F1500 E2188.48654
G0 F9000 X111.535 Y163.8
G0 X103.365 Y163.8
G0 X101.88 Y163.8
G0 X101.5 Y163.8
;TYPE:WALL-INNER
G1 F1500 E2194.98654
G1 X101.4 Y163.8 E2194.99984
G1 X101.4 Y56.2 E2209.315
G1 X101.5 Y56.2 E2209.32831
G1 X101.5 Y163.8 E2211.11994
G0 F9000 X101.83 Y164.13
G0 X102.3 Y164.6
;TYPE:WALL-OUTER
G1 F1500 X100.6 Y164.6 E2211.34611
G1 X100.6 Y55.4 E2225.87414
G1 X102.3 Y55.4 E2226.10031
G1 X102.3 Y164.6 E2240.62833
G0 F9000 X101.8 Y163.635
G1 F1500 E2234.12833
;MESH:NONMESH
G0 F300 X101.8 Y163.635 Z2.8
G0 F9000 X103.365 Y163.8
G0 X111.535 Y163.8
G0 X113.02 Y163.8
G0 X113.4 Y163.8
;TIME_ELAPSED:882.947771
;LAYER:6
;TYPE:WALL-INNER
;MESH:zanza fissa prolunga mobile.stl
G1 F1500 E2240.62833
G1 X113.4 Y56.2 E2254.9435
G1 X113.5 Y56.2 E2254.9568
G1 X113.5 Y163.8 E2256.74843
G1 X113.4 Y163.8 E2256.76174
G0 F9000 X113.07 Y164.13
G0 X112.6 Y164.6
;TYPE:WALL-OUTER
G1 F1500 X112.6 Y55.4 E2271.28977
G1 X114.3 Y55.4 E2271.51593
G1 X114.3 Y164.6 E2286.04396
G1 X112.6 Y164.6 E2286.27013
G0 F9000 X113.1 Y163.635
G1 F1500 E2279.77013
G0 F9000 X111.535 Y163.8
G0 X103.365 Y163.8
G0 X101.88 Y163.8
G0 X101.5 Y163.8
;TYPE:WALL-INNER
G1 F1500 E2286.27013
G1 X101.4 Y163.8 E2286.28343
G1 X101.4 Y56.2 E2300.5986
G1 X101.5 Y56.2 E2300.6119
G1 X101.5 Y163.8 E2302.40354
G0 F9000 X101.83 Y164.13
G0 X102.3 Y164.6
;TYPE:WALL-OUTER
G1 F1500 X100.6 Y164.6 E2302.6297
G1 X100.6 Y55.4 E2317.15773
G1 X102.3 Y55.4 E2317.3839
G1 X102.3 Y164.6 E2331.91193
G0 F9000 X101.8 Y163.635
G1 F1500 E2325.41193
;MESH:NONMESH
G0 F300 X101.8 Y163.635 Z3.2
G0 F9000 X103.365 Y163.8
G0 X111.535 Y163.8
G0 X113.02 Y163.8
G0 X113.4 Y163.8
;TIME_ELAPSED:920.441093
;LAYER:7
;TYPE:WALL-INNER
;MESH:zanza fissa prolunga mobile.stl
G1 F1500 E2331.91193
G1 X113.4 Y56.2 E2346.22709
G1 X113.5 Y56.2 E2346.24039
G1 X113.5 Y163.8 E2348.03203
G1 X113.4 Y163.8 E2348.04533
G0 F9000 X113.07 Y164.13
G0 X112.6 Y164.6
;TYPE:WALL-OUTER
G1 F1500 X112.6 Y55.4 E2362.57336
G1 X114.3 Y55.4 E2362.79953
G1 X114.3 Y164.6 E2377.32756
G1 X112.6 Y164.6 E2377.55372
G0 F9000 X113.1 Y163.635
G1 F1500 E2371.05372
G0 F9000 X111.535 Y163.8
G0 X103.365 Y163.8
G0 X101.88 Y163.8
G0 X101.5 Y163.8
;TYPE:WALL-INNER
G1 F1500 E2377.55372
G1 X101.4 Y163.8 E2377.56703
G1 X101.4 Y56.2 E2391.88219
G1 X101.5 Y56.2 E2391.89549
G1 X101.5 Y163.8 E2393.68713
G0 F9000 X101.83 Y164.13
G0 X102.3 Y164.6
;TYPE:WALL-OUTER
G1 F1500 X100.6 Y164.6 E2393.9133
G1 X100.6 Y55.4 E2408.44133
G1 X102.3 Y55.4 E2408.66749
G1 X102.3 Y164.6 E2423.19552
G0 F9000 X101.8 Y163.635
G1 F1500 E2416.69552
;MESH:NONMESH
G0 F300 X101.8 Y163.635 Z3.6
G0 F9000 X103.365 Y163.8
G0 X111.535 Y163.8
G0 X113.02 Y163.8
G0 X113.4 Y163.8
;TIME_ELAPSED:957.934414
;LAYER:8
;TYPE:WALL-INNER
;MESH:zanza fissa prolunga mobile.stl
G1 F1500 E2423.19552
G1 X113.4 Y56.2 E2437.51068
G1 X113.5 Y56.2 E2437.52399
G1 X113.5 Y163.8 E2439.31562
G1 X113.4 Y163.8 E2439.32893
G0 F9000 X113.07 Y164.13
G0 X112.6 Y164.6
;TYPE:WALL-OUTER
G1 F1500 X112.6 Y55.4 E2453.85695
G1 X114.3 Y55.4 E2454.08312
G1 X114.3 Y164.6 E2468.61115
G1 X112.6 Y164.6 E2468.83732
G0 F9000 X113.1 Y163.635
G1 F1500 E2462.33732
G0 F9000 X111.535 Y163.8
G0 X103.365 Y163.8
G0 X101.88 Y163.8
G0 X101.5 Y163.8
;TYPE:WALL-INNER
G1 F1500 E2468.83732
G1 X101.4 Y163.8 E2468.85062
G1 X101.4 Y56.2 E2483.16578
G1 X101.5 Y56.2 E2483.17909
G1 X101.5 Y163.8 E2484.97072
G0 F9000 X101.83 Y164.13
G0 X102.3 Y164.6
;TYPE:WALL-OUTER
G1 F1500 X100.6 Y164.6 E2485.19689
G1 X100.6 Y55.4 E2499.72492
G1 X102.3 Y55.4 E2499.95109
G1 X102.3 Y164.6 E2514.47912
G0 F9000 X101.8 Y163.635
G1 F1500 E2507.97912
;MESH:NONMESH
G0 F300 X101.8 Y163.635 Z4
G0 F9000 X103.365 Y163.8
G0 X111.535 Y163.8
G0 X113.02 Y163.8
G0 X113.4 Y163.8
;TIME_ELAPSED:995.427736
;LAYER:9
;TYPE:WALL-INNER
;MESH:zanza fissa prolunga mobile.stl
G1 F1500 E2514.47912
G1 X113.4 Y56.2 E2528.79428
G1 X113.5 Y56.2 E2528.80758
G1 X113.5 Y163.8 E2530.59922
G1 X113.4 Y163.8 E2530.61252
G0 F9000 X113.07 Y164.13
G0 X112.6 Y164.6
;TYPE:WALL-OUTER
G1 F1500 X112.6 Y55.4 E2545.14055
G1 X114.3 Y55.4 E2545.36672
G1 X114.3 Y164.6 E2559.89474
G1 X112.6 Y164.6 E2560.12091
G0 F9000 X113.1 Y163.635
G1 F1500 E2553.62091
G0 F9000 X111.535 Y163.8
G0 X103.365 Y163.8
G0 X101.88 Y163.8
G0 X101.5 Y163.8
;TYPE:WALL-INNER
G1 F1500 E2560.12091
G1 X101.4 Y163.8 E2560.13422
G1 X101.4 Y56.2 E2574.44938
G1 X101.5 Y56.2 E2574.46268
G1 X101.5 Y163.8 E2576.25432
G0 F9000 X101.83 Y164.13
G0 X102.3 Y164.6
;TYPE:WALL-OUTER
G1 F1500 X100.6 Y164.6 E2576.48049
G1 X100.6 Y55.4 E2591.00851
G1 X102.3 Y55.4 E2591.23468
G1 X102.3 Y164.6 E2605.76271
G0 F9000 X101.8 Y163.635
G1 F1500 E2599.26271
;MESH:NONMESH
G0 F300 X101.8 Y163.635 Z4.4
G0 F9000 X103.365 Y163.8
G0 X111.535 Y163.8
G0 X113.02 Y163.8
G0 X113.4 Y163.8
;TIME_ELAPSED:1032.921057
;LAYER:10
;TYPE:WALL-INNER
;MESH:zanza fissa prolunga mobile.stl
G1 F1500 E2605.76271
G1 X113.4 Y56.2 E2620.07787
G1 X113.5 Y56.2 E2620.09118
G1 X113.5 Y163.8 E2621.88281
G1 X113.4 Y163.8 E2621.89611
G0 F9000 X113.07 Y164.13
G0 X112.6 Y164.6
;TYPE:WALL-OUTER
G1 F1500 X112.6 Y55.4 E2636.42414
G1 X114.3 Y55.4 E2636.65031
G1 X114.3 Y164.6 E2651.17834
G1 X112.6 Y164.6 E2651.40451
G0 F9000 X113.1 Y163.635
G1 F1500 E2644.90451
G0 F9000 X111.535 Y163.8
G0 X103.365 Y163.8
G0 X101.88 Y163.8
G0 X101.5 Y163.8
;TYPE:WALL-INNER
G1 F1500 E2651.40451
G1 X101.4 Y163.8 E2651.41781
G1 X101.4 Y56.2 E2665.73297
G1 X101.5 Y56.2 E2665.74628
G1 X101.5 Y163.8 E2667.53791
G0 F9000 X101.83 Y164.13
G0 X102.3 Y164.6
;TYPE:WALL-OUTER
G1 F1500 X100.6 Y164.6 E2667.76408
G1 X100.6 Y55.4 E2682.29211
G1 X102.3 Y55.4 E2682.51828
G1 X102.3 Y164.6 E2697.0463
G0 F9000 X101.8 Y163.635
G1 F1500 E2690.5463
;MESH:NONMESH
G0 F300 X101.8 Y163.635 Z4.8
G0 F9000 X103.365 Y163.8
G0 X111.535 Y163.8
G0 X113.02 Y163.8
G0 X113.4 Y163.8
;TIME_ELAPSED:1070.414379
;LAYER:11
;TYPE:WALL-INNER
;MESH:zanza fissa prolunga mobile.stl
G1 F1500 E2697.0463
G1 X113.4 Y56.2 E2711.36146
G1 X113.5 Y56.2 E2711.37477
G1 X113.5 Y163.8 E2713.1664
G1 X113.4 Y163.8 E2713.17971
G0 F9000 X113.07 Y164.13
G0 X112.6 Y164.6
;TYPE:WALL-OUTER
G1 F1500 X112.6 Y55.4 E2727.70773
G1 X114.3 Y55.4 E2727.9339
G1 X114.3 Y164.6 E2742.46193
G1 X112.6 Y164.6 E2742.6881
G0 F9000 X113.1 Y163.635
G1 F1500 E2736.1881
G0 F9000 X111.535 Y163.8
G0 X103.365 Y163.8
G0 X101.88 Y163.8
G0 X101.5 Y163.8
;TYPE:WALL-INNER
G1 F1500 E2742.6881
G1 X101.4 Y163.8 E2742.7014
G1 X101.4 Y56.2 E2757.01657
G1 X101.5 Y56.2 E2757.02987
G1 X101.5 Y163.8 E2758.8215
G0 F9000 X101.83 Y164.13
G0 X102.3 Y164.6
;TYPE:WALL-OUTER
G1 F1500 X100.6 Y164.6 E2759.04767
G1 X100.6 Y55.4 E2773.5757
G1 X102.3 Y55.4 E2773.80187
G1 X102.3 Y164.6 E2788.3299
G0 F9000 X101.8 Y163.635
G1 F1500 E2781.8299
;MESH:NONMESH
G0 F300 X101.8 Y163.635 Z5.2
G0 F9000 X103.365 Y163.8
G0 X111.535 Y163.8
G0 X113.02 Y163.8
G0 X113.4 Y163.8
;TIME_ELAPSED:1107.907700
;LAYER:12
;TYPE:WALL-INNER
;MESH:zanza fissa prolunga mobile.stl
G1 F1500 E2788.3299
G1 X113.4 Y56.2 E2802.64506
G1 X113.5 Y56.2 E2802.65836
G1 X113.5 Y163.8 E2804.45
G1 X113.4 Y163.8 E2804.4633
G0 F9000 X113.07 Y164.13
G0 X112.6 Y164.6
;TYPE:WALL-OUTER
G1 F1500 X112.6 Y55.4 E2818.99133
G1 X114.3 Y55.4 E2819.2175
G1 X114.3 Y164.6 E2833.74552
G1 X112.6 Y164.6 E2833.97169
G0 F9000 X113.1 Y163.635
G1 F1500 E2827.47169
G0 F9000 X111.535 Y163.8
G0 X103.365 Y163.8
G0 X101.88 Y163.8
G0 X101.5 Y163.8
;TYPE:WALL-INNER
G1 F1500 E2833.97169
G1 X101.4 Y163.8 E2833.985
G1 X101.4 Y56.2 E2848.30016
G1 X101.5 Y56.2 E2848.31346
G1 X101.5 Y163.8 E2850.1051
G0 F9000 X101.83 Y164.13
G0 X102.3 Y164.6
;TYPE:WALL-OUTER
G1 F1500 X100.6 Y164.6 E2850.33127
G1 X100.6 Y55.4 E2864.85929
G1 X102.3 Y55.4 E2865.08546
G1 X102.3 Y164.6 E2879.61349
G0 F9000 X101.8 Y163.635
G1 F1500 E2873.11349
;MESH:NONMESH
G0 F300 X101.8 Y163.635 Z5.6
G0 F9000 X103.365 Y163.8
G0 X111.535 Y163.8
G0 X113.02 Y163.8
G0 X113.4 Y163.8
;TIME_ELAPSED:1145.401022
;LAYER:13
;TYPE:WALL-INNER
;MESH:zanza fissa prolunga mobile.stl
G1 F1500 E2879.61349
G1 X113.4 Y56.2 E2893.92865
G1 X113.5 Y56.2 E2893.94196
G1 X113.5 Y163.8 E2895.73359
G1 X113.4 Y163.8 E2895.7469
G0 F9000 X113.07 Y164.13
G0 X112.6 Y164.6
;TYPE:WALL-OUTER
G1 F1500 X112.6 Y55.4 E2910.27492
G1 X114.3 Y55.4 E2910.50109
G1 X114.3 Y164.6 E2925.02912
G1 X112.6 Y164.6 E2925.25529
G0 F9000 X113.1 Y163.635
G1 F1500 E2918.75529
G0 F9000 X111.535 Y163.8
G0 X103.365 Y163.8
G0 X101.88 Y163.8
G0 X101.5 Y163.8
;TYPE:WALL-INNER
G1 F1500 E2925.25529
G1 X101.4 Y163.8 E2925.26859
G1 X101.4 Y56.2 E2939.58375
G1 X101.5 Y56.2 E2939.59706
G1 X101.5 Y163.8 E2941.38869
G0 F9000 X101.83 Y164.13
G0 X102.3 Y164.6
;TYPE:WALL-OUTER
G1 F1500 X100.6 Y164.6 E2941.61486
G1 X100.6 Y55.4 E2956.14289
G1 X102.3 Y55.4 E2956.36906
G1 X102.3 Y164.6 E2970.89708
G0 F9000 X101.8 Y163.635
G1 F1500 E2964.39708
;MESH:NONMESH
G0 F300 X101.8 Y163.635 Z6
G0 F9000 X103.365 Y163.8
G0 X111.535 Y163.8
G0 X113.02 Y163.8
G0 X113.4 Y163.8
;TIME_ELAPSED:1182.894343
;LAYER:14
;TYPE:WALL-INNER
;MESH:zanza fissa prolunga mobile.stl
G1 F1500 E2970.89708
G1 X113.4 Y56.2 E2985.21225
G1 X113.5 Y56.2 E2985.22555
G1 X113.5 Y163.8 E2987.01718
G1 X113.4 Y163.8 E2987.03049
G0 F9000 X113.07 Y164.13
G0 X112.6 Y164.6
;TYPE:WALL-OUTER
G1 F1500 X112.6 Y55.4 E3001.55852
G1 X114.3 Y55.4 E3001.78468
G1 X114.3 Y164.6 E3016.31271
G1 X112.6 Y164.6 E3016.53888
G0 F9000 X113.1 Y163.635
G1 F1500 E3010.03888
G0 F9000 X111.535 Y163.8
G0 X103.365 Y163.8
G0 X101.88 Y163.8
G0 X101.5 Y163.8
;TYPE:WALL-INNER
G1 F1500 E3016.53888
G1 X101.4 Y163.8 E3016.55218
G1 X101.4 Y56.2 E3030.86735
G1 X101.5 Y56.2 E3030.88065
G1 X101.5 Y163.8 E3032.67229
G0 F9000 X101.83 Y164.13
G0 X102.3 Y164.6
;TYPE:WALL-OUTER
G1 F1500 X100.6 Y164.6 E3032.89845
G1 X100.6 Y55.4 E3047.42648
G1 X102.3 Y55.4 E3047.65265
G1 X102.3 Y164.6 E3062.18068
G0 F9000 X101.8 Y163.635
G1 F1500 E3055.68068
;MESH:NONMESH
G0 F300 X101.8 Y163.635 Z6.4
G0 F9000 X103.365 Y163.8
G0 X111.535 Y163.8
G0 X113.02 Y163.8
G0 X113.4 Y163.8
;TIME_ELAPSED:1220.387665
;LAYER:15
;TYPE:WALL-INNER
;MESH:zanza fissa prolunga mobile.stl
G1 F1500 E3062.18068
G1 X113.4 Y56.2 E3076.49584
G1 X113.5 Y56.2 E3076.50914
G1 X113.5 Y163.8 E3078.30078
G1 X113.4 Y163.8 E3078.31408
G0 F9000 X113.07 Y164.13
G0 X112.6 Y164.6
;TYPE:WALL-OUTER
G1 F1500 X112.6 Y55.4 E3092.84211
G1 X114.3 Y55.4 E3093.06828
G1 X114.3 Y164.6 E3107.59631
G1 X112.6 Y164.6 E3107.82247
G0 F9000 X113.1 Y163.635
G1 F1500 E3101.32247
G0 F9000 X111.535 Y163.8
G0 X103.365 Y163.8
G0 X101.88 Y163.8
G0 X101.5 Y163.8
;TYPE:WALL-INNER
G1 F1500 E3107.82247
G1 X101.4 Y163.8 E3107.83578
G1 X101.4 Y56.2 E3122.15094
G1 X101.5 Y56.2 E3122.16424
G1 X101.5 Y163.8 E3123.95588
G0 F9000 X101.83 Y164.13
G0 X102.3 Y164.6
;TYPE:WALL-OUTER
G1 F1500 X100.6 Y164.6 E3124.18205
G1 X100.6 Y55.4 E3138.71008
G1 X102.3 Y55.4 E3138.93624
G1 X102.3 Y164.6 E3153.46427
G0 F9000 X101.8 Y163.635
G1 F1500 E3146.96427
;MESH:NONMESH
G0 F300 X101.8 Y163.635 Z6.8
G0 F9000 X103.365 Y163.8
G0 X111.535 Y163.8
G0 X113.02 Y163.8
G0 X113.4 Y163.8
;TIME_ELAPSED:1257.880986
;LAYER:16
;TYPE:WALL-INNER
;MESH:zanza fissa prolunga mobile.stl
G1 F1500 E3153.46427
G1 X113.4 Y56.2 E3167.77943
G1 X113.5 Y56.2 E3167.79274
G1 X113.5 Y163.8 E3169.58437
G1 X113.4 Y163.8 E3169.59768
G0 F9000 X113.07 Y164.13
G0 X112.6 Y164.6
;TYPE:WALL-OUTER
G1 F1500 X112.6 Y55.4 E3184.1257
G1 X114.3 Y55.4 E3184.35187
G1 X114.3 Y164.6 E3198.8799
G1 X112.6 Y164.6 E3199.10607
G0 F9000 X113.1 Y163.635
G1 F1500 E3192.60607
G0 F9000 X111.535 Y163.8
G0 X103.365 Y163.8
G0 X101.88 Y163.8
G0 X101.5 Y163.8
;TYPE:WALL-INNER
G1 F1500 E3199.10607
G1 X101.4 Y163.8 E3199.11937
G1 X101.4 Y56.2 E3213.43453
G1 X101.5 Y56.2 E3213.44784
G1 X101.5 Y163.8 E3215.23947
G0 F9000 X101.83 Y164.13
G0 X102.3 Y164.6
;TYPE:WALL-OUTER
G1 F1500 X100.6 Y164.6 E3215.46564
G1 X100.6 Y55.4 E3229.99367
G1 X102.3 Y55.4 E3230.21984
G1 X102.3 Y164.6 E3244.74787
G0 F9000 X101.8 Y163.635
G1 F1500 E3238.24787
;MESH:NONMESH
G0 F300 X101.8 Y163.635 Z7.2
G0 F9000 X103.365 Y163.8
G0 X111.535 Y163.8
G0 X113.02 Y163.8
G0 X113.4 Y163.8
;TIME_ELAPSED:1295.374307
;LAYER:17
;TYPE:WALL-INNER
;MESH:zanza fissa prolunga mobile.stl
G1 F1500 E3244.74787
G1 X113.4 Y56.2 E3259.06303
G1 X113.5 Y56.2 E3259.07633
G1 X113.5 Y163.8 E3260.86797
G1 X113.4 Y163.8 E3260.88127
G0 F9000 X113.07 Y164.13
G0 X112.6 Y164.6
;TYPE:WALL-OUTER
G1 F1500 X112.6 Y55.4 E3275.4093
G1 X114.3 Y55.4 E3275.63547
G1 X114.3 Y164.6 E3290.16349
G1 X112.6 Y164.6 E3290.38966
G0 F9000 X113.1 Y163.635
G1 F1500 E3283.88966
G0 F9000 X111.535 Y163.8
G0 X103.365 Y163.8
G0 X101.88 Y163.8
G0 X101.5 Y163.8
;TYPE:WALL-INNER
G1 F1500 E3290.38966
G1 X101.4 Y163.8 E3290.40297
G1 X101.4 Y56.2 E3304.71813
G1 X101.5 Y56.2 E3304.73143
G1 X101.5 Y163.8 E3306.52307
G0 F9000 X101.83 Y164.13
G0 X102.3 Y164.6
;TYPE:WALL-OUTER
G1 F1500 X100.6 Y164.6 E3306.74924
G1 X100.6 Y55.4 E3321.27726
G1 X102.3 Y55.4 E3321.50343
G1 X102.3 Y164.6 E3336.03146
G0 F9000 X101.8 Y163.635
G1 F1500 E3329.53146
;MESH:NONMESH
G0 F300 X101.8 Y163.635 Z7.6
G0 F9000 X103.365 Y163.8
G0 X111.535 Y163.8
G0 X113.02 Y163.8
G0 X113.4 Y163.8
;TIME_ELAPSED:1332.867629
;LAYER:18
;TYPE:WALL-INNER
;MESH:zanza fissa prolunga mobile.stl
G1 F1500 E3336.03146
G1 X113.4 Y56.2 E3350.34662
G1 X113.5 Y56.2 E3350.35993
G1 X113.5 Y163.8 E3352.15156
G1 X113.4 Y163.8 E3352.16486
G0 F9000 X113.07 Y164.13
G0 X112.6 Y164.6
;TYPE:WALL-OUTER
G1 F1500 X112.6 Y55.4 E3366.69289
G1 X114.3 Y55.4 E3366.91906
G1 X114.3 Y164.6 E3381.44709
G1 X112.6 Y164.6 E3381.67326
G0 F9000 X113.1 Y163.635
G1 F1500 E3375.17326
G0 F9000 X111.535 Y163.8
G0 X103.365 Y163.8
G0 X101.88 Y163.8
G0 X101.5 Y163.8
;TYPE:WALL-INNER
G1 F1500 E3381.67326
G1 X101.4 Y163.8 E3381.68656
G1 X101.4 Y56.2 E3396.00172
G1 X101.5 Y56.2 E3396.01503
G1 X101.5 Y163.8 E3397.80666
G0 F9000 X101.83 Y164.13
G0 X102.3 Y164.6
;TYPE:WALL-OUTER
G1 F1500 X100.6 Y164.6 E3398.03283
G1 X100.6 Y55.4 E3412.56086
G1 X102.3 Y55.4 E3412.78703
G1 X102.3 Y164.6 E3427.31505
G0 F9000 X101.8 Y163.635
G1 F1500 E3420.81505
;MESH:NONMESH
G0 F300 X101.8 Y163.635 Z8
G0 F9000 X103.365 Y163.8
G0 X111.535 Y163.8
G0 X113.02 Y163.8
G0 X113.4 Y163.8
;TIME_ELAPSED:1370.360950
;LAYER:19
;TYPE:WALL-INNER
;MESH:zanza fissa prolunga mobile.stl
G1 F1500 E3427.31505
G1 X113.4 Y56.2 E3441.63021
G1 X113.5 Y56.2 E3441.64352
G1 X113.5 Y163.8 E3443.43515
G1 X113.4 Y163.8 E3443.44846
G0 F9000 X113.07 Y164.13
G0 X112.6 Y164.6
;TYPE:WALL-OUTER
G1 F1500 X112.6 Y55.4 E3457.97648
G1 X114.3 Y55.4 E3458.20265
G1 X114.3 Y164.6 E3472.73068
G1 X112.6 Y164.6 E3472.95685
G0 F9000 X113.1 Y163.635
G1 F1500 E3466.45685
G0 F9000 X111.535 Y163.8
G0 X103.365 Y163.8
G0 X101.88 Y163.8
G0 X101.5 Y163.8
;TYPE:WALL-INNER
G1 F1500 E3472.95685
G1 X101.4 Y163.8 E3472.97015
G1 X101.4 Y56.2 E3487.28532
G1 X101.5 Y56.2 E3487.29862
G1 X101.5 Y163.8 E3489.09025
G0 F9000 X101.83 Y164.13
G0 X102.3 Y164.6
;TYPE:WALL-OUTER
G1 F1500 X100.6 Y164.6 E3489.31642
G1 X100.6 Y55.4 E3503.84445
G1 X102.3 Y55.4 E3504.07062
G1 X102.3 Y164.6 E3518.59865
G0 F9000 X101.8 Y163.635
G1 F1500 E3512.09865
;MESH:NONMESH
G0 F300 X101.8 Y163.635 Z8.4
G0 F9000 X103.365 Y163.8
G0 X111.535 Y163.8
G0 X113.02 Y163.8
G0 X113.4 Y163.8
;TIME_ELAPSED:1407.854272
;LAYER:20
;TYPE:WALL-INNER
;MESH:zanza fissa prolunga mobile.stl
G1 F1500 E3518.59865
G1 X113.4 Y56.2 E3532.91381
G1 X113.5 Y56.2 E3532.92711
G1 X113.5 Y163.8 E3534.71875
G1 X113.4 Y163.8 E3534.73205
G0 F9000 X113.07 Y164.13
G0 X112.6 Y164.6
;TYPE:WALL-OUTER
G1 F1500 X112.6 Y55.4 E3549.26008
G1 X114.3 Y55.4 E3549.48625
G1 X114.3 Y164.6 E3564.01427
G1 X112.6 Y164.6 E3564.24044
G0 F9000 X113.1 Y163.635
G1 F1500 E3557.74044
G0 F9000 X111.535 Y163.8
G0 X103.365 Y163.8
G0 X101.88 Y163.8
G0 X101.5 Y163.8
;TYPE:WALL-INNER
G1 F1500 E3564.24044
G1 X101.4 Y163.8 E3564.25375
G1 X101.4 Y56.2 E3578.56891
G1 X101.5 Y56.2 E3578.58221
G1 X101.5 Y163.8 E3580.37385
G0 F9000 X101.83 Y164.13
G0 X102.3 Y164.6
;TYPE:WALL-OUTER
G1 F1500 X100.6 Y164.6 E3580.60002
G1 X100.6 Y55.4 E3595.12804
G1 X102.3 Y55.4 E3595.35421
G1 X102.3 Y164.6 E3609.88224
G0 F9000 X101.8 Y163.635
G1 F1500 E3603.38224
;MESH:NONMESH
G0 F300 X101.8 Y163.635 Z8.8
G0 F9000 X103.365 Y163.8
G0 X111.535 Y163.8
G0 X113.02 Y163.8
G0 X113.4 Y163.8
;TIME_ELAPSED:1445.347593
;LAYER:21
;TYPE:WALL-INNER
;MESH:zanza fissa prolunga mobile.stl
G1 F1500 E3609.88224
G1 X113.4 Y56.2 E3624.1974
G1 X113.5 Y56.2 E3624.21071
G1 X113.5 Y163.8 E3626.00234
G1 X113.4 Y163.8 E3626.01565
G0 F9000 X113.07 Y164.13
G0 X112.6 Y164.6
;TYPE:WALL-OUTER
G1 F1500 X112.6 Y55.4 E3640.54367
G1 X114.3 Y55.4 E3640.76984
G1 X114.3 Y164.6 E3655.29787
G1 X112.6 Y164.6 E3655.52404
G0 F9000 X113.1 Y163.635
G1 F1500 E3649.02404
G0 F9000 X111.535 Y163.8
G0 X103.365 Y163.8
G0 X101.88 Y163.8
G0 X101.5 Y163.8
;TYPE:WALL-INNER
G1 F1500 E3655.52404
G1 X101.4 Y163.8 E3655.53734
G1 X101.4 Y56.2 E3669.8525
G1 X101.5 Y56.2 E3669.86581
G1 X101.5 Y163.8 E3671.65744
G0 F9000 X101.83 Y164.13
G0 X102.3 Y164.6
;TYPE:WALL-OUTER
G1 F1500 X100.6 Y164.6 E3671.88361
G1 X100.6 Y55.4 E3686.41164
G1 X102.3 Y55.4 E3686.63781
G1 X102.3 Y164.6 E3701.16583
G0 F9000 X101.8 Y163.635
;TIME_ELAPSED:1482.141916
G1 F1500 E3694.66583
M140 S0
G91 ;Relative positioning
G1 E-2 F2700 ;Retract a bit
G1 E-2 Z0.2 F2400 ;Retract and raise Z
G1 X5 Y5 F3000 ;Wipe out
G1 Z10 ;Raise Z more
G90 ;Absolute positioning

G1 X0 Y220 ;Present print
M106 S0 ;Turn-off fan
M104 S0 ;Turn-off hotend
M140 S0 ;Turn-off bed

M84 X Y E ;Disable all steppers but Z

M82 ;absolute extrusion mode
M104 S0
;End of Gcode
;SETTING_3 {"global_quality": "[general]\\nversion = 4\\nname = Draft Quality #2
;SETTING_3 \\ndefinition = creality_ender3pro\\n\\n[metadata]\\ntype = quality_c
;SETTING_3 hanges\\nquality_type = draft\\nsetting_version = 17\\n\\n[values]\\n
;SETTING_3 adhesion_type = brim\\nlayer_height = 0.4\\nlayer_height_0 = 0.4\\nsu
;SETTING_3 pport_enable = True\\n\\n", "extruder_quality": ["[general]\\nversion
;SETTING_3  = 4\\nname = Draft Quality #2\\ndefinition = creality_ender3pro\\n\\
;SETTING_3 n[metadata]\\ntype = quality_changes\\nquality_type = draft\\nsetting
;SETTING_3 _version = 17\\nposition = 0\\n\\n[values]\\nbrim_outside_only = Fals
;SETTING_3 e\\ncool_fan_enabled = False\\ninfill_sparse_density = 100\\nmaterial
;SETTING_3 _print_temperature = 245.0\\n\\n"]}
