;FLAVOR:Marlin
;TIME:752
;Filament used: 1.3906m
;Layer height: 0.32
;MINX:86.25
;MINY:75
;MINZ:0.32
;MAXX:133.75
;MAXY:145
;MAXZ:6.08
;Generated with Cura_SteamEngine 4.11.0
M140 S60
M105
M190 S60
M104 S200
M105
M109 S200
M82 ;absolute extrusion mode
; Ender 3 Custom Start G-code
G92 E0 ; Reset Extruder
G28 ; Home all axes
G1 Z2.0 F3000 ; Move Z Axis up little to prevent scratching of Heat Bed
G1 X0.1 Y20 Z0.3 F5000.0 ; Move to start position
G1 X0.1 Y200.0 Z0.3 F1500.0 E15 ; Draw the first line
G1 X0.4 Y200.0 Z0.3 F5000.0 ; Move to side a little
G1 X0.4 Y20 Z0.3 F1500.0 E30 ; Draw the second line
G92 E0 ; Reset Extruder
G1 Z2.0 F3000 ; Move Z Axis up little to prevent scratching of Heat Bed
G1 X5 Y20 Z0.3 F5000.0 ; Move over to prevent blob squish
G92 E0
G92 E0
G1 F1500 E-6.5
;LAYER_COUNT:19
;LAYER:0
M107
G0 F6000 X89.537 Y79.36 Z0.32
;TYPE:SKIRT
G1 F1500 E0
G1 F1200 X89.623 Y79.266 E0.01695
G1 X90.187 Y78.688 E0.12439
G1 X90.389 Y78.494 E0.16165
G1 X91.138 Y77.831 E0.29473
G1 X91.937 Y77.23 E0.42774
G1 X92.781 Y76.695 E0.56069
G1 X93.665 Y76.228 E0.6937
G1 X94.584 Y75.834 E0.82673
G1 X95.532 Y75.515 E0.9598
G1 X96.501 Y75.272 E1.09271
G1 X97.488 Y75.108 E1.22582
G1 X98.626 Y75.017 E1.3777
G1 X99.043 Y75.006 E1.4332
G1 X99.605 Y75 E1.50797
G1 X120.25 Y75 E4.25459
G1 X121.129 Y75.011 E4.37154
G1 X122.128 Y75.066 E4.50465
G1 X123.118 Y75.199 E4.63755
G1 X124.095 Y75.412 E4.77058
G1 X125.052 Y75.702 E4.90362
G1 X125.983 Y76.067 E5.03666
G1 X126.881 Y76.506 E5.16964
G1 X127.742 Y77.015 E5.30271
G1 X128.559 Y77.592 E5.43577
G1 X129.446 Y78.34 E5.59014
G1 X129.541 Y78.428 E5.60737
G1 X130.018 Y78.895 E5.69618
G1 X130.212 Y79.095 E5.73325
G1 X130.879 Y79.84 E5.86628
G1 X131.484 Y80.636 E5.9993
G1 X132.024 Y81.477 E6.13227
G1 X132.495 Y82.359 E6.26529
G1 X132.893 Y83.276 E6.39828
G1 X133.218 Y84.222 E6.53136
G1 X133.465 Y85.191 E6.6644
G1 X133.634 Y86.176 E6.79736
G1 X133.729 Y87.282 E6.94504
G1 X133.744 Y87.76 E7.00867
G1 X133.75 Y88.311 E7.08198
G1 X133.749 Y131.678 E12.85155
G1 X133.739 Y132.38 E12.94495
G1 X133.685 Y133.378 E13.07792
G1 X133.551 Y134.369 E13.21096
G1 X133.338 Y135.346 E13.344
G1 X133.048 Y136.303 E13.47703
G1 X132.683 Y137.234 E13.61007
G1 X132.244 Y138.132 E13.74306
G1 X131.735 Y138.992 E13.87601
G1 X131.159 Y139.809 E14.009
G1 X130.414 Y140.693 E14.1628
G1 X130.327 Y140.787 E14.17984
G1 X129.834 Y141.29 E14.27355
G1 X129.633 Y141.484 E14.31071
G1 X128.886 Y142.149 E14.44377
G1 X128.089 Y142.752 E14.57673
G1 X127.246 Y143.29 E14.70978
G1 X126.363 Y143.758 E14.84273
G1 X125.445 Y144.155 E14.97579
G1 X124.498 Y144.476 E15.10882
G1 X123.529 Y144.721 E15.2418
G1 X122.543 Y144.888 E15.37484
G1 X121.374 Y144.983 E15.53088
G1 X120.957 Y144.994 E15.58638
G1 X120.395 Y145 E15.66115
G1 X99.572 Y144.999 E18.43145
G1 X98.87 Y144.989 E18.52486
G1 X97.872 Y144.935 E18.65783
G1 X96.881 Y144.801 E18.79087
G1 X95.904 Y144.588 E18.9239
G1 X94.947 Y144.298 E19.05694
G1 X94.016 Y143.933 E19.18998
G1 X93.118 Y143.494 E19.32296
G1 X92.258 Y142.985 E19.45591
G1 X91.441 Y142.409 E19.58891
G1 X90.593 Y141.697 E19.73622
G1 X90.495 Y141.607 E19.75392
G1 X89.953 Y141.078 E19.85468
G1 X89.763 Y140.881 E19.89109
G1 X89.098 Y140.134 E20.02415
G1 X88.495 Y139.336 E20.15722
G1 X87.958 Y138.493 E20.29019
G1 X87.49 Y137.61 E20.42315
G1 X87.094 Y136.692 E20.55616
G1 X86.772 Y135.745 E20.68923
G1 X86.528 Y134.775 E20.8223
G1 X86.361 Y133.79 E20.95522
G1 X86.268 Y132.663 E21.10566
G1 X86.262 Y132.5 E21.12736
G1 X86.255 Y132.157 E21.173
G1 X86.25 Y131.613 E21.24538
G1 X86.251 Y88.284 E27.0099
G1 X86.261 Y87.612 E27.09931
G1 X86.316 Y86.614 E27.23228
G1 X86.451 Y85.623 E27.36535
G1 X86.664 Y84.646 E27.49838
G1 X86.954 Y83.69 E27.63129
G1 X87.321 Y82.759 E27.76443
G1 X87.76 Y81.861 E27.89741
G1 X88.27 Y81.001 E28.03043
G1 X88.846 Y80.184 E28.16342
G1 X89.537 Y79.36 E28.30649
G0 F6000 X90.275 Y80.035
G1 F1200 X90.361 Y79.941 E28.32344
G1 X90.88 Y79.41 E28.42222
G1 X91.082 Y79.216 E28.45949
G1 X91.801 Y78.581 E28.58711
G1 X92.57 Y78.008 E28.71469
G1 X93.384 Y77.501 E28.84228
G1 X94.238 Y77.064 E28.9699
G1 X95.125 Y76.7 E29.09746
G1 X96.039 Y76.411 E29.22499
G1 X96.974 Y76.199 E29.35254
G1 X97.924 Y76.065 E29.48018
G1 X98.66 Y76.017 E29.57831
G1 X99.055 Y76.006 E29.63088
G1 X99.605 Y76 E29.70406
G1 X120.25 Y76 E32.45068
G1 X121.115 Y76.011 E32.56577
G1 X122.072 Y76.065 E32.69329
G1 X123.022 Y76.198 E32.82091
G1 X123.957 Y76.41 E32.94846
G1 X124.872 Y76.699 E33.07612
G1 X125.759 Y77.063 E33.20368
G1 X126.613 Y77.5 E33.33131
G1 X127.427 Y78.007 E33.45889
G1 X128.196 Y78.579 E33.5864
G1 X128.766 Y79.073 E33.68675
G1 X128.861 Y79.161 E33.70398
G1 X129.301 Y79.591 E33.78582
G1 X129.495 Y79.791 E33.82289
G1 X130.133 Y80.507 E33.95048
G1 X130.71 Y81.273 E34.07807
G1 X131.22 Y82.085 E34.20564
G1 X131.662 Y82.936 E34.33321
G1 X132.03 Y83.821 E34.46073
G1 X132.324 Y84.734 E34.58834
G1 X132.541 Y85.668 E34.71591
G1 X132.679 Y86.617 E34.84349
G1 X132.73 Y87.323 E34.93766
G1 X132.744 Y87.772 E34.99743
G1 X132.75 Y88.311 E35.06914
G1 X132.749 Y131.664 E40.83685
G1 X132.739 Y132.366 E40.93025
G1 X132.685 Y133.323 E41.05777
G1 X132.552 Y134.273 E41.18539
G1 X132.34 Y135.208 E41.31294
G1 X132.051 Y136.123 E41.4406
G1 X131.687 Y137.01 E41.56816
G1 X131.25 Y137.863 E41.69567
G1 X130.744 Y138.678 E41.8233
G1 X130.171 Y139.447 E41.95088
G1 X129.68 Y140.013 E42.05057
G1 X129.593 Y140.107 E42.06761
G1 X129.139 Y140.571 E42.15397
G1 X128.938 Y140.765 E42.19114
G1 X128.221 Y141.401 E42.31865
G1 X127.454 Y141.976 E42.44618
G1 X126.641 Y142.484 E42.57372
G1 X125.788 Y142.924 E42.70141
G1 X124.902 Y143.29 E42.82895
G1 X123.988 Y143.582 E42.9566
G1 X123.054 Y143.796 E43.08408
G1 X122.104 Y143.932 E43.21176
G1 X121.34 Y143.983 E43.31363
G1 X120.945 Y143.994 E43.3662
G1 X120.395 Y144 E43.43938
G1 X99.586 Y143.999 E46.20782
G1 X98.884 Y143.989 E46.30122
G1 X97.927 Y143.935 E46.42874
G1 X96.977 Y143.802 E46.55636
G1 X96.042 Y143.59 E46.68392
G1 X95.127 Y143.301 E46.81157
G1 X94.24 Y142.937 E46.93913
G1 X93.387 Y142.5 E47.06664
G1 X92.572 Y141.994 E47.19427
G1 X91.803 Y141.421 E47.32185
G1 X91.269 Y140.96 E47.41571
G1 X91.171 Y140.87 E47.43341
G1 X90.673 Y140.383 E47.52608
G1 X90.483 Y140.186 E47.56249
G1 X89.846 Y139.469 E47.69009
G1 X89.272 Y138.701 E47.81765
G1 X88.763 Y137.888 E47.94526
G1 X88.325 Y137.035 E48.07283
G1 X87.958 Y136.149 E48.20042
G1 X87.667 Y135.235 E48.32803
G1 X87.453 Y134.301 E48.45551
G1 X87.317 Y133.351 E48.58319
G1 X87.268 Y132.626 E48.67986
G1 X87.262 Y132.463 E48.70156
G1 X87.255 Y132.148 E48.74348
G1 X87.25 Y131.613 E48.81466
G1 X87.251 Y88.299 E54.57718
G1 X87.261 Y87.627 E54.66659
G1 X87.316 Y86.669 E54.79425
G1 X87.449 Y85.72 E54.92174
G1 X87.662 Y84.785 E55.04932
G1 X87.951 Y83.871 E55.17686
G1 X88.316 Y82.984 E55.30446
G1 X88.754 Y82.13 E55.43215
G1 X89.261 Y81.316 E55.55974
G1 X89.834 Y80.547 E55.68732
G1 X90.275 Y80.035 E55.77722
G0 F6000 X91.013 Y80.71
G1 F1200 X91.099 Y80.616 E55.79417
G1 X91.573 Y80.131 E55.8844
G1 X91.775 Y79.937 E55.92166
G1 X92.463 Y79.332 E56.04354
G1 X93.201 Y78.789 E56.16544
G1 X93.983 Y78.312 E56.28731
G1 X94.805 Y77.906 E56.40928
G1 X95.658 Y77.572 E56.53115
G1 X96.537 Y77.315 E56.65299
G1 X97.436 Y77.134 E56.77499
G1 X98.693 Y77.016 E56.94296
G1 X99.068 Y77.006 E56.99287
G1 X99.605 Y77 E57.06431
G1 X120.25 Y77 E59.81094
G1 X121.101 Y77.011 E59.92416
G1 X122.016 Y77.064 E60.0461
G1 X122.922 Y77.197 E60.16793
G1 X123.814 Y77.408 E60.28987
G1 X124.684 Y77.696 E60.4118
G1 X125.525 Y78.059 E60.53366
G1 X126.332 Y78.493 E60.65557
G1 X127.097 Y78.997 E60.77744
G1 X128.086 Y79.807 E60.94752
G1 X128.181 Y79.895 E60.96475
G1 X128.583 Y80.287 E61.03945
G1 X128.777 Y80.487 E61.07652
G1 X129.385 Y81.172 E61.19837
G1 X129.932 Y81.908 E61.32037
G1 X130.413 Y82.688 E61.44229
G1 X130.823 Y83.507 E61.56414
G1 X131.161 Y84.359 E61.68608
G1 X131.423 Y85.237 E61.80798
G1 X131.607 Y86.134 E61.9298
G1 X131.731 Y87.364 E62.09427
G1 X131.744 Y87.785 E62.15031
G1 X131.75 Y88.311 E62.22029
G1 X131.749 Y131.65 E67.98614
G1 X131.739 Y132.352 E68.07954
G1 X131.686 Y133.266 E68.20134
G1 X131.553 Y134.173 E68.3233
G1 X131.342 Y135.065 E68.44525
G1 X131.054 Y135.934 E68.56705
G1 X130.691 Y136.776 E68.68903
G1 X130.257 Y137.582 E68.81082
G1 X129.753 Y138.348 E68.93281
G1 X128.946 Y139.334 E69.10232
G1 X128.859 Y139.428 E69.11936
G1 X128.445 Y139.851 E69.19811
G1 X128.244 Y140.045 E69.23527
G1 X127.557 Y140.652 E69.35724
G1 X126.821 Y141.197 E69.47908
G1 X126.039 Y141.675 E69.60101
G1 X125.219 Y142.084 E69.72292
G1 X124.366 Y142.419 E69.84484
G1 X123.488 Y142.679 E69.96667
G1 X122.59 Y142.861 E70.08857
G1 X121.307 Y142.984 E70.26004
G1 X120.932 Y142.994 E70.30995
G1 X120.395 Y143 E70.38139
G1 X99.6 Y142.999 E73.14797
G1 X98.898 Y142.989 E73.24138
G1 X97.984 Y142.936 E73.36318
G1 X97.077 Y142.803 E73.48514
G1 X96.185 Y142.592 E73.60709
G1 X95.316 Y142.304 E73.72888
G1 X94.474 Y141.941 E73.85087
G1 X93.668 Y141.507 E73.97266
G1 X92.902 Y141.003 E74.09465
G1 X91.946 Y140.224 E74.25871
G1 X91.848 Y140.134 E74.27641
G1 X91.392 Y139.689 E74.36118
G1 X91.202 Y139.492 E74.39759
G1 X90.596 Y138.805 E74.51947
G1 X90.051 Y138.069 E74.64131
G1 X89.573 Y137.287 E74.76324
G1 X89.165 Y136.467 E74.88509
G1 X88.829 Y135.614 E75.00706
G1 X88.57 Y134.735 E75.12898
G1 X88.388 Y133.837 E75.25088
G1 X88.267 Y132.589 E75.41769
G1 X88.254 Y132.138 E75.47772
G1 X88.25 Y131.711 E75.53453
G1 X88.251 Y88.314 E81.30809
G1 X88.261 Y87.642 E81.3975
G1 X88.315 Y86.727 E81.51945
G1 X88.448 Y85.82 E81.6414
G1 X88.66 Y84.929 E81.76325
G1 X88.948 Y84.059 E81.88517
G1 X89.311 Y83.218 E82.00704
G1 X89.747 Y82.412 E82.12895
G1 X90.251 Y81.646 E82.25094
G1 X91.013 Y80.71 E82.41152
G1 F1500 E75.91152
G0 F6000 X102.085 Y91
G0 X102.25 Y91
G1 F1500 E82.41152
G1 F1200 X117.75 Y91 E84.47365
G1 X117.75 Y129 E89.52919
G1 X102.25 Y129 E91.59131
G1 X102.25 Y91 E96.64685
G0 F6000 X101.25 Y90
G1 F1200 X118.75 Y90 E98.97506
G1 X118.75 Y130 E104.29669
G1 X101.25 Y130 E106.6249
G1 X101.25 Y90 E111.94652
G0 F6000 X100.25 Y89
G1 F1200 X119.75 Y89 E114.54081
G1 X119.75 Y131 E120.12851
G1 X100.25 Y131 E122.7228
G1 X100.25 Y89 E128.3105
G0 F6000 X99.25 Y88.001
G1 F1200 X120.749 Y88 E131.17074
G1 X120.75 Y131.999 E137.02439
G1 X99.251 Y132 E139.88463
G1 X99.25 Y88.001 E145.73828
G1 F1500 E139.23828
G0 F6000 X102.085 Y92
G0 X103.25 Y92
;TYPE:SUPPORT
G1 F1500 E145.73828
G1 F1200 X116.75 Y92 E147.53433
G1 X116.75 Y128 E152.32379
G1 X103.25 Y128 E154.11984
G1 X103.25 Y92 E158.9093
G0 F6000 X104.25 Y93
G1 F1200 X115.75 Y93 E160.43926
G1 X115.75 Y127 E164.96264
G1 X104.25 Y127 E166.49261
G1 X104.25 Y93 E171.01598
G0 F6000 X105 Y93.2
G1 F1200 X105 Y126.8 E175.48615
G0 F6000 X104.449 Y125
G1 F1200 X115.549 Y125 E176.9629
G0 F6000 X115 Y126.8
G1 F1200 X115 Y93.2 E181.43306
G0 F6000 X115.55 Y95
G1 F1200 X104.45 Y95 E182.90981
G0 F6000 X104.45 Y100
G1 F1200 X115.55 Y100 E184.38656
G0 F6000 X115.55 Y105
G1 F1200 X104.45 Y105 E185.86331
G0 F6000 X104.45 Y110
G1 F1200 X115.55 Y110 E187.34006
G0 F6000 X115.55 Y115
G1 F1200 X104.45 Y115 E188.81681
G0 F6000 X104.449 Y120
G1 F1200 X115.549 Y120 E190.29356
G1 F1500 E183.79356
G0 F6000 X117.915 Y120
G0 X117.903 Y129.153
G0 X110 Y129.165
G0 X110 Y126.8
G1 F1500 E190.29356
G1 F1200 X110 Y93.2 E194.76372
G1 F1500 E188.26372
G0 F300 X110 Y93.2 Z0.64
G0 F6000 X110 Y90.835
G0 X99.25 Y88.001
;TIME_ELAPSED:83.928570
;LAYER:1
M106 S127.5
;TYPE:SUPPORT
G1 F1500 E194.76372
G1 F1350 X120.749 Y88 E197.62396
G1 X120.75 Y131.999 E203.47761
G1 X99.251 Y132 E206.33785
G1 X99.25 Y88.001 E212.1915
G0 F7500 X100 Y88.7
G1 F1350 X99.95 Y88.701 E212.19815
G1 X99.951 Y131.3 E217.86555
G1 X100 Y131.3 E217.87207
G1 X100 Y88.7 E223.53959
G1 X105 Y88.7 E224.2048
G1 X105 Y131.3 E229.87232
G1 X110 Y131.3 E230.53753
G1 X110 Y88.7 E236.20505
G1 X115 Y88.7 E236.87025
G1 X115 Y131.3 E242.53778
G1 X120 Y131.3 E243.20298
G1 X120 Y88.7 E248.87051
G1 X120.049 Y88.7 E248.87703
G1 X120.05 Y131.299 E254.54442
G1 X120 Y131.3 E254.55108
G1 F1500 E248.05108
G0 F300 X120 Y131.3 Z0.96
G0 F7500 X121.915 Y131.3
G0 X121.911 Y87.519
G0 X121.231 Y86.839
G0 X98.769 Y86.839
G0 X98.089 Y87.519
G0 X98.085 Y88.001
G0 X99.25 Y88.001
;TIME_ELAPSED:106.254948
;LAYER:2
M106 S255
;TYPE:SUPPORT
G1 F1500 E254.55108
G1 X120.749 Y88 E257.41132
G1 X120.75 Y131.999 E263.26497
G1 X99.251 Y132 E266.12521
G1 X99.25 Y88.001 E271.97886
G0 F9000 X100 Y88.7
G1 F1500 X99.95 Y88.701 E271.98551
G1 X99.951 Y131.3 E277.6529
G1 X100 Y131.3 E277.65942
G1 X100 Y88.7 E283.32695
G1 X105 Y88.7 E283.99215
G1 X105 Y131.3 E289.65968
G1 X110 Y131.3 E290.32488
G1 X110 Y88.7 E295.99241
G1 X115 Y88.7 E296.65761
G1 X115 Y131.3 E302.32514
G1 X120 Y131.3 E302.99034
G1 X120 Y88.7 E308.65787
G1 X120.049 Y88.7 E308.66439
G1 X120.05 Y131.299 E314.33178
G1 X120 Y131.3 E314.33844
G1 F1500 E307.83844
G0 F300 X120 Y131.3 Z1.28
G0 F9000 X121.915 Y131.3
G0 X121.911 Y87.519
G0 X121.231 Y86.839
G0 X98.769 Y86.839
G0 X98.089 Y87.519
G0 X98.085 Y88.001
G0 X99.25 Y88.001
;TIME_ELAPSED:126.642741
;LAYER:3
;TYPE:SUPPORT
G1 F1500 E314.33844
G1 X120.749 Y88 E317.19867
G1 X120.75 Y131.999 E323.05232
G1 X99.251 Y132 E325.91256
G1 X99.25 Y88.001 E331.76621
G0 F9000 X100 Y88.7
G1 F1500 X99.95 Y88.701 E331.77287
G1 X99.951 Y131.3 E337.44026
G1 X100 Y131.3 E337.44678
G1 X100 Y88.7 E343.11431
G1 X105 Y88.7 E343.77951
G1 X105 Y131.3 E349.44704
G1 X110 Y131.3 E350.11224
G1 X110 Y88.7 E355.77977
G1 X115 Y88.7 E356.44497
G1 X115 Y131.3 E362.1125
G1 X120 Y131.3 E362.7777
G1 X120 Y88.7 E368.44523
G1 X120.049 Y88.7 E368.45174
G1 X120.05 Y131.299 E374.11914
G1 X120 Y131.3 E374.12579
G1 F1500 E367.62579
G0 F300 X120 Y131.3 Z1.6
G0 F9000 X121.915 Y131.3
G0 X121.911 Y87.519
G0 X121.231 Y86.839
G0 X98.769 Y86.839
G0 X98.089 Y87.519
G0 X98.085 Y88.001
G0 X99.25 Y88.001
;TIME_ELAPSED:147.030535
;LAYER:4
;TYPE:SUPPORT
G1 F1500 E374.12579
G1 X120.749 Y88 E376.98603
G1 X120.75 Y131.999 E382.83968
G1 X99.251 Y132 E385.69992
G1 X99.25 Y88.001 E391.55357
G0 F9000 X100 Y88.7
G1 F1500 X99.95 Y88.701 E391.56022
G1 X99.951 Y131.3 E397.22762
G1 X100 Y131.3 E397.23414
G1 X100 Y88.7 E402.90166
G1 X105 Y88.7 E403.56687
G1 X105 Y131.3 E409.23439
G1 X110 Y131.3 E409.8996
G1 X110 Y88.7 E415.56712
G1 X115 Y88.7 E416.23233
G1 X115 Y131.3 E421.89985
G1 X120 Y131.3 E422.56506
G1 X120 Y88.7 E428.23258
G1 X120.049 Y88.7 E428.2391
G1 X120.05 Y131.299 E433.9065
G1 X120 Y131.3 E433.91315
G1 F1500 E427.41315
G0 F300 X120 Y131.3 Z1.92
G0 F9000 X121.915 Y131.3
G0 X121.911 Y87.519
G0 X121.231 Y86.839
G0 X98.769 Y86.839
G0 X98.089 Y87.519
G0 X98.085 Y88.001
G0 X99.25 Y88.001
;TIME_ELAPSED:167.418329
;LAYER:5
;TYPE:SUPPORT
G1 F1500 E433.91315
G1 X120.749 Y88 E436.77339
G1 X120.75 Y131.999 E442.62704
G1 X99.251 Y132 E445.48728
G1 X99.25 Y88.001 E451.34093
G0 F9000 X100 Y88.7
G1 F1500 X99.95 Y88.701 E451.34758
G1 X99.951 Y131.3 E457.01498
G1 X100 Y131.3 E457.02149
G1 X100 Y88.7 E462.68902
G1 X105 Y88.7 E463.35422
G1 X105 Y131.3 E469.02175
G1 X110 Y131.3 E469.68695
G1 X110 Y88.7 E475.35448
G1 X115 Y88.7 E476.01968
G1 X115 Y131.3 E481.68721
G1 X120 Y131.3 E482.35241
G1 X120 Y88.7 E488.01994
G1 X120.049 Y88.7 E488.02646
G1 X120.05 Y131.299 E493.69385
G1 X120 Y131.3 E493.70051
G1 F1500 E487.20051
G0 F300 X120 Y131.3 Z2.24
G0 F9000 X121.915 Y131.3
G0 X121.911 Y87.519
G0 X121.231 Y86.839
G0 X98.769 Y86.839
G0 X98.089 Y87.519
G0 X98.085 Y88.001
G0 X99.25 Y88.001
;TIME_ELAPSED:187.806122
;LAYER:6
;TYPE:SUPPORT
G1 F1500 E493.70051
G1 X120.749 Y88 E496.56074
G1 X120.75 Y131.999 E502.4144
G1 X99.251 Y132 E505.27463
G1 X99.25 Y88.001 E511.12828
G0 F9000 X100 Y88.7
G1 F1500 X99.95 Y88.701 E511.13494
G1 X99.951 Y131.3 E516.80233
G1 X100 Y131.3 E516.80885
G1 X100 Y88.7 E522.47638
G1 X105 Y88.7 E523.14158
G1 X105 Y131.3 E528.80911
G1 X110 Y131.3 E529.47431
G1 X110 Y88.7 E535.14184
G1 X115 Y88.7 E535.80704
G1 X115 Y131.3 E541.47457
G1 X120 Y131.3 E542.13977
G1 X120 Y88.7 E547.8073
G1 X120.049 Y88.7 E547.81382
G1 X120.05 Y131.299 E553.48121
G1 X120 Y131.3 E553.48786
G1 F1500 E546.98786
G0 F300 X120 Y131.3 Z2.56
G0 F9000 X121.915 Y131.3
G0 X121.911 Y87.519
G0 X121.231 Y86.839
G0 X98.769 Y86.839
G0 X98.089 Y87.519
G0 X98.085 Y88.001
G0 X99.25 Y88.001
;TIME_ELAPSED:208.193916
;LAYER:7
;TYPE:SUPPORT
G1 F1500 E553.48786
G1 X120.749 Y88 E556.3481
G1 X120.75 Y131.999 E562.20175
G1 X99.251 Y132 E565.06199
G1 X99.25 Y88.001 E570.91564
G0 F9000 X100 Y88.7
G1 F1500 X99.95 Y88.701 E570.9223
G1 X99.951 Y131.3 E576.58969
G1 X100 Y131.3 E576.59621
G1 X100 Y88.7 E582.26374
G1 X105 Y88.7 E582.92894
G1 X105 Y131.3 E588.59647
G1 X110 Y131.3 E589.26167
G1 X110 Y88.7 E594.92919
G1 X115 Y88.7 E595.5944
G1 X115 Y131.3 E601.26192
G1 X120 Y131.3 E601.92713
G1 X120 Y88.7 E607.59465
G1 X120.049 Y88.7 E607.60117
G1 X120.05 Y131.299 E613.26857
G1 X120 Y131.3 E613.27522
G1 F1500 E606.77522
G0 F300 X120 Y131.3 Z2.88
G0 F9000 X121.915 Y131.3
G0 X121.911 Y87.519
G0 X121.231 Y86.839
G0 X98.769 Y86.839
G0 X98.089 Y87.519
G0 X98.085 Y88.001
G0 X99.25 Y88.001
;TIME_ELAPSED:228.581709
;LAYER:8
;TYPE:SUPPORT
G1 F1500 E613.27522
G1 X120.749 Y88 E616.13546
G1 X120.75 Y131.999 E621.98911
G1 X99.251 Y132 E624.84935
G1 X99.25 Y88.001 E630.703
G0 F9000 X100 Y88.7
G1 F1500 X99.95 Y88.701 E630.70965
G1 X99.951 Y131.3 E636.37705
G1 X100 Y131.3 E636.38357
G1 X100 Y88.7 E642.05109
G1 X105 Y88.7 E642.7163
G1 X105 Y131.3 E648.38382
G1 X110 Y131.3 E649.04902
G1 X110 Y88.7 E654.71655
G1 X115 Y88.7 E655.38175
G1 X115 Y131.3 E661.04928
G1 X120 Y131.3 E661.71448
G1 X120 Y88.7 E667.38201
G1 X120.049 Y88.7 E667.38853
G1 X120.05 Y131.299 E673.05592
G1 X120 Y131.3 E673.06258
G1 F1500 E666.56258
G0 F300 X120 Y131.3 Z3.2
G0 F9000 X121.915 Y131.3
G0 X121.911 Y87.519
G0 X121.231 Y86.839
G0 X98.769 Y86.839
G0 X98.089 Y87.519
G0 X98.085 Y88.001
G0 X99.25 Y88.001
;TIME_ELAPSED:248.969503
;LAYER:9
;TYPE:SUPPORT
G1 F1500 E673.06258
G1 X120.749 Y88 E675.92282
G1 X120.75 Y131.999 E681.77647
G1 X99.251 Y132 E684.63671
G1 X99.25 Y88.001 E690.49036
G0 F9000 X100 Y88.7
G1 F1500 X99.95 Y88.701 E690.49701
G1 X99.951 Y131.3 E696.1644
G1 X100 Y131.3 E696.17092
G1 X100 Y88.7 E701.83845
G1 X105 Y88.7 E702.50365
G1 X105 Y131.3 E708.17118
G1 X110 Y131.3 E708.83638
G1 X110 Y88.7 E714.50391
G1 X115 Y88.7 E715.16911
G1 X115 Y131.3 E720.83664
G1 X120 Y131.3 E721.50184
G1 X120 Y88.7 E727.16937
G1 X120.049 Y88.7 E727.17589
G1 X120.05 Y131.299 E732.84328
G1 X120 Y131.3 E732.84993
G1 F1500 E726.34993
G0 F300 X120 Y131.3 Z3.52
G0 F9000 X121.915 Y131.3
G0 X121.911 Y87.519
G0 X121.231 Y86.839
G0 X98.769 Y86.839
G0 X98.089 Y87.519
G0 X98.085 Y88.001
G0 X99.25 Y88.001
;TIME_ELAPSED:269.357296
;LAYER:10
;TYPE:SUPPORT
G1 F1500 E732.84993
G1 X120.749 Y88 E735.71017
G1 X120.75 Y131.999 E741.56382
G1 X99.251 Y132 E744.42406
G1 X99.25 Y88.001 E750.27771
G0 F9000 X100 Y88.7
G1 F1500 X99.95 Y88.701 E750.28437
G1 X99.951 Y131.3 E755.95176
G1 X100 Y131.3 E755.95828
G1 X100 Y88.7 E761.62581
G1 X105 Y88.7 E762.29101
G1 X105 Y131.3 E767.95854
G1 X110 Y131.3 E768.62374
G1 X110 Y88.7 E774.29127
G1 X115 Y88.7 E774.95647
G1 X115 Y131.3 E780.624
G1 X120 Y131.3 E781.2892
G1 X120 Y88.7 E786.95673
G1 X120.049 Y88.7 E786.96324
G1 X120.05 Y131.299 E792.63064
G1 X120 Y131.3 E792.63729
G1 F1500 E786.13729
G0 F300 X120 Y131.3 Z3.84
G0 F9000 X121.915 Y131.3
G0 X121.911 Y87.519
G0 X121.231 Y86.839
G0 X98.769 Y86.839
G0 X98.089 Y87.519
G0 X98.085 Y87.926
G0 X98.749 Y87.926
;TIME_ELAPSED:289.717945
;LAYER:11
;TYPE:SUPPORT-INTERFACE
G1 F1500 E792.63729
G1 X99.176 Y87.499 E792.71763
G0 F9000 X98.748 Y90.263
G1 F1500 X121.25 Y112.765 E796.95133
G0 F9000 X121.249 Y116.338
G1 F1500 X105.088 Y132.499 E799.99199
G0 F9000 X107.043 Y132.499
G1 F1500 X98.749 Y124.205 E801.55248
G0 F9000 X98.75 Y121.867
G1 F1500 X121.249 Y99.368 E805.78562
G0 F9000 X121.249 Y95.793
G1 F1500 X112.956 Y87.5 E807.34593
G0 F9000 X116.147 Y87.499
G1 F1500 X98.749 Y104.897 E810.61932
G0 F9000 X98.748 Y107.234
G1 F1500 X121.25 Y129.735 E814.85293
G0 F9000 X121.249 Y124.823
G1 F1500 X113.573 Y132.499 E816.29715
G0 F9000 X115.528 Y132.499
G1 F1500 X98.749 Y115.72 E819.45408
G0 F9000 X98.75 Y113.381
G1 F1500 X121.249 Y90.883 E823.68712
G1 F1500 E817.18712
G0 F9000 X121.915 Y90.883
G0 X121.915 Y104.279
G0 X121.249 Y104.279
G1 F1500 E823.68712
G1 X104.47 Y87.5 E826.84406
G0 F9000 X107.661 Y87.499
G1 F1500 X98.749 Y96.411 E828.52083
G0 F9000 X98.748 Y98.748
G1 F1500 X121.25 Y121.25 E832.75453
G1 F1500 E826.25453
G0 F9000 X121.915 Y121.25
G0 X121.915 Y107.853
G0 X121.249 Y107.853
G1 F1500 E832.75453
G1 X98.75 Y130.352 E836.98766
G1 F1500 E830.48766
G0 F300 X98.75 Y130.352 Z4.16
G0 F9000 X98.085 Y130.352
G0 X98.085 Y87.926
G0 X98.749 Y87.926
;TIME_ELAPSED:308.393446
;LAYER:12
;TYPE:SUPPORT-INTERFACE
G1 F1500 E836.98766
G1 X99.176 Y87.499 E837.068
G0 F9000 X98.748 Y90.263
G1 F1500 X121.25 Y112.765 E841.3017
G0 F9000 X121.249 Y116.338
G1 F1500 X105.088 Y132.499 E844.34236
G0 F9000 X107.043 Y132.499
G1 F1500 X98.749 Y124.205 E845.90286
G0 F9000 X98.75 Y121.867
G1 F1500 X121.249 Y99.368 E850.13599
G0 F9000 X121.249 Y95.793
G1 F1500 X112.956 Y87.5 E851.6963
G0 F9000 X116.147 Y87.499
G1 F1500 X98.749 Y104.897 E854.9697
G0 F9000 X98.748 Y107.234
G1 F1500 X121.25 Y129.735 E859.2033
G0 F9000 X121.249 Y124.823
G1 F1500 X113.573 Y132.499 E860.64752
G0 F9000 X115.528 Y132.499
G1 F1500 X98.749 Y115.72 E863.80446
G0 F9000 X98.75 Y113.381
G1 F1500 X121.249 Y90.883 E868.0375
G1 F1500 E861.5375
G0 F9000 X121.915 Y90.883
G0 X121.915 Y104.279
G0 X121.249 Y104.279
G1 F1500 E868.0375
G1 X104.47 Y87.5 E871.19443
G0 F9000 X107.661 Y87.499
G1 F1500 X98.749 Y96.411 E872.8712
G0 F9000 X98.748 Y98.748
G1 F1500 X121.25 Y121.25 E877.1049
G1 F1500 E870.6049
G0 F9000 X121.915 Y121.25
G0 X121.915 Y107.853
G0 X121.249 Y107.853
G1 F1500 E877.1049
G1 X98.75 Y130.352 E881.33804
G1 F1500 E874.83804
G0 F300 X98.75 Y130.352 Z4.48
G0 F9000 X98.085 Y130.352
G0 X98.085 Y87.926
G0 X98.749 Y87.926
;TIME_ELAPSED:327.068947
;LAYER:13
;TYPE:SUPPORT-INTERFACE
G1 F1500 E881.33804
G1 X99.176 Y87.499 E881.41838
G0 F9000 X98.748 Y90.263
G1 F1500 X121.25 Y112.765 E885.65208
G0 F9000 X121.249 Y116.338
G1 F1500 X105.088 Y132.499 E888.69273
G0 F9000 X107.043 Y132.499
G1 F1500 X98.749 Y124.205 E890.25323
G0 F9000 X98.75 Y121.867
G1 F1500 X121.249 Y99.368 E894.48637
G0 F9000 X121.249 Y95.793
G1 F1500 X112.956 Y87.5 E896.04667
G0 F9000 X116.147 Y87.499
G1 F1500 X98.749 Y104.897 E899.32007
G0 F9000 X98.748 Y107.234
G1 F1500 X121.25 Y129.735 E903.55368
G0 F9000 X121.249 Y124.823
G1 F1500 X113.573 Y132.499 E904.9979
G0 F9000 X115.528 Y132.499
G1 F1500 X98.749 Y115.72 E908.15483
G0 F9000 X98.75 Y113.381
G1 F1500 X121.249 Y90.883 E912.38787
G1 F1500 E905.88787
G0 F9000 X121.915 Y90.883
G0 X121.915 Y104.279
G0 X121.249 Y104.279
G1 F1500 E912.38787
G1 X104.47 Y87.5 E915.5448
G0 F9000 X107.661 Y87.499
G1 F1500 X98.749 Y96.411 E917.22157
G0 F9000 X98.748 Y98.748
G1 F1500 X121.25 Y121.25 E921.45527
G1 F1500 E914.95527
G0 F9000 X121.915 Y121.25
G0 X121.915 Y107.853
G0 X121.249 Y107.853
G1 F1500 E921.45527
G1 X98.75 Y130.352 E925.68841
G1 F1500 E919.18841
G0 F300 X98.75 Y130.352 Z4.8
G0 F9000 X98.085 Y130.352
G0 X98.085 Y87.926
G0 X98.749 Y87.926
;TIME_ELAPSED:345.744447
;LAYER:14
;TYPE:SUPPORT-INTERFACE
G1 F1500 E925.68841
G1 X99.176 Y87.499 E925.76875
G0 F9000 X98.748 Y90.263
G1 F1500 X121.25 Y112.765 E930.00245
G0 F9000 X121.249 Y116.338
G1 F1500 X105.088 Y132.499 E933.0431
G0 F9000 X107.043 Y132.499
G1 F1500 X98.749 Y124.205 E934.6036
G0 F9000 X98.75 Y121.867
G1 F1500 X121.249 Y99.368 E938.83674
G0 F9000 X121.249 Y95.793
G1 F1500 X112.956 Y87.5 E940.39705
G0 F9000 X116.147 Y87.499
G1 F1500 X98.749 Y104.897 E943.67044
G0 F9000 X98.748 Y107.234
G1 F1500 X121.25 Y129.735 E947.90405
G0 F9000 X121.249 Y124.823
G1 F1500 X113.573 Y132.499 E949.34827
G0 F9000 X115.528 Y132.499
G1 F1500 X98.749 Y115.72 E952.5052
G0 F9000 X98.75 Y113.381
G1 F1500 X121.249 Y90.883 E956.73824
G1 F1500 E950.23824
G0 F9000 X121.915 Y90.883
G0 X121.915 Y104.279
G0 X121.249 Y104.279
G1 F1500 E956.73824
G1 X104.47 Y87.5 E959.89517
G0 F9000 X107.661 Y87.499
G1 F1500 X98.749 Y96.411 E961.57195
G0 F9000 X98.748 Y98.748
G1 F1500 X121.25 Y121.25 E965.80565
G1 F1500 E959.30565
G0 F9000 X121.915 Y121.25
G0 X121.915 Y107.853
G0 X121.249 Y107.853
G1 F1500 E965.80565
G1 X98.75 Y130.352 E970.03878
G1 F1500 E963.53878
G0 F300 X98.75 Y130.352 Z5.44
G0 F9000 X98.085 Y130.352
G0 X98.089 Y132.481
G0 X98.769 Y133.161
G0 X121.231 Y133.161
G0 X121.911 Y132.481
G0 X121.915 Y101.008
G0 X115.823 Y101.008
;TIME_ELAPSED:365.109622
;LAYER:16
;TYPE:WALL-INNER
;MESH:copripulsante feb.stl
G1 F1500 E970.03878
G1 X116.588 Y99.146 E970.3066
G1 X109.985 Y92.636 E971.54022
G1 X103.545 Y99.166 E972.76039
G1 X104.317 Y101.008 E973.0261
G1 X107.346 Y101.008 E973.42908
G1 X110.025 Y98.292 E973.93662
G1 X112.779 Y101.008 E974.45122
G1 X115.823 Y101.008 E974.85619
G0 F9000 X115.707 Y100.237
G0 X115.153 Y100.008
;TYPE:WALL-OUTER
G1 F1500 X115.408 Y99.387 E974.9455
G1 X109.995 Y94.05 E975.95682
G1 X104.725 Y99.394 E976.95535
G1 X104.982 Y100.008 E977.0439
G1 X106.928 Y100.008 E977.3028
G1 X110.015 Y96.878 E977.88767
G1 X113.189 Y100.008 E978.48072
G1 X115.153 Y100.008 E978.74202
G1 F1500 E972.24202
G0 F9000 X115.707 Y100.237
G0 X116.037 Y99.26
G0 X112.755 Y94.707
G0 X110.082 Y95.738
G0 X109.932 Y124.262
G0 X107.244 Y125.254
G0 X109.985 Y127.364
;TYPE:WALL-INNER
G1 F1500 E978.74202
G1 X116.588 Y120.854 E979.97564
G1 X115.823 Y118.992 E980.24345
G1 X112.779 Y118.992 E980.64843
G1 X110.025 Y121.708 E981.16302
G1 X107.346 Y118.992 E981.67056
G1 X104.317 Y118.992 E982.07354
G1 X103.545 Y120.834 E982.33926
G1 X109.985 Y127.364 E983.55942
G0 F9000 X110.416 Y126.377
G0 X109.995 Y125.95
;TYPE:WALL-OUTER
G1 F1500 X115.408 Y120.613 E984.57074
G1 X115.153 Y119.992 E984.66006
G1 X113.189 Y119.992 E984.92135
G1 X110.015 Y123.122 E985.5144
G1 X106.928 Y119.992 E986.09928
G1 X104.982 Y119.992 E986.35817
G1 X104.725 Y120.606 E986.44673
G1 X109.995 Y125.95 E987.44525
G1 F1500 E980.94525
G0 F9000 X110.416 Y126.377
G0 X113.464 Y124.622
G0 X119.24 Y124.622
G0 X119.75 Y131
;TYPE:WALL-INNER
G1 F1500 E987.44525
G1 X100.25 Y131 E990.03954
G1 X100.25 Y89 E995.62724
G1 X119.75 Y89 E998.22153
G1 X119.75 Y131 E1003.80924
G0 F9000 X120.18 Y131.43
G0 X120.75 Y132
;TYPE:WALL-OUTER
G1 F1500 X99.25 Y132 E1006.66961
G1 X99.25 Y88 E1012.52339
G1 X120.75 Y88 E1015.38376
G1 X120.75 Y132 E1021.23755
G0 F9000 X120.18 Y131.43
G0 X119.34 Y130.01
G0 X118.76 Y130.01
;TYPE:SKIN
G1 F1500 X101.24 Y130.01 E1023.56842
G1 X101.24 Y89.99 E1028.8927
G1 X118.76 Y89.99 E1031.22357
G1 X118.76 Y130.01 E1036.54785
G1 F1500 E1030.04785
G0 F9000 X119.34 Y130.01
G0 X110.002 Y130.49
G0 X109.98 Y128.065
G1 F1500 E1036.54785
G0 F9000 X109.975 Y128.764
G1 F1500 X117.756 Y121.092 E1038.00161
G1 X116.486 Y118.002 E1038.44608
G1 X112.373 Y118.002 E1038.99327
G1 X110.035 Y120.308 E1039.43016
G1 X107.76 Y118.002 E1039.86112
G1 X103.658 Y118.002 E1040.40686
G1 X102.377 Y121.06 E1040.84795
G1 X109.975 Y128.764 E1042.2875
G1 F1500 E1035.7875
G0 F9000 X110.002 Y127.965
G0 X107.244 Y125.254
G0 X109.932 Y124.262
G0 X110.082 Y95.738
G0 X112.755 Y94.707
G0 X116.037 Y99.26
G0 X116.11 Y101.418
G1 F1500 E1042.2875
G0 F9000 X116.486 Y101.998
G1 F1500 X117.756 Y98.908 E1042.73196
G1 X109.975 Y91.236 E1044.18572
G1 X102.377 Y98.94 E1045.62528
G1 X103.658 Y101.998 E1046.06637
G1 X107.76 Y101.998 E1046.6121
G1 X110.035 Y99.692 E1047.04306
G1 X112.373 Y101.998 E1047.47995
G1 X116.486 Y101.998 E1048.02715
G1 F1500 E1041.52715
G0 F9000 X116.11 Y101.418
G0 X116.037 Y99.26
G0 X115.155 Y98.41
G0 X114.513 Y96.384
G0 X119.24 Y96.384
G0 X119.34 Y91.489
G1 F1500 E1048.02715
G0 F9000 X118.359 Y91.489
G1 F1500 X117.26 Y90.39 E1048.23392
G0 F9000 X117.26 Y89.41
G0 X115.846 Y89.41
G0 X115.846 Y90.39
G1 F1500 X118.359 Y92.903 E1048.70674
G0 F9000 X119.34 Y92.903
G0 X119.34 Y94.318
G0 X118.359 Y94.318
G1 F1500 X114.431 Y90.39 E1049.44578
G0 F9000 X114.431 Y89.41
G0 X113.017 Y89.41
G0 X113.017 Y90.39
G1 F1500 X118.359 Y95.732 E1050.45087
G0 F9000 X119.34 Y95.732
G0 X119.34 Y97.146
G0 X118.359 Y97.146
G1 F1500 X111.603 Y90.39 E1051.72199
G0 F9000 X111.603 Y89.41
G0 X110.189 Y89.41
G0 X110.189 Y90.39
G1 F1500 X118.359 Y98.56 E1053.25916
G0 F9000 X119.34 Y98.56
G0 X119.24 Y99.17
G0 X117.171 Y99.026
G0 X117.927 Y99.542
G1 F1500 X118.359 Y99.974 E1053.34044
G0 F9000 X119.34 Y99.974
G0 X117.065 Y99.276
G0 X116.611 Y100.171
G0 X117.514 Y100.544
G1 F1500 X118.359 Y101.389 E1053.49942
G0 F9000 X119.34 Y101.389
G0 X116.713 Y100.133
G0 X116.199 Y101.173
G0 X117.102 Y101.546
G1 F1500 X118.359 Y102.803 E1053.73593
G0 F9000 X119.34 Y102.803
G0 X119.34 Y104.217
G0 X118.359 Y104.217
G1 F1500 X116.54 Y102.398 E1054.07817
G0 F9000 X116.11 Y101.435
G0 X115.126 Y101.418
G0 X115.126 Y102.398
G1 F1500 X118.359 Y105.631 E1054.68645
G0 F9000 X119.34 Y105.631
G0 X119.34 Y107.046
G0 X118.359 Y107.046
G1 F1500 X113.711 Y102.398 E1055.56096
G0 F9000 X113.711 Y101.418
G0 X112.607 Y101.426
G0 X112.297 Y102.398
G1 F1500 X118.359 Y108.46 E1056.70151
G0 F9000 X119.34 Y108.46
G0 X119.34 Y109.874
G0 X118.359 Y109.874
G1 F1500 X109.395 Y100.909 E1058.38816
G0 F9000 X108.698 Y100.221
G0 X107.996 Y100.933
G0 X108.692 Y101.621
G1 F1500 X118.36 Y111.289 E1060.20717
G0 F9000 X119.34 Y111.289
G0 X119.34 Y112.703
G0 X118.36 Y112.703
G1 F1500 X107.99 Y102.333 E1062.15826
G0 F9000 X107.521 Y101.426
G0 X106.64 Y101.418
G0 X106.64 Y102.397
G1 F1500 X118.36 Y114.117 E1064.36336
G0 F9000 X119.34 Y114.117
G0 X119.34 Y115.532
G0 X118.36 Y115.532
G1 F1500 X105.225 Y102.397 E1066.83468
G0 F9000 X105.225 Y101.418
G0 X104.033 Y101.435
G0 X103.811 Y102.397
G1 F1500 X118.36 Y116.946 E1069.57204
G0 F9000 X119.34 Y116.946
G0 X119.34 Y118.36
G0 X118.36 Y118.36
G1 F1500 X101.638 Y101.638 E1072.71824
G0 F9000 X100.66 Y101.638
G0 X100.66 Y100.224
G0 X101.638 Y100.224
G1 F1500 X103.086 Y101.672 E1072.99068
G1 F1500 E1066.49068
G0 F9000 X103.992 Y101.294
G0 X100.76 Y101.502
G0 X100.66 Y103.053
G1 F1500 E1072.99068
G0 F9000 X101.638 Y103.053
G1 F1500 X116.186 Y117.601 E1075.72786
G0 F9000 X116.11 Y118.565
G0 X116.243 Y118.935
G0 X117.149 Y118.563
G1 F1500 X118.36 Y119.774 E1075.9557
G1 F1500 E1069.4557
G0 F9000 X119.34 Y119.774
G0 X119.24 Y121.127
G0 X117.171 Y120.974
G0 X116.895 Y121.127
G1 F1500 E1075.9557
G0 F9000 X117.581 Y121.824
G1 F1500 X118.36 Y122.603 E1076.10227
G0 F9000 X119.34 Y122.603
G0 X119.34 Y124.017
G0 X118.36 Y124.017
G1 F1500 X116.869 Y122.526 E1076.3828
G0 F9000 X116.157 Y123.228
G1 F1500 X118.36 Y125.431 E1076.79729
G0 F9000 X119.34 Y125.431
G0 X119.34 Y126.845
G0 X118.36 Y126.845
G1 F1500 X115.445 Y123.931 E1077.34564
G0 F9000 X114.733 Y124.633
G1 F1500 X118.36 Y128.259 E1078.02796
G0 F9000 X119.34 Y128.259
G0 X119.268 Y130.518
G0 X118.295 Y130.59
G0 X118.295 Y129.609
G1 F1500 X114.021 Y125.335 E1078.8321
G0 F9000 X113.309 Y126.037
G1 F1500 X116.881 Y129.609 E1079.50417
G0 F9000 X116.881 Y130.59
G0 X115.467 Y130.59
G0 X115.467 Y129.609
G1 F1500 X112.597 Y126.739 E1080.04415
G0 F9000 X111.885 Y127.441
G1 F1500 X114.052 Y129.609 E1080.45196
G0 F9000 X114.052 Y130.59
G0 X112.638 Y130.59
G0 X112.638 Y129.609
G1 F1500 X111.173 Y128.144 E1080.7276
G0 F9000 X110.461 Y128.846
G1 F1500 X111.224 Y129.609 E1080.87116
G0 F9000 X111.224 Y130.59
G0 X109.81 Y130.59
G0 X109.81 Y129.609
G1 F1500 X101.639 Y121.438 E1082.40851
G0 F9000 X100.66 Y121.438
G0 X100.76 Y120.923
G0 X102.962 Y120.947
G0 X102.159 Y120.544
G1 F1500 X101.639 Y120.024 E1082.50635
G0 F9000 X100.66 Y120.024
G0 X102.999 Y120.866
G0 X103.48 Y119.926
G0 X102.576 Y119.547
G1 F1500 X101.639 Y118.61 E1082.68264
G0 F9000 X100.66 Y118.61
G0 X100.76 Y118.929
G0 X103.355 Y120.018
G0 X103.898 Y118.929
G0 X102.994 Y118.55
G1 F1500 X101.639 Y117.195 E1082.93758
G0 F9000 X100.66 Y117.195
G0 X100.66 Y115.781
G0 X101.639 Y115.781
G1 F1500 X103.458 Y117.601 E1083.27992
G0 F9000 X104.033 Y118.565
G0 X104.873 Y118.582
G0 X104.873 Y117.601
G1 F1500 X101.639 Y114.367 E1083.88839
G0 F9000 X100.66 Y114.367
G0 X100.66 Y112.953
G0 X101.639 Y112.953
G1 F1500 X106.287 Y117.601 E1084.7629
G0 F9000 X106.287 Y118.582
G0 X107.521 Y118.574
G0 X107.701 Y117.601
G1 F1500 X101.639 Y111.539 E1085.90345
G0 F9000 X100.66 Y111.539
G0 X100.66 Y110.124
G0 X101.639 Y110.124
G1 F1500 X110.65 Y119.136 E1087.59894
G0 F9000 X111.362 Y118.434
G1 F1500 X101.638 Y108.709 E1089.42859
G0 F9000 X100.66 Y108.709
G0 X100.66 Y107.295
G0 X101.638 Y107.295
G1 F1500 X112.075 Y117.731 E1091.39219
G0 F9000 X112.607 Y118.574
G0 X113.358 Y118.582
G0 X113.358 Y117.601
G1 F1500 X101.638 Y105.881 E1093.59728
G0 F9000 X100.66 Y105.881
G0 X100.66 Y104.467
G0 X101.638 Y104.467
G1 F1500 X114.772 Y117.601 E1096.06841
G1 F1500 E1089.56841
G0 F9000 X114.772 Y118.582
G0 X115.51 Y119.459
G0 X116.037 Y120.74
G0 X109.98 Y128.065
G0 X109.98 Y130.49
G0 X108.395 Y130.59
G1 F1500 E1096.06841
G0 F9000 X108.395 Y129.609
G1 F1500 X101.639 Y122.852 E1097.33963
G0 F9000 X100.66 Y122.852
G0 X100.66 Y124.266
G0 X101.639 Y124.266
G1 F1500 X106.981 Y129.609 E1098.34481
G0 F9000 X106.981 Y130.59
G0 X105.567 Y130.59
G0 X105.567 Y129.609
G1 F1500 X101.639 Y125.681 E1099.08386
G0 F9000 X100.66 Y125.681
G0 X100.66 Y127.095
G0 X101.639 Y127.095
G1 F1500 X104.153 Y129.609 E1099.55686
G0 F9000 X104.153 Y130.59
G0 X102.739 Y130.59
G0 X102.739 Y129.609
G1 F1500 X101.639 Y128.509 E1099.76382
G1 F1500 E1093.26382
G0 F9000 X100.66 Y128.509
G0 X100.76 Y99.081
G0 X102.962 Y99.053
G1 F1500 E1099.76382
G0 F9000 X102.067 Y99.238
G1 F1500 X101.638 Y98.81 E1099.84444
G0 F9000 X100.66 Y98.81
G0 X102.962 Y99.053
G0 X103.192 Y98.94
G0 X102.494 Y98.251
G1 F1500 X101.638 Y97.396 E1100.0054
G0 F9000 X100.66 Y97.396
G0 X100.66 Y95.981
G0 X101.638 Y95.981
G1 F1500 X103.196 Y97.539 E1100.29854
G0 F9000 X103.898 Y96.827
G1 F1500 X101.638 Y94.567 E1100.72375
G0 F9000 X100.66 Y94.567
G0 X100.66 Y93.153
G0 X101.638 Y93.153
G1 F1500 X104.6 Y96.115 E1101.28105
G0 F9000 X105.298 Y96.804
G0 X106.001 Y96.092
G0 X105.303 Y95.403
G1 F1500 X101.638 Y91.739 E1101.97051
G0 F9000 X100.66 Y91.739
G0 X100.732 Y89.482
G0 X101.703 Y89.41
G0 X101.703 Y90.39
G1 F1500 X106.005 Y94.691 E1102.77983
G0 F9000 X106.707 Y93.979
G1 F1500 X103.118 Y90.39 E1103.45509
G0 F9000 X103.118 Y89.41
G0 X104.532 Y89.41
G0 X104.532 Y90.39
G1 F1500 X107.409 Y93.267 E1103.99639
G0 F9000 X108.111 Y92.555
G1 F1500 X105.946 Y90.39 E1104.40373
G0 F9000 X105.946 Y89.41
G0 X107.36 Y89.41
G0 X107.36 Y90.39
G1 F1500 X108.813 Y91.843 E1104.67711
G0 F9000 X109.515 Y91.131
G1 F1500 X108.774 Y90.39 E1104.81653
G0 F9000 X108.774 Y89.5
G1 F1500 E1098.31653
;MESH:NONMESH
G0 F300 X108.774 Y89.5 Z5.76
G0 F9000 X108.774 Y89.41
G0 X115.823 Y89.51
G0 X115.823 Y86.835
G0 X110.006 Y95.681
G0 X111.725 Y93.664
G0 X116.037 Y99.26
G0 X115.823 Y101.008
;TIME_ELAPSED:434.209745
;LAYER:17
;TYPE:WALL-INNER
;MESH:copripulsante feb.stl
G1 F1500 E1104.81653
G1 X116.588 Y99.146 E1105.08434
G1 X109.985 Y92.636 E1106.31797
G1 X103.545 Y99.166 E1107.53813
G1 X104.317 Y101.008 E1107.80385
G1 X107.346 Y101.008 E1108.20683
G1 X110.025 Y98.292 E1108.71437
G1 X112.779 Y101.008 E1109.22896
G1 X115.823 Y101.008 E1109.63394
G0 F9000 X115.707 Y100.237
G0 X115.153 Y100.008
;TYPE:WALL-OUTER
G1 F1500 X115.408 Y99.387 E1109.72325
G1 X109.995 Y94.05 E1110.73457
G1 X104.725 Y99.394 E1111.73309
G1 X104.982 Y100.008 E1111.82165
G1 X106.928 Y100.008 E1112.08055
G1 X110.015 Y96.878 E1112.66542
G1 X113.189 Y100.008 E1113.25847
G1 X115.153 Y100.008 E1113.51976
G1 F1500 E1107.01976
G0 F9000 X115.707 Y100.237
G0 X116.037 Y99.26
G0 X112.755 Y94.707
G0 X110.082 Y95.738
G0 X109.932 Y124.262
G0 X107.244 Y125.254
G0 X109.985 Y127.364
;TYPE:WALL-INNER
G1 F1500 E1113.51976
G1 X116.588 Y120.854 E1114.75339
G1 X115.823 Y118.992 E1115.0212
G1 X112.779 Y118.992 E1115.42618
G1 X110.025 Y121.708 E1115.94077
G1 X107.346 Y118.992 E1116.44831
G1 X104.317 Y118.992 E1116.85129
G1 X103.545 Y120.834 E1117.11701
G1 X109.985 Y127.364 E1118.33717
G0 F9000 X110.416 Y126.377
G0 X109.995 Y125.95
;TYPE:WALL-OUTER
G1 F1500 X115.408 Y120.613 E1119.34849
G1 X115.153 Y119.992 E1119.4378
G1 X113.189 Y119.992 E1119.6991
G1 X110.015 Y123.122 E1120.29215
G1 X106.928 Y119.992 E1120.87702
G1 X104.982 Y119.992 E1121.13592
G1 X104.725 Y120.606 E1121.22447
G1 X109.995 Y125.95 E1122.223
G1 F1500 E1115.723
G0 F9000 X110.416 Y126.377
G0 X113.464 Y124.622
G0 X119.24 Y124.622
G0 X119.75 Y131
;TYPE:WALL-INNER
G1 F1500 E1122.223
G1 X100.25 Y131 E1124.81729
G1 X100.25 Y89 E1130.40499
G1 X119.75 Y89 E1132.99928
G1 X119.75 Y131 E1138.58699
G0 F9000 X120.18 Y131.43
G0 X120.75 Y132
;TYPE:WALL-OUTER
G1 F1500 X99.25 Y132 E1141.44736
G1 X99.25 Y88 E1147.30114
G1 X120.75 Y88 E1150.16151
G1 X120.75 Y132 E1156.0153
G0 F9000 X120.18 Y131.43
G0 X119.34 Y130.01
G0 X118.76 Y130.01
;TYPE:SKIN
G1 F1500 X101.24 Y130.01 E1158.34617
G1 X101.24 Y89.99 E1163.67045
G1 X118.76 Y89.99 E1166.00132
G1 X118.76 Y130.01 E1171.3256
G1 F1500 E1164.8256
G0 F9000 X119.34 Y130.01
G0 X110.002 Y130.49
G0 X109.98 Y128.065
G1 F1500 E1171.3256
G0 F9000 X109.975 Y128.764
G1 F1500 X117.756 Y121.092 E1172.77936
G1 X116.486 Y118.002 E1173.22382
G1 X112.373 Y118.002 E1173.77102
G1 X110.035 Y120.308 E1174.20791
G1 X107.76 Y118.002 E1174.63887
G1 X103.658 Y118.002 E1175.1846
G1 X102.377 Y121.06 E1175.6257
G1 X109.975 Y128.764 E1177.06525
G1 F1500 E1170.56525
G0 F9000 X110.002 Y127.965
G0 X107.244 Y125.254
G0 X109.932 Y124.262
G0 X110.082 Y95.738
G0 X112.755 Y94.707
G0 X116.037 Y99.26
G0 X116.11 Y101.418
G1 F1500 E1177.06525
G0 F9000 X116.486 Y101.998
G1 F1500 X117.756 Y98.908 E1177.50971
G1 X109.975 Y91.236 E1178.96347
G1 X102.377 Y98.94 E1180.40302
G1 X103.658 Y101.998 E1180.84412
G1 X107.76 Y101.998 E1181.38985
G1 X110.035 Y99.692 E1181.82081
G1 X112.373 Y101.998 E1182.2577
G1 X116.486 Y101.998 E1182.80489
G1 F1500 E1176.30489
G0 F9000 X116.11 Y101.418
G0 X116.037 Y99.26
G0 X109.99 Y93.303
G0 X107.282 Y94.679
G0 X107.282 Y89.51
G0 X101.942 Y89.41
G1 F1500 E1182.80489
G0 F9000 X101.942 Y90.39
G1 F1500 X101.639 Y90.693 E1182.8619
G0 F9000 X100.66 Y90.693
G0 X100.66 Y92.107
G0 X101.639 Y92.107
G1 F1500 X103.357 Y90.39 E1183.18505
G0 F9000 X103.357 Y89.41
G0 X104.771 Y89.41
G0 X104.771 Y90.39
G1 F1500 X101.639 Y93.521 E1183.77423
G0 F9000 X100.66 Y93.521
G0 X100.66 Y94.936
G0 X101.639 Y94.936
G1 F1500 X106.185 Y90.39 E1184.62955
G0 F9000 X106.185 Y89.41
G0 X107.599 Y89.41
G0 X107.599 Y90.39
G1 F1500 X101.639 Y96.35 E1185.75091
G0 F9000 X100.66 Y96.35
G0 X100.66 Y97.764
G0 X101.639 Y97.764
G1 F1500 X109.013 Y90.39 E1187.13831
G0 F9000 X109.013 Y89.41
G0 X110.001 Y89.51
G0 X109.98 Y91.935
G0 X110.059 Y90.759
G1 F1500 X110.428 Y90.39 E1187.20774
G0 F9000 X110.428 Y89.41
G0 X110.083 Y89.51
G0 X109.98 Y91.935
G0 X110.771 Y91.461
G1 F1500 X111.842 Y90.39 E1187.40925
G0 F9000 X111.842 Y89.41
G0 X113.256 Y89.41
G0 X113.256 Y90.39
G1 F1500 X111.483 Y92.162 E1187.74274
G0 F9000 X110.795 Y92.859
G0 X111.508 Y93.561
G0 X112.195 Y92.865
G1 F1500 X114.67 Y90.39 E1188.2084
G0 F9000 X114.67 Y89.41
G0 X116.085 Y89.41
G0 X116.085 Y90.39
G1 F1500 X112.907 Y93.567 E1188.80624
G0 F9000 X112.22 Y94.263
G0 X112.932 Y94.966
G0 X113.62 Y94.269
G1 F1500 X117.499 Y90.39 E1189.53607
G0 F9000 X117.499 Y89.41
G0 X119.268 Y89.482
G0 X119.34 Y90.944
G0 X118.359 Y90.944
G1 F1500 X114.332 Y94.971 E1190.29374
G0 F9000 X115.044 Y95.673
G1 F1500 X118.359 Y92.358 E1190.91745
G0 F9000 X119.34 Y92.358
G0 X119.34 Y93.772
G0 X118.359 Y93.772
G1 F1500 X115.756 Y96.375 E1191.4072
G0 F9000 X116.468 Y97.077
G1 F1500 X118.359 Y95.187 E1191.76289
G0 F9000 X119.34 Y95.187
G0 X119.34 Y96.601
G0 X118.359 Y96.601
G1 F1500 X117.18 Y97.78 E1191.98472
G0 F9000 X117.892 Y98.482
G1 F1500 X118.359 Y98.015 E1192.07258
G0 F9000 X119.34 Y98.015
G0 X119.34 Y99.429
G0 X118.359 Y99.429
G1 F1500 X117.704 Y100.083 E1192.19572
G0 F9000 X116.8 Y99.71
G0 X119.24 Y99.817
G0 X119.34 Y100.844
G0 X118.359 Y100.844
G1 F1500 X101.64 Y117.562 E1195.34127
G0 F9000 X100.66 Y117.562
G0 X100.66 Y116.148
G0 X101.64 Y116.148
G1 F1500 X115.391 Y102.397 E1197.92849
G0 F9000 X115.391 Y101.418
G0 X113.977 Y101.418
G0 X113.977 Y102.397
G1 F1500 X101.64 Y114.734 E1200.24967
G0 F9000 X100.66 Y114.734
G0 X100.66 Y113.32
G0 X101.64 Y113.32
G1 F1500 X112.562 Y102.397 E1202.30471
G0 F9000 X112.607 Y101.426
G0 X112.363 Y101.174
G0 X111.674 Y101.871
G1 F1500 X101.64 Y111.906 E1204.19268
G0 F9000 X100.66 Y111.906
G0 X100.66 Y110.491
G0 X101.64 Y110.491
G1 F1500 X110.962 Y101.169 E1205.9466
G0 F9000 X110.251 Y100.466
G1 F1500 X101.639 Y109.078 E1207.56692
G0 F9000 X100.66 Y109.078
G0 X100.66 Y107.664
G0 X101.639 Y107.664
G1 F1500 X106.906 Y102.397 E1208.5579
G0 F9000 X106.906 Y101.418
G0 X105.491 Y101.418
G0 X105.491 Y102.397
G1 F1500 X101.639 Y106.249 E1209.28264
G0 F9000 X100.66 Y106.249
G0 X100.66 Y104.835
G0 X101.639 Y104.835
G1 F1500 X104.077 Y102.397 E1209.74135
G0 F9000 X104.077 Y101.418
G0 X103.175 Y101.885
G1 F1500 X101.639 Y103.421 E1210.03034
G0 F9000 X100.66 Y103.421
G0 X100.66 Y102.007
G0 X101.639 Y102.007
G1 F1500 X102.758 Y100.888 E1210.24088
G0 F9000 X103.663 Y100.51
G0 X103.246 Y99.514
G0 X102.34 Y99.892
G1 F1500 X101.639 Y100.593 E1210.37277
G0 F9000 X100.66 Y100.593
G0 X100.66 Y99.178
G0 X101.639 Y99.178
G1 F1500 X101.923 Y98.895 E1210.42611
G1 F1500 E1203.92611
G0 F9000 X103.053 Y99.081
G0 X104.627 Y100.541
G0 X107.152 Y100.544
G0 X110.03 Y98.973
G0 X111.011 Y99.945
G0 X116.154 Y101.502
G0 X119.24 Y101.502
G0 X119.34 Y102.258
G1 F1500 E1210.42611
G0 F9000 X118.359 Y102.258
G1 F1500 X101.64 Y118.977 E1213.57175
G0 F9000 X100.66 Y118.977
G0 X100.76 Y119.768
G0 X103.038 Y120.724
G0 X103.546 Y119.768
G0 X102.642 Y119.389
G1 F1500 X101.64 Y120.391 E1213.76028
G0 F9000 X100.66 Y120.391
G0 X100.76 Y120.92
G0 X102.962 Y120.947
G0 X102.099 Y121.346
G1 F1500 X101.64 Y121.805 E1213.84664
G0 F9000 X100.66 Y121.805
G0 X100.76 Y121.371
G0 X102.962 Y120.947
G0 X103.499 Y121.371
G0 X102.801 Y122.058
G1 F1500 X101.64 Y123.219 E1214.06508
G0 F9000 X100.66 Y123.219
G0 X100.66 Y124.633
G0 X101.64 Y124.633
G1 F1500 X103.503 Y122.77 E1214.4156
G0 F9000 X104.205 Y123.482
G1 F1500 X101.64 Y126.048 E1214.89829
G0 F9000 X100.66 Y126.048
G0 X100.66 Y127.462
G0 X101.64 Y127.462
G1 F1500 X104.907 Y124.194 E1215.51306
G0 F9000 X105.609 Y124.906
G1 F1500 X101.64 Y128.876 E1216.25991
G0 F9000 X100.66 Y128.876
G0 X100.732 Y130.518
G0 X102.321 Y130.59
G0 X102.321 Y129.609
G1 F1500 X106.312 Y125.618 E1217.01081
G0 F9000 X107.014 Y126.33
G1 F1500 X103.736 Y129.609 E1217.62765
G0 F9000 X103.736 Y130.59
G0 X105.15 Y130.59
G0 X105.15 Y129.609
G1 F1500 X107.716 Y127.043 E1218.11044
G0 F9000 X108.418 Y127.755
G1 F1500 X106.564 Y129.609 E1218.45927
G0 F9000 X106.564 Y130.59
G0 X107.978 Y130.59
G0 X107.978 Y129.609
G1 F1500 X109.12 Y128.467 E1218.67413
G0 F9000 X109.822 Y129.179
G1 F1500 X109.392 Y129.609 E1218.75504
G0 F9000 X109.392 Y130.59
G0 X110.807 Y130.59
G0 X110.807 Y129.609
G1 F1500 X118.359 Y122.056 E1220.17602
G0 F9000 X119.34 Y122.056
G0 X119.24 Y120.945
G0 X117.171 Y120.974
G0 X118.108 Y120.894
G1 F1500 X118.359 Y120.642 E1220.22334
G0 F9000 X119.34 Y120.642
G0 X119.24 Y120.264
G0 X117.171 Y120.974
G0 X116.789 Y120.264
G0 X117.695 Y119.892
G1 F1500 X118.359 Y119.228 E1220.34827
G0 F9000 X119.34 Y119.228
G0 X116.882 Y120.229
G0 X116.377 Y119.261
G0 X117.284 Y118.889
G1 F1500 X118.359 Y117.813 E1220.55062
G0 F9000 X119.34 Y117.813
G0 X119.34 Y116.399
G0 X118.359 Y116.399
G1 F1500 X116.872 Y117.887 E1220.83049
G0 F9000 X116.11 Y118.565
G0 X115.744 Y118.582
G0 X115.744 Y117.601
G1 F1500 X118.359 Y114.985 E1221.32259
G0 F9000 X119.34 Y114.985
G0 X119.34 Y113.571
G0 X118.359 Y113.571
G1 F1500 X114.329 Y117.601 E1222.08083
G0 F9000 X114.329 Y118.582
G0 X112.915 Y118.582
G0 X112.915 Y117.601
G1 F1500 X118.359 Y112.157 E1223.10511
G0 F9000 X119.34 Y112.157
G0 X119.34 Y110.742
G0 X118.359 Y110.742
G1 F1500 X109.702 Y119.399 E1224.7339
G0 F9000 X109 Y118.687
G1 F1500 X118.359 Y109.329 E1226.49468
G0 F9000 X119.34 Y109.329
G0 X119.34 Y107.915
G0 X118.359 Y107.915
G1 F1500 X108.298 Y117.975 E1228.38754
G0 F9000 X107.598 Y118.664
G0 X107.258 Y118.582
G0 X107.258 Y117.601
G1 F1500 X118.359 Y106.5 E1230.47617
G0 F9000 X119.34 Y106.5
G0 X119.34 Y105.086
G0 X118.359 Y105.086
G1 F1500 X105.844 Y117.601 E1232.83084
G0 F9000 X105.844 Y118.582
G0 X104.43 Y118.582
G0 X104.43 Y117.601
G1 F1500 X118.359 Y103.672 E1235.45155
G0 F9000 X119.34 Y103.672
G0 X119.34 Y123.47
G0 X118.359 Y123.47
G1 F1500 X112.221 Y129.609 E1236.60649
G0 F9000 X112.221 Y130.59
G0 X113.635 Y130.59
G0 X113.635 Y129.609
G1 F1500 X118.359 Y124.884 E1237.4954
G0 F9000 X119.34 Y124.884
G0 X119.34 Y126.299
G0 X118.359 Y126.299
G1 F1500 X115.049 Y129.609 E1238.11817
G0 F9000 X115.049 Y130.59
G0 X116.464 Y130.59
G0 X116.464 Y129.609
G1 F1500 X118.359 Y127.713 E1238.4748
G0 F9000 X119.34 Y127.713
G0 X119.34 Y129.127
G0 X118.359 Y129.127
G1 F1500 X117.878 Y129.609 E1238.56539
G0 F9000 X117.878 Y130.5
G1 F1500 E1232.06539
;MESH:NONMESH
G0 F300 X117.878 Y130.5 Z6.08
G0 F9000 X117.878 Y130.59
G0 X115.823 Y130.49
G0 X115.823 Y133.165
G0 X110.082 Y95.738
G0 X112.755 Y94.707
G0 X116.037 Y99.26
G0 X115.823 Y101.008
;TIME_ELAPSED:501.909242
;LAYER:18
;TYPE:WALL-INNER
;MESH:copripulsante feb.stl
G1 F1500 E1238.56539
G1 X116.588 Y99.146 E1238.83321
G1 X109.985 Y92.636 E1240.06683
G1 X103.545 Y99.166 E1241.287
G1 X104.317 Y101.008 E1241.55271
G1 X107.346 Y101.008 E1241.95569
G1 X110.025 Y98.292 E1242.46323
G1 X112.779 Y101.008 E1242.97783
G1 X115.823 Y101.008 E1243.3828
G0 F9000 X115.707 Y100.237
G0 X115.153 Y100.008
;TYPE:WALL-OUTER
G1 F1500 X115.408 Y99.387 E1243.47211
G1 X109.995 Y94.05 E1244.48343
G1 X104.725 Y99.394 E1245.48196
G1 X104.982 Y100.008 E1245.57051
G1 X106.928 Y100.008 E1245.82941
G1 X110.015 Y96.878 E1246.41428
G1 X113.189 Y100.008 E1247.00734
G1 X115.153 Y100.008 E1247.26863
G1 F1500 E1240.76863
G0 F9000 X115.707 Y100.237
G0 X116.037 Y99.26
G0 X112.755 Y94.707
G0 X110.082 Y95.738
G0 X109.932 Y124.262
G0 X107.244 Y125.254
G0 X109.985 Y127.364
;TYPE:WALL-INNER
G1 F1500 E1247.26863
G1 X116.588 Y120.854 E1248.50225
G1 X115.823 Y118.992 E1248.77006
G1 X112.779 Y118.992 E1249.17504
G1 X110.025 Y121.708 E1249.68963
G1 X107.346 Y118.992 E1250.19718
G1 X104.317 Y118.992 E1250.60016
G1 X103.545 Y120.834 E1250.86587
G1 X109.985 Y127.364 E1252.08604
G0 F9000 X110.416 Y126.377
G0 X109.995 Y125.95
;TYPE:WALL-OUTER
G1 F1500 X115.408 Y120.613 E1253.09736
G1 X115.153 Y119.992 E1253.18667
G1 X113.189 Y119.992 E1253.44796
G1 X110.015 Y123.122 E1254.04102
G1 X106.928 Y119.992 E1254.62589
G1 X104.982 Y119.992 E1254.88478
G1 X104.725 Y120.606 E1254.97334
G1 X109.995 Y125.95 E1255.97186
G1 F1500 E1249.47186
G0 F9000 X110.416 Y126.377
G0 X113.464 Y124.622
G0 X119.24 Y124.622
G0 X119.75 Y131
;TYPE:WALL-INNER
G1 F1500 E1255.97186
G1 X100.25 Y131 E1258.56615
G1 X100.25 Y89 E1264.15385
G1 X119.75 Y89 E1266.74815
G1 X119.75 Y131 E1272.33585
G0 F9000 X120.18 Y131.43
G0 X120.75 Y132
;TYPE:WALL-OUTER
G1 F1500 X99.25 Y132 E1275.19622
G1 X99.25 Y88 E1281.05
G1 X120.75 Y88 E1283.91037
G1 X120.75 Y132 E1289.76416
G0 F9000 X120.18 Y131.43
G0 X119.34 Y130.01
G0 X118.76 Y130.01
;TYPE:SKIN
G1 F1500 X101.24 Y130.01 E1292.09503
G1 X101.24 Y89.99 E1297.41931
G1 X118.76 Y89.99 E1299.75018
G1 X118.76 Y130.01 E1305.07446
G1 F1500 E1298.57446
G0 F9000 X119.34 Y130.01
G0 X110.002 Y130.49
G0 X109.98 Y128.065
G1 F1500 E1305.07446
G0 F9000 X109.975 Y128.764
G1 F1500 X117.756 Y121.092 E1306.52822
G1 X116.486 Y118.002 E1306.97269
G1 X112.373 Y118.002 E1307.51988
G1 X110.035 Y120.308 E1307.95677
G1 X107.76 Y118.002 E1308.38773
G1 X103.658 Y118.002 E1308.93347
G1 X102.377 Y121.06 E1309.37456
G1 X109.975 Y128.764 E1310.81411
G1 F1500 E1304.31411
G0 F9000 X110.002 Y127.965
G0 X107.244 Y125.254
G0 X109.932 Y124.262
G0 X110.082 Y95.738
G0 X112.755 Y94.707
G0 X116.037 Y99.26
G0 X116.11 Y101.418
G1 F1500 E1310.81411
G0 F9000 X116.486 Y101.998
G1 F1500 X117.756 Y98.908 E1311.25857
G1 X109.975 Y91.236 E1312.71233
G1 X102.377 Y98.94 E1314.15189
G1 X103.658 Y101.998 E1314.59298
G1 X107.76 Y101.998 E1315.13871
G1 X110.035 Y99.692 E1315.56967
G1 X112.373 Y101.998 E1316.00656
G1 X116.486 Y101.998 E1316.55376
G1 F1500 E1310.05376
G0 F9000 X116.11 Y101.418
G0 X116.037 Y99.26
G0 X115.155 Y98.41
G0 X114.513 Y96.384
G0 X119.24 Y96.384
G0 X119.34 Y91.489
G1 F1500 E1316.55376
G0 F9000 X118.359 Y91.489
G1 F1500 X117.26 Y90.39 E1316.76053
G0 F9000 X117.26 Y89.41
G0 X115.846 Y89.41
G0 X115.846 Y90.39
G1 F1500 X118.359 Y92.903 E1317.23335
G0 F9000 X119.34 Y92.903
G0 X119.34 Y94.318
G0 X118.359 Y94.318
G1 F1500 X114.431 Y90.39 E1317.97239
G0 F9000 X114.431 Y89.41
G0 X113.017 Y89.41
G0 X113.017 Y90.39
G1 F1500 X118.359 Y95.732 E1318.97748
G0 F9000 X119.34 Y95.732
G0 X119.34 Y97.146
G0 X118.359 Y97.146
G1 F1500 X111.603 Y90.39 E1320.2486
G0 F9000 X111.603 Y89.41
G0 X110.189 Y89.41
G0 X110.189 Y90.39
G1 F1500 X118.359 Y98.56 E1321.78577
G0 F9000 X119.34 Y98.56
G0 X119.24 Y99.17
G0 X117.171 Y99.026
G0 X117.927 Y99.542
G1 F1500 X118.359 Y99.974 E1321.86705
G0 F9000 X119.34 Y99.974
G0 X117.065 Y99.276
G0 X116.611 Y100.171
G0 X117.514 Y100.544
G1 F1500 X118.359 Y101.389 E1322.02603
G0 F9000 X119.34 Y101.389
G0 X116.713 Y100.133
G0 X116.199 Y101.173
G0 X117.102 Y101.546
G1 F1500 X118.359 Y102.803 E1322.26254
G0 F9000 X119.34 Y102.803
G0 X119.34 Y104.217
G0 X118.359 Y104.217
G1 F1500 X116.54 Y102.398 E1322.60478
G0 F9000 X116.11 Y101.435
G0 X115.126 Y101.418
G0 X115.126 Y102.398
G1 F1500 X118.359 Y105.631 E1323.21306
G0 F9000 X119.34 Y105.631
G0 X119.34 Y107.046
G0 X118.359 Y107.046
G1 F1500 X113.711 Y102.398 E1324.08757
G0 F9000 X113.711 Y101.418
G0 X112.607 Y101.426
G0 X112.297 Y102.398
G1 F1500 X118.359 Y108.46 E1325.22812
G0 F9000 X119.34 Y108.46
G0 X119.34 Y109.874
G0 X118.359 Y109.874
G1 F1500 X109.395 Y100.909 E1326.91477
G0 F9000 X108.698 Y100.221
G0 X107.996 Y100.933
G0 X108.692 Y101.621
G1 F1500 X118.36 Y111.289 E1328.73378
G0 F9000 X119.34 Y111.289
G0 X119.34 Y112.703
G0 X118.36 Y112.703
G1 F1500 X107.99 Y102.333 E1330.68488
G0 F9000 X107.521 Y101.426
G0 X106.64 Y101.418
G0 X106.64 Y102.397
G1 F1500 X118.36 Y114.117 E1332.88997
G0 F9000 X119.34 Y114.117
G0 X119.34 Y115.532
G0 X118.36 Y115.532
G1 F1500 X105.225 Y102.397 E1335.36129
G0 F9000 X105.225 Y101.418
G0 X104.033 Y101.435
G0 X103.811 Y102.397
G1 F1500 X118.36 Y116.946 E1338.09865
G0 F9000 X119.34 Y116.946
G0 X119.34 Y118.36
G0 X118.36 Y118.36
G1 F1500 X101.638 Y101.638 E1341.24486
G0 F9000 X100.66 Y101.638
G0 X100.66 Y100.224
G0 X101.638 Y100.224
G1 F1500 X103.086 Y101.672 E1341.51729
G1 F1500 E1335.01729
G0 F9000 X103.992 Y101.294
G0 X100.76 Y101.502
G0 X100.66 Y103.053
G1 F1500 E1341.51729
G0 F9000 X101.638 Y103.053
G1 F1500 X116.186 Y117.601 E1344.25447
G0 F9000 X116.11 Y118.565
G0 X116.243 Y118.935
G0 X117.149 Y118.563
G1 F1500 X118.36 Y119.774 E1344.48231
G1 F1500 E1337.98231
G0 F9000 X119.34 Y119.774
G0 X119.24 Y121.127
G0 X117.171 Y120.974
G0 X116.895 Y121.127
G1 F1500 E1344.48231
G0 F9000 X117.581 Y121.824
G1 F1500 X118.36 Y122.603 E1344.62888
G0 F9000 X119.34 Y122.603
G0 X119.34 Y124.017
G0 X118.36 Y124.017
G1 F1500 X116.869 Y122.526 E1344.90941
G0 F9000 X116.157 Y123.228
G1 F1500 X118.36 Y125.431 E1345.3239
G0 F9000 X119.34 Y125.431
G0 X119.34 Y126.845
G0 X118.36 Y126.845
G1 F1500 X115.445 Y123.931 E1345.87225
G0 F9000 X114.733 Y124.633
G1 F1500 X118.36 Y128.259 E1346.55457
G0 F9000 X119.34 Y128.259
G0 X119.268 Y130.518
G0 X118.295 Y130.59
G0 X118.295 Y129.609
G1 F1500 X114.021 Y125.335 E1347.35872
G0 F9000 X113.309 Y126.037
G1 F1500 X116.881 Y129.609 E1348.03078
G0 F9000 X116.881 Y130.59
G0 X115.467 Y130.59
G0 X115.467 Y129.609
G1 F1500 X112.597 Y126.739 E1348.57076
G0 F9000 X111.885 Y127.441
G1 F1500 X114.052 Y129.609 E1348.97857
G0 F9000 X114.052 Y130.59
G0 X112.638 Y130.59
G0 X112.638 Y129.609
G1 F1500 X111.173 Y128.144 E1349.25421
G0 F9000 X110.461 Y128.846
G1 F1500 X111.224 Y129.609 E1349.39777
G0 F9000 X111.224 Y130.59
G0 X109.81 Y130.59
G0 X109.81 Y129.609
G1 F1500 X101.639 Y121.438 E1350.93512
G0 F9000 X100.66 Y121.438
G0 X100.76 Y120.923
G0 X102.962 Y120.947
G0 X102.159 Y120.544
G1 F1500 X101.639 Y120.024 E1351.03296
G0 F9000 X100.66 Y120.024
G0 X102.999 Y120.866
G0 X103.48 Y119.926
G0 X102.576 Y119.547
G1 F1500 X101.639 Y118.61 E1351.20925
G0 F9000 X100.66 Y118.61
G0 X100.76 Y118.929
G0 X103.355 Y120.018
G0 X103.898 Y118.929
G0 X102.994 Y118.55
G1 F1500 X101.639 Y117.195 E1351.46419
G0 F9000 X100.66 Y117.195
G0 X100.66 Y115.781
G0 X101.639 Y115.781
G1 F1500 X103.458 Y117.601 E1351.80653
G0 F9000 X104.033 Y118.565
G0 X104.873 Y118.582
G0 X104.873 Y117.601
G1 F1500 X101.639 Y114.367 E1352.415
G0 F9000 X100.66 Y114.367
G0 X100.66 Y112.953
G0 X101.639 Y112.953
G1 F1500 X106.287 Y117.601 E1353.28951
G0 F9000 X106.287 Y118.582
G0 X107.521 Y118.574
G0 X107.701 Y117.601
G1 F1500 X101.639 Y111.539 E1354.43006
G0 F9000 X100.66 Y111.539
G0 X100.66 Y110.124
G0 X101.639 Y110.124
G1 F1500 X110.65 Y119.136 E1356.12555
G0 F9000 X111.362 Y118.434
G1 F1500 X101.638 Y108.709 E1357.9552
G0 F9000 X100.66 Y108.709
G0 X100.66 Y107.295
G0 X101.638 Y107.295
G1 F1500 X112.075 Y117.731 E1359.9188
G0 F9000 X112.607 Y118.574
G0 X113.358 Y118.582
G0 X113.358 Y117.601
G1 F1500 X101.638 Y105.881 E1362.12389
G0 F9000 X100.66 Y105.881
G0 X100.66 Y104.467
G0 X101.638 Y104.467
G1 F1500 X114.772 Y117.601 E1364.59502
G1 F1500 E1358.09502
G0 F9000 X114.772 Y118.582
G0 X115.51 Y119.459
G0 X116.037 Y120.74
G0 X109.98 Y128.065
G0 X109.98 Y130.49
G0 X108.395 Y130.59
G1 F1500 E1364.59502
G0 F9000 X108.395 Y129.609
G1 F1500 X101.639 Y122.852 E1365.86624
G0 F9000 X100.66 Y122.852
G0 X100.66 Y124.266
G0 X101.639 Y124.266
G1 F1500 X106.981 Y129.609 E1366.87142
G0 F9000 X106.981 Y130.59
G0 X105.567 Y130.59
G0 X105.567 Y129.609
G1 F1500 X101.639 Y125.681 E1367.61047
G0 F9000 X100.66 Y125.681
G0 X100.66 Y127.095
G0 X101.639 Y127.095
G1 F1500 X104.153 Y129.609 E1368.08347
G0 F9000 X104.153 Y130.59
G0 X102.739 Y130.59
G0 X102.739 Y129.609
G1 F1500 X101.639 Y128.509 E1368.29043
G1 F1500 E1361.79043
G0 F9000 X100.66 Y128.509
G0 X100.76 Y99.081
G0 X102.962 Y99.053
G1 F1500 E1368.29043
G0 F9000 X102.067 Y99.238
G1 F1500 X101.638 Y98.81 E1368.37106
G0 F9000 X100.66 Y98.81
G0 X102.962 Y99.053
G0 X103.192 Y98.94
G0 X102.494 Y98.251
G1 F1500 X101.638 Y97.396 E1368.53202
G0 F9000 X100.66 Y97.396
G0 X100.66 Y95.981
G0 X101.638 Y95.981
G1 F1500 X103.196 Y97.539 E1368.82515
G0 F9000 X103.898 Y96.827
G1 F1500 X101.638 Y94.567 E1369.25036
G0 F9000 X100.66 Y94.567
G0 X100.66 Y93.153
G0 X101.638 Y93.153
G1 F1500 X104.6 Y96.115 E1369.80766
G0 F9000 X105.298 Y96.804
G0 X106.001 Y96.092
G0 X105.303 Y95.403
G1 F1500 X101.638 Y91.739 E1370.49712
G0 F9000 X100.66 Y91.739
G0 X100.732 Y89.482
G0 X101.703 Y89.41
G0 X101.703 Y90.39
G1 F1500 X106.005 Y94.691 E1371.30644
G0 F9000 X106.707 Y93.979
G1 F1500 X103.118 Y90.39 E1371.9817
G0 F9000 X103.118 Y89.41
G0 X104.532 Y89.41
G0 X104.532 Y90.39
G1 F1500 X107.409 Y93.267 E1372.52301
G0 F9000 X108.111 Y92.555
G1 F1500 X105.946 Y90.39 E1372.93035
G0 F9000 X105.946 Y89.41
G0 X107.36 Y89.41
G0 X107.36 Y90.39
G1 F1500 X108.813 Y91.843 E1373.20372
G0 F9000 X109.515 Y91.131
G1 F1500 X108.774 Y90.39 E1373.34314
G0 F9000 X108.774 Y89.5
G1 F1500 E1366.84314
G0 F9000 X108.774 Y89.41
G0 X99.764 Y88.514
G0 X98.75 Y87.793
G0 X99.76 Y88.5
;TYPE:SKIN
G1 F1500 E1373.34314
G1 F900 X100.212 Y88.5 E1373.34615
G1 X99.749 Y88.963 E1373.3505
G1 X99.749 Y89.415 E1373.35351
G1 X100.665 Y88.5 E1373.36212
G1 X101.117 Y88.5 E1373.36513
G1 X99.749 Y89.868 E1373.378
G1 X99.749 Y90.32 E1373.38101
G1 X101.57 Y88.5 E1373.39813
G1 X102.022 Y88.5 E1373.40114
G1 X99.749 Y90.773 E1373.42252
G1 X99.749 Y91.225 E1373.42553
G1 X102.475 Y88.5 E1373.45117
G1 X102.927 Y88.5 E1373.45417
G1 X99.749 Y91.678 E1373.48407
G1 X99.749 Y92.131 E1373.48709
G1 X103.38 Y88.5 E1373.52124
G1 X103.832 Y88.5 E1373.52425
G1 X99.749 Y92.583 E1373.56266
G1 X99.749 Y93.036 E1373.56567
G1 X104.285 Y88.5 E1373.60835
G1 X104.738 Y88.5 E1373.61136
G1 X99.749 Y93.488 E1373.65829
G1 X99.749 Y93.941 E1373.6613
G1 X105.19 Y88.5 E1373.71249
G1 X105.643 Y88.5 E1373.7155
G1 X99.749 Y94.393 E1373.77094
G1 X99.749 Y94.846 E1373.77396
G1 X106.095 Y88.5 E1373.83366
G1 X106.548 Y88.5 E1373.83667
G1 X99.749 Y95.298 E1373.90062
G1 X99.749 Y95.751 E1373.90364
G1 X107 Y88.5 E1373.97185
G1 X107.453 Y88.5 E1373.97486
G1 X99.749 Y96.203 E1374.04733
G1 X99.749 Y96.656 E1374.05035
G1 X107.905 Y88.5 E1374.12707
G1 X108.358 Y88.5 E1374.13009
G1 X99.749 Y97.109 E1374.21108
G1 X99.749 Y97.561 E1374.21408
G1 X108.811 Y88.5 E1374.29933
G1 X109.263 Y88.5 E1374.30233
G1 X99.749 Y98.014 E1374.39184
G1 X99.749 Y98.466 E1374.39484
G1 X109.716 Y88.5 E1374.4886
G1 X110.168 Y88.5 E1374.49161
G1 X99.749 Y98.919 E1374.58962
G1 X99.749 Y99.371 E1374.59263
G1 X110.621 Y88.5 E1374.6949
G1 X111.073 Y88.5 E1374.69791
G1 X99.749 Y99.824 E1374.80444
G1 X99.749 Y100.276 E1374.80745
G1 X111.526 Y88.5 E1374.91823
G1 X111.978 Y88.5 E1374.92124
G1 X99.749 Y100.729 E1375.03628
G1 X99.749 Y101.182 E1375.03929
G1 X112.431 Y88.5 E1375.1586
G1 X112.883 Y88.5 E1375.16161
G1 X99.749 Y101.634 E1375.28516
G1 X99.749 Y102.087 E1375.28818
G1 X113.336 Y88.5 E1375.41599
G1 X113.789 Y88.5 E1375.41901
G1 X99.749 Y102.539 E1375.55108
G1 X99.749 Y102.992 E1375.5541
G1 X114.241 Y88.5 E1375.69043
G1 X114.694 Y88.5 E1375.69344
G1 X99.749 Y103.444 E1375.83403
G1 X99.749 Y103.897 E1375.83704
G1 X104.202 Y99.443 E1375.87894
G1 X104.336 Y99.762 E1375.88124
G1 X99.749 Y104.349 E1375.92439
G1 X99.749 Y104.802 E1375.92741
G1 X104.47 Y100.081 E1375.97182
G1 X104.603 Y100.401 E1375.97412
G1 X99.749 Y105.254 E1376.01978
G1 X99.749 Y105.707 E1376.0228
G1 X104.949 Y100.507 E1376.07171
G1 X105.402 Y100.507 E1376.07473
G1 X99.749 Y106.16 E1376.12791
G1 X99.749 Y106.612 E1376.13091
G1 X105.854 Y100.507 E1376.18835
G1 X106.307 Y100.507 E1376.19136
G1 X99.749 Y107.065 E1376.25305
G1 X99.749 Y107.517 E1376.25606
G1 X106.759 Y100.507 E1376.32201
G1 X107.136 Y100.508 E1376.32451
G1 X110.018 Y97.584 E1376.35182
G1 X110.077 Y97.642 E1376.35237
G1 X99.749 Y107.97 E1376.44953
G1 X99.749 Y108.422 E1376.45254
G1 X110.305 Y97.867 E1376.55184
G1 X110.533 Y98.091 E1376.55397
G1 X99.749 Y108.875 E1376.65541
G1 X99.749 Y109.327 E1376.65842
G1 X110.761 Y98.316 E1376.76201
G1 X110.988 Y98.54 E1376.76413
G1 X99.749 Y109.78 E1376.86987
G1 X99.75 Y110.232 E1376.87287
G1 X111.216 Y98.765 E1376.98074
G1 X111.444 Y98.99 E1376.98287
G1 X99.75 Y110.684 E1377.09288
G1 X99.75 Y111.137 E1377.0959
G1 X111.672 Y99.214 E1377.20806
G1 X111.9 Y99.439 E1377.21019
G1 X99.75 Y111.589 E1377.32449
G1 X99.75 Y112.042 E1377.3275
G1 X112.128 Y99.664 E1377.44395
G1 X112.355 Y99.889 E1377.44607
G1 X99.75 Y112.495 E1377.56466
G1 X99.75 Y112.947 E1377.56766
G1 X112.584 Y100.113 E1377.6884
G1 X112.811 Y100.338 E1377.69052
G1 X99.75 Y113.4 E1377.8134
G1 X99.75 Y113.852 E1377.81641
G1 X113.094 Y100.508 E1377.94194
G1 X113.547 Y100.508 E1377.94495
G1 X99.75 Y114.305 E1378.07474
G1 X99.75 Y114.757 E1378.07775
G1 X113.999 Y100.508 E1378.2118
G1 X114.452 Y100.508 E1378.21481
G1 X99.75 Y115.21 E1378.35312
G1 X99.75 Y115.662 E1378.35612
G1 F1500 E1371.85612
G0 F9000 X98.085 Y115.662
G0 X110.006 Y95.681
G0 X110.147 Y93.499
G1 F1500 E1378.35612
G1 F900 X115.146 Y88.5 E1378.40315
G1 X115.599 Y88.5 E1378.40617
G1 X110.375 Y93.724 E1378.45531
G1 X110.603 Y93.948 E1378.45744
G1 X116.051 Y88.5 E1378.50869
G1 X116.504 Y88.5 E1378.5117
G1 X110.831 Y94.173 E1378.56507
G1 X111.058 Y94.398 E1378.56719
G1 X116.956 Y88.5 E1378.62268
G1 X117.409 Y88.5 E1378.62569
G1 X111.286 Y94.622 E1378.68329
G1 X111.514 Y94.847 E1378.68542
G1 X117.861 Y88.5 E1378.74513
G1 X118.314 Y88.5 E1378.74814
G1 X111.742 Y95.071 E1378.80996
G1 X111.97 Y95.296 E1378.81209
G1 X118.767 Y88.5 E1378.87603
G1 X119.219 Y88.5 E1378.87904
G1 X112.198 Y95.521 E1378.94509
G1 X112.426 Y95.745 E1378.94721
G1 X119.672 Y88.5 E1379.01537
G1 X120.124 Y88.5 E1379.01838
G1 X112.654 Y95.97 E1379.08865
G1 X112.881 Y96.195 E1379.09078
G1 X120.249 Y88.828 E1379.16009
G1 X120.249 Y89.28 E1379.1631
G1 X113.109 Y96.42 E1379.23026
G1 X113.337 Y96.644 E1379.23239
G1 X120.249 Y89.733 E1379.29741
G1 X120.249 Y90.185 E1379.30042
G1 X113.565 Y96.869 E1379.3633
G1 X113.793 Y97.094 E1379.36543
G1 X120.249 Y90.638 E1379.42616
G1 X120.249 Y91.09 E1379.42917
G1 X114.021 Y97.318 E1379.48776
G1 X114.249 Y97.543 E1379.48989
G1 X120.249 Y91.543 E1379.54633
G1 X120.249 Y91.996 E1379.54935
G1 X114.477 Y97.768 E1379.60364
G1 X114.704 Y97.992 E1379.60577
G1 X120.249 Y92.448 E1379.65793
G1 X120.249 Y92.901 E1379.66094
G1 X114.933 Y98.217 E1379.71095
G1 X115.16 Y98.441 E1379.71307
G1 X120.249 Y93.353 E1379.76094
G1 X120.249 Y93.806 E1379.76395
G1 X115.388 Y98.666 E1379.80968
G1 X115.616 Y98.891 E1379.81181
G1 X120.249 Y94.258 E1379.85539
G1 X120.249 Y94.711 E1379.85841
G1 X115.844 Y99.115 E1379.89984
G1 X116.072 Y99.34 E1379.90197
G1 X120.249 Y95.163 E1379.94127
G1 X120.249 Y95.616 E1379.94428
G0 F9000 X114.904 Y100.508
G1 F900 X99.75 Y115.662 E1380.08684
G1 F1500 E1373.58684
G0 F9000 X98.085 Y115.662
G0 X98.089 Y87.519
G0 X98.769 Y86.839
G0 X121.231 Y86.839
G0 X121.911 Y87.519
G0 X121.915 Y95.616
G0 X120.249 Y95.616
G1 F1500 E1380.08684
G1 F900 X99.75 Y116.115 E1380.27968
G1 X99.75 Y116.567 E1380.28269
G1 X120.249 Y96.068 E1380.47553
G1 X120.249 Y96.521 E1380.47854
G1 X99.75 Y117.02 E1380.67139
G1 X99.75 Y117.473 E1380.6744
G1 X120.249 Y96.974 E1380.86724
G1 X120.249 Y97.426 E1380.87025
G1 X99.75 Y117.925 E1381.06309
G1 X99.75 Y118.378 E1381.0661
G1 X120.249 Y97.879 E1381.25894
G1 X120.249 Y98.331 E1381.26195
G1 X99.75 Y118.83 E1381.45479
G1 X99.75 Y119.283 E1381.45781
G1 X120.249 Y98.784 E1381.65065
G1 X120.249 Y99.236 E1381.65366
G1 X99.75 Y119.735 E1381.8465
G1 X99.75 Y120.188 E1381.84951
G1 X120.249 Y99.689 E1382.04235
G1 X120.249 Y100.141 E1382.04536
G1 X99.75 Y120.64 E1382.2382
G1 X99.75 Y121.093 E1382.24122
G1 X120.249 Y100.594 E1382.43406
G1 X120.249 Y101.046 E1382.43706
G1 X99.75 Y121.545 E1382.62991
G1 X99.75 Y121.998 E1382.63292
G1 X120.249 Y101.499 E1382.82576
G1 X120.249 Y101.952 E1382.82877
G1 X99.75 Y122.451 E1383.02162
G1 X99.75 Y122.903 E1383.02462
G1 X120.249 Y102.404 E1383.21747
G1 X120.249 Y102.857 E1383.22048
G1 X99.75 Y123.356 E1383.41332
G1 X99.75 Y123.808 E1383.41633
G1 X120.249 Y103.309 E1383.60917
G1 X120.249 Y103.762 E1383.61218
G1 X99.75 Y124.261 E1383.80502
G1 X99.75 Y124.713 E1383.80803
G1 X104.416 Y120.047 E1383.85193
G1 X104.136 Y120.719 E1383.85677
G1 X104.166 Y120.75 E1383.85706
G1 X99.75 Y125.166 E1383.8986
G1 X99.75 Y125.618 E1383.90161
G1 X104.39 Y120.978 E1383.94526
G1 X104.615 Y121.205 E1383.94738
G1 X99.75 Y126.071 E1383.99315
G1 X99.75 Y126.524 E1383.99617
G1 X104.839 Y121.434 E1384.04405
G1 X105.064 Y121.661 E1384.04617
G1 X99.75 Y126.976 E1384.09617
G1 X99.75 Y127.429 E1384.09918
G1 X105.289 Y121.889 E1384.15129
G1 X105.514 Y122.117 E1384.15342
G1 X99.75 Y127.881 E1384.20765
G1 X99.75 Y128.334 E1384.21066
G1 X105.738 Y122.345 E1384.267
G1 X105.963 Y122.573 E1384.26913
G1 X99.75 Y128.786 E1384.32758
G1 X99.75 Y129.239 E1384.33059
G1 X106.188 Y122.801 E1384.39115
G1 X106.413 Y123.028 E1384.39328
G1 X99.75 Y129.691 E1384.45596
G1 X99.75 Y130.144 E1384.45898
G1 X106.637 Y123.257 E1384.52376
G1 X106.862 Y123.484 E1384.52589
G1 X99.75 Y130.596 E1384.5928
G1 X99.75 Y131.049 E1384.59581
G1 X107.087 Y123.712 E1384.66483
G1 X107.311 Y123.94 E1384.66696
G1 X99.752 Y131.499 E1384.73807
G1 X100.205 Y131.499 E1384.74108
G1 X107.536 Y124.168 E1384.81005
G1 X107.76 Y124.396 E1384.81217
G1 X100.658 Y131.499 E1384.87899
G1 X101.11 Y131.499 E1384.882
G1 X107.985 Y124.624 E1384.94667
G1 X108.209 Y124.852 E1384.9488
G1 X101.563 Y131.499 E1385.01132
G1 X102.015 Y131.499 E1385.01433
G1 X108.434 Y125.08 E1385.07472
G1 X108.659 Y125.307 E1385.07684
G1 X102.468 Y131.499 E1385.13509
G1 X102.92 Y131.499 E1385.1381
G1 X108.884 Y125.535 E1385.1942
G1 X109.108 Y125.763 E1385.19633
G1 X103.373 Y131.499 E1385.25028
G1 X103.825 Y131.499 E1385.25329
G1 X109.333 Y125.991 E1385.30511
G1 X109.558 Y126.219 E1385.30724
G1 X104.278 Y131.499 E1385.35691
G1 X104.73 Y131.499 E1385.35991
G1 X109.783 Y126.446 E1385.40745
G1 X109.989 Y126.656 E1385.40941
G1 X112.609 Y124.073 E1385.43388
G1 X105.183 Y131.499 E1385.50374
G1 X105.636 Y131.499 E1385.50675
G1 F1500 E1379.00675
G0 F9000 X105.636 Y133.165
G0 X109.932 Y124.262
G0 X104.972 Y119.491
G1 F1500 E1385.50675
G1 F900 X120.249 Y104.214 E1385.65047
G1 X120.249 Y104.667 E1385.65348
G1 X105.425 Y119.491 E1385.79294
G1 X105.877 Y119.491 E1385.79594
G1 X120.249 Y105.119 E1385.93115
G1 X120.249 Y105.572 E1385.93416
G1 X106.33 Y119.491 E1386.0651
G1 X106.783 Y119.491 E1386.06812
G1 X120.249 Y106.025 E1386.1948
G1 X120.249 Y106.477 E1386.1978
G1 X107.186 Y119.54 E1386.32069
G1 X107.41 Y119.768 E1386.32282
G1 X120.249 Y106.93 E1386.44359
G1 X120.249 Y107.382 E1386.4466
G1 X107.635 Y119.996 E1386.56527
G1 X107.859 Y120.224 E1386.56739
G1 X120.249 Y107.835 E1386.68394
G1 X120.249 Y108.287 E1386.68695
G1 X108.084 Y120.452 E1386.80139
G1 X108.309 Y120.679 E1386.80352
G1 X120.249 Y108.74 E1386.91584
G1 X120.249 Y109.192 E1386.91884
G1 X108.534 Y120.907 E1387.02905
G1 X108.759 Y121.135 E1387.03118
G1 X120.249 Y109.645 E1387.13927
G1 X120.249 Y110.097 E1387.14228
G1 X108.984 Y121.362 E1387.24825
G1 X109.208 Y121.591 E1387.25039
G1 X120.249 Y110.549 E1387.35426
G1 X120.249 Y111.002 E1387.35727
G1 X109.433 Y121.818 E1387.45902
G1 X109.658 Y122.046 E1387.46115
G1 X120.249 Y111.454 E1387.56079
G1 X120.249 Y111.907 E1387.5638
G1 X109.882 Y122.274 E1387.66133
G1 X110.02 Y122.414 E1387.66264
G1 X112.984 Y119.491 E1387.69033
G1 X113.118 Y119.491 E1387.69122
G1 X120.249 Y112.359 E1387.75831
G1 X120.249 Y112.812 E1387.76132
G1 X113.571 Y119.491 E1387.82415
G1 X114.023 Y119.491 E1387.82716
G1 X120.249 Y113.265 E1387.88573
G1 X120.249 Y113.717 E1387.88873
G1 X114.476 Y119.491 E1387.94305
G1 X114.928 Y119.491 E1387.94605
G1 X120.249 Y114.17 E1387.99611
G1 X120.249 Y114.622 E1387.99912
G1 X115.306 Y119.566 E1388.04562
G1 X115.532 Y119.792 E1388.04775
G1 X120.249 Y115.075 E1388.09212
G1 X120.249 Y115.527 E1388.09513
G1 X115.759 Y120.018 E1388.13737
G1 X115.985 Y120.244 E1388.1395
G1 X120.249 Y115.98 E1388.17961
G1 X120.249 Y116.432 E1388.18262
G1 X116.211 Y120.471 E1388.22061
G1 F1500 E1381.72061
G0 F9000 X121.915 Y120.471
G0 X121.911 Y132.481
G0 X121.231 Y133.161
G0 X105.636 Y133.165
G0 X105.636 Y131.499
G1 F1500 E1388.22061
G1 F900 X120.249 Y116.885 E1388.35809
G1 X120.249 Y117.338 E1388.3611
G1 X106.088 Y131.499 E1388.49432
G1 X106.541 Y131.499 E1388.49733
G1 X120.249 Y117.79 E1388.62629
G1 X120.249 Y118.243 E1388.62931
G1 X106.993 Y131.499 E1388.75401
G1 X107.446 Y131.499 E1388.75702
G1 X120.249 Y118.695 E1388.87747
G1 X120.249 Y119.148 E1388.88048
G1 X107.898 Y131.499 E1388.99667
G1 X108.351 Y131.499 E1388.99969
G1 X120.249 Y119.6 E1389.11162
G1 X120.249 Y120.053 E1389.11464
G1 X108.803 Y131.499 E1389.22231
G1 X109.256 Y131.499 E1389.22533
G1 X120.249 Y120.505 E1389.32875
G1 X120.249 Y120.958 E1389.33176
G1 X109.709 Y131.499 E1389.43092
G1 X110.161 Y131.499 E1389.43392
G1 X120.249 Y121.41 E1389.52883
G1 X120.249 Y121.863 E1389.53184
G1 X110.614 Y131.499 E1389.62249
G1 X111.066 Y131.499 E1389.6255
G1 X120.249 Y122.316 E1389.71188
G1 X120.249 Y122.768 E1389.71489
G1 X111.519 Y131.499 E1389.79702
G1 X111.971 Y131.499 E1389.80003
G1 X120.249 Y123.221 E1389.8779
G1 X120.249 Y123.673 E1389.88091
G1 X112.424 Y131.499 E1389.95453
G1 X112.876 Y131.499 E1389.95753
G1 X120.249 Y124.126 E1390.02689
G1 X120.249 Y124.578 E1390.0299
G1 X113.329 Y131.499 E1390.095
G1 X113.781 Y131.499 E1390.09801
G1 X120.249 Y125.031 E1390.15886
G1 X120.249 Y125.483 E1390.16187
G1 X114.234 Y131.499 E1390.21846
G1 X114.687 Y131.499 E1390.22147
G1 X120.249 Y125.936 E1390.2738
G1 X120.249 Y126.388 E1390.2768
G1 X115.139 Y131.499 E1390.32488
G1 X115.592 Y131.499 E1390.32789
G1 X120.249 Y126.841 E1390.37171
G1 X120.249 Y127.294 E1390.37472
G1 X116.044 Y131.499 E1390.41428
G1 X116.497 Y131.499 E1390.41729
G1 X120.249 Y127.746 E1390.45259
G1 X120.249 Y128.199 E1390.45561
G1 X116.949 Y131.499 E1390.48665
G1 X117.402 Y131.499 E1390.48967
G1 X120.249 Y128.651 E1390.51645
G1 X120.249 Y129.104 E1390.51947
G1 X117.854 Y131.499 E1390.542
G1 X118.307 Y131.499 E1390.54501
G1 X120.249 Y129.556 E1390.56328
G1 X120.249 Y130.009 E1390.5663
G1 X118.759 Y131.499 E1390.58032
G1 X119.212 Y131.499 E1390.58333
G1 X120.249 Y130.461 E1390.59309
G1 X120.249 Y130.914 E1390.5961
G1 X119.665 Y131.499 E1390.6016
G1 X120.117 Y131.499 E1390.60461
;TIME_ELAPSED:752.217036
G1 F1500 E1384.10461
M140 S0
M107
G91 ;Relative positioning
G1 E-2 F2700 ;Retract a bit
G1 E-2 Z0.2 F2400 ;Retract and raise Z
G1 X5 Y5 F3000 ;Wipe out
G1 Z10 ;Raise Z more
G90 ;Absolute positioning

G1 X0 Y220 ;Present print
M106 S0 ;Turn-off fan
M104 S0 ;Turn-off hotend
M140 S0 ;Turn-off bed

M84 X Y E ;Disable all steppers but Z

M82 ;absolute extrusion mode
M104 S0
;End of Gcode
;SETTING_3 {"global_quality": "[general]\\nversion = 4\\nname = Draft Quality #2
;SETTING_3 \\ndefinition = creality_ender3pro\\n\\n[metadata]\\ntype = quality_c
;SETTING_3 hanges\\nquality_type = draft\\nsetting_version = 17\\n\\n[values]\\n
;SETTING_3 retraction_combing = noskin\\nsupport_enable = True\\n\\n", "extruder
;SETTING_3 _quality": ["[general]\\nversion = 4\\nname = Draft Quality #2\\ndefi
;SETTING_3 nition = creality_ender3pro\\n\\n[metadata]\\ntype = quality_changes\
;SETTING_3 \nquality_type = draft\\nsetting_version = 17\\nposition = 0\\n\\n[va
;SETTING_3 lues]\\ninfill_sparse_density = 20\\nironing_enabled = True\\nironing
;SETTING_3 _flow = 5\\nironing_line_spacing = 0.32\\nironing_monotonic = True\\n
;SETTING_3 speed_ironing = 15\\n\\n"]}
