;FLAVOR:Marlin
;TIME:219
;Filament used: 0.7078m
;Layer height: 0.6
;MINX:73.503
;MINY:91.719
;MINZ:0.6
;MAXX:147.06
;MAXY:128.281
;MAXZ:3
;Generated with Cura_SteamEngine 4.11.0
M140 S105
M105
M190 S105
M104 S255
M105
M109 S255
M82 ;absolute extrusion mode
; Ender 3 Custom Start G-code
G92 E0 ; Reset Extruder
G28 ; Home all axes
G1 Z2.0 F3000 ; Move Z Axis up little to prevent scratching of Heat Bed
G1 X0.1 Y20 Z0.3 F5000.0 ; Move to start position
G1 X0.1 Y200.0 Z0.3 F1500.0 E15 ; Draw the first line
G1 X0.4 Y200.0 Z0.3 F5000.0 ; Move to side a little
G1 X0.4 Y20 Z0.3 F1500.0 E30 ; Draw the second line
G92 E0 ; Reset Extruder
G1 Z2.0 F3000 ; Move Z Axis up little to prevent scratching of Heat Bed
G1 X5 Y20 Z0.3 F5000.0 ; Move over to prevent blob squish
G92 E0
G92 E0
G1 F1500 E-6.5
;LAYER_COUNT:5
;LAYER:0
M107
G0 F6000 X75.617 Y117.584 Z0.6
;TYPE:SKIRT
G1 F1500 E0
G1 F1200 X76.19 Y117.238 E0.14694
G1 X76.815 Y116.939 E0.29903
G1 X77.197 Y116.808 E0.38768
G1 X77.55 Y116.706 E0.46833
G1 X77.706 Y116.665 E0.50374
G1 X78.408 Y116.496 E0.66225
G1 X78.993 Y116.405 E0.79221
G1 X80.027 Y116.331 E1.01977
G1 X80.72 Y116.287 E1.1722
G1 X80.948 Y116.28 E1.22227
G1 X116.713 Y116.28 E9.0733
G1 X117.975 Y115.34 E9.41873
G1 X119.093 Y114.186 E9.77144
G1 X120.009 Y112.874 E10.12269
G1 X120.704 Y111.429 E10.47468
G1 X121.16 Y109.889 E10.82724
G1 X121.362 Y108.295 E11.17995
G1 X121.309 Y106.691 E11.53225
G1 X120.998 Y105.125 E11.88272
G1 X120.339 Y103.348 E12.29876
G1 X120.213 Y102.932 E12.39418
G1 X120.043 Y102.221 E12.55466
G1 X119.946 Y101.504 E12.71348
G1 X119.944 Y101.444 E12.72666
G1 X119.991 Y100.731 E12.88352
G1 X120.105 Y100.048 E13.03552
G1 X120.278 Y99.396 E13.1836
G1 X120.299 Y99.339 E13.19693
G1 X120.641 Y98.649 E13.36599
G1 X121.017 Y98.059 E13.51956
G1 X121.478 Y97.479 E13.6822
G1 X121.52 Y97.436 E13.6954
G1 X122.055 Y96.985 E13.849
G1 X122.625 Y96.593 E14.00086
G1 X123.297 Y96.229 E14.16863
G1 X123.353 Y96.206 E14.18191
G1 X124.001 Y96.009 E14.33059
G1 X124.711 Y95.864 E14.48966
G1 X125.073 Y95.809 E14.57004
G1 X125.461 Y95.788 E14.65534
G1 X127.583 Y95.788 E15.12115
G1 X127.583 Y95.495 E15.18547
G1 X127.623 Y94.96 E15.30324
G1 X127.742 Y94.437 E15.42098
G1 X127.937 Y93.938 E15.53859
G1 X128.205 Y93.473 E15.6564
G1 X128.637 Y92.949 E15.80548
G1 X128.813 Y92.773 E15.86012
G1 X129.22 Y92.424 E15.97781
G1 X129.674 Y92.138 E16.0956
G1 X130.165 Y91.923 E16.21326
G1 X130.683 Y91.783 E16.33105
G1 X131.359 Y91.719 E16.48011
G1 X143.284 Y91.719 E19.09785
G1 X143.819 Y91.759 E19.21562
G1 X144.342 Y91.878 E19.33336
G1 X144.841 Y92.073 E19.45096
G1 X145.306 Y92.341 E19.56878
G1 X145.83 Y92.773 E19.71786
G1 X146.006 Y92.949 E19.7725
G1 X146.355 Y93.356 E19.89019
G1 X146.641 Y93.81 E20.00797
G1 X146.856 Y94.301 E20.12564
G1 X146.996 Y94.819 E20.24343
G1 X147.06 Y95.495 E20.39248
G1 X147.06 Y97.543 E20.84206
G1 X147.02 Y98.078 E20.95982
G1 X146.901 Y98.601 E21.07757
G1 X146.706 Y99.1 E21.19517
G1 X146.438 Y99.565 E21.31299
G1 X146.006 Y100.089 E21.46206
G1 X145.83 Y100.265 E21.5167
G1 X145.423 Y100.614 E21.6344
G1 X144.969 Y100.9 E21.75218
G1 X144.478 Y101.115 E21.86985
G1 X143.96 Y101.255 E21.98764
G1 X143.284 Y101.319 E22.13669
G1 X140.312 Y101.319 E22.7891
G1 X140.171 Y101.789 E22.89681
G1 X140.147 Y101.848 E22.91079
G1 X139.802 Y102.497 E23.07214
G1 X139.466 Y102.998 E23.20456
G1 X139.022 Y103.539 E23.35819
G1 X138.983 Y103.578 E23.3703
G1 X138.441 Y104.023 E23.52424
G1 X137.938 Y104.36 E23.65715
G1 X137.26 Y104.716 E23.82525
G1 X137.207 Y104.737 E23.83777
G1 X136.586 Y104.92 E23.97988
G1 X135.97 Y105.043 E24.11777
G1 X135.606 Y105.097 E24.19855
G1 X135.236 Y105.116 E24.27988
G1 X131.656 Y105.116 E25.06575
G1 X131.805 Y106.136 E25.29204
G1 X131.843 Y106.683 E25.4124
G1 X131.825 Y109.26 E25.97811
G1 X131.809 Y109.57 E26.04625
G1 X131.777 Y109.831 E26.10397
G1 X131.37 Y112.355 E26.66519
G1 X131.242 Y112.887 E26.78531
G1 X130.45 Y115.343 E27.35178
G1 X130.242 Y115.852 E27.47248
G1 X129.583 Y117.166 E27.79517
G1 X131.738 Y117.166 E28.26823
G1 X132.007 Y117.176 E28.32732
G1 X132.353 Y117.202 E28.40349
G1 X132.654 Y117.218 E28.46966
G1 X132.99 Y117.252 E28.54379
G1 X133.125 Y117.272 E28.57375
G1 X133.473 Y117.341 E28.65163
G1 X134.206 Y117.525 E28.81753
G1 X134.667 Y117.674 E28.92388
G1 X134.702 Y117.688 E28.93215
G1 X135.083 Y117.868 E29.02465
G1 X135.372 Y118.025 E29.09685
G1 X135.745 Y118.248 E29.19225
G1 X136.212 Y118.59 E29.31931
G1 X136.249 Y118.622 E29.33005
G1 X136.614 Y118.986 E29.44321
G1 X136.869 Y119.28 E29.52864
G1 X137.189 Y119.71 E29.6463
G1 X137.338 Y119.969 E29.71189
G1 X137.371 Y120.032 E29.7275
G1 X137.651 Y120.74 E29.89463
G1 X137.74 Y121.061 E29.96776
G1 X137.845 Y121.587 E30.0855
G1 X137.85 Y121.628 E30.09457
G1 X137.876 Y122.064 E30.19045
G1 X137.876 Y122.919 E30.37813
G1 X137.869 Y123.145 E30.42777
G1 X137.838 Y123.637 E30.53599
G1 X137.779 Y124.098 E30.63801
G1 X137.772 Y124.134 E30.64606
G1 X137.693 Y124.458 E30.71927
G1 X137.604 Y124.762 E30.7888
G1 X137.369 Y125.361 E30.93005
G1 X137.345 Y125.409 E30.94183
G1 X137.007 Y125.956 E31.08298
G1 X136.873 Y126.135 E31.13206
G1 X136.586 Y126.473 E31.2294
G1 X136.561 Y126.499 E31.23732
G1 X136.184 Y126.84 E31.34891
G1 X135.84 Y127.109 E31.44477
G1 X135.565 Y127.304 E31.51877
G1 X135.064 Y127.579 E31.64423
G1 X134.801 Y127.697 E31.7075
G1 X134.449 Y127.833 E31.79034
G1 X134.077 Y127.955 E31.87628
G1 X133.797 Y128.038 E31.94039
G1 X133.161 Y128.16 E32.08255
G1 X132.713 Y128.204 E32.18136
G1 X131.908 Y128.269 E32.35865
G1 X131.618 Y128.281 E32.42236
G1 X80.928 Y128.28 E43.54968
G1 X80.68 Y128.271 E43.60415
G1 X79.028 Y128.157 E43.96766
G1 X78.739 Y128.126 E44.03146
G1 X78.372 Y128.054 E44.11356
G1 X77.822 Y127.916 E44.23804
G1 X77.11 Y127.716 E44.40038
G1 X76.798 Y127.612 E44.47257
G1 X76.759 Y127.597 E44.48175
G1 X76.205 Y127.328 E44.61694
G1 X75.803 Y127.087 E44.71983
G1 X75.506 Y126.904 E44.79641
G1 X75.071 Y126.589 E44.9143
G1 X74.695 Y126.221 E45.02979
G1 X74.635 Y126.153 E45.0497
G1 X74.311 Y125.725 E45.16754
G1 X74.054 Y125.254 E45.28532
G1 X73.898 Y124.909 E45.36844
G1 X73.755 Y124.552 E45.45286
G1 X73.603 Y124.038 E45.57052
G1 X73.522 Y123.317 E45.72979
G1 X73.503 Y121.546 E46.11857
G1 X73.515 Y121.213 E46.19172
G1 X73.535 Y120.969 E46.24546
G1 X73.619 Y120.439 E46.36326
G1 X73.78 Y119.928 E46.48087
G1 X73.999 Y119.474 E46.59152
G1 X74.143 Y119.222 E46.65523
G1 X74.251 Y119.022 E46.70513
G1 X74.54 Y118.57 E46.8229
G1 X74.771 Y118.291 E46.90241
G1 X74.829 Y118.228 E46.92121
G1 X75.221 Y117.861 E47.03908
G1 X75.617 Y117.584 E47.14517
G0 F6000 X76.031 Y118.269
G1 F1200 X76.604 Y117.923 E47.2921
G1 X77.09 Y117.69 E47.41042
G1 X77.419 Y117.577 E47.48678
G1 X77.772 Y117.475 E47.56744
G1 X77.894 Y117.443 E47.59513
G1 X78.596 Y117.274 E47.75363
G1 X79.051 Y117.203 E47.85472
G1 X80.078 Y117.13 E48.08073
G1 X80.771 Y117.086 E48.23316
G1 X80.948 Y117.08 E48.27204
G1 X116.952 Y117.08 E56.17553
G1 X117.068 Y117.013 E56.20493
G1 X118.506 Y115.942 E56.59853
G1 X119.71 Y114.7 E56.97825
G1 X120.702 Y113.278 E57.35885
G1 X121.452 Y111.719 E57.73862
G1 X121.944 Y110.057 E58.11911
G1 X122.164 Y108.326 E58.50215
G1 X122.107 Y106.606 E58.87992
G1 X121.769 Y104.901 E59.26148
G1 X121.089 Y103.069 E59.69045
G1 X120.991 Y102.746 E59.76454
G1 X120.821 Y102.035 E59.92502
G1 X120.746 Y101.477 E60.04861
G1 X120.744 Y101.417 E60.06179
G1 X120.78 Y100.863 E60.18366
G1 X120.894 Y100.18 E60.33566
G1 X121.029 Y99.673 E60.45084
G1 X121.05 Y99.616 E60.46417
G1 X121.316 Y99.079 E60.59572
G1 X121.692 Y98.489 E60.7493
G1 X122.05 Y98.038 E60.8757
G1 X122.092 Y97.995 E60.8889
G1 X122.508 Y97.644 E61.00838
G1 X123.078 Y97.252 E61.16024
G1 X123.601 Y96.969 E61.29077
G1 X123.657 Y96.946 E61.30406
G1 X124.161 Y96.793 E61.41968
G1 X124.871 Y96.648 E61.57876
G1 X125.152 Y96.605 E61.64116
G1 X125.461 Y96.588 E61.70909
G1 X128.383 Y96.588 E62.35052
G1 X128.383 Y95.495 E62.59045
G1 X128.423 Y95.024 E62.69422
G1 X128.542 Y94.566 E62.7981
G1 X128.736 Y94.135 E62.90185
G1 X128.999 Y93.742 E63.00566
G1 X129.203 Y93.515 E63.07265
G1 X129.379 Y93.339 E63.12729
G1 X129.741 Y93.034 E63.2312
G1 X130.148 Y92.794 E63.33492
G1 X130.59 Y92.627 E63.43864
G1 X131.054 Y92.536 E63.54244
G1 X131.359 Y92.519 E63.60949
G1 X143.284 Y92.519 E66.22723
G1 X143.755 Y92.559 E66.331
G1 X144.213 Y92.678 E66.43488
G1 X144.644 Y92.872 E66.53863
G1 X145.037 Y93.135 E66.64244
G1 X145.264 Y93.339 E66.70943
G1 X145.44 Y93.515 E66.76407
G1 X145.745 Y93.877 E66.86798
G1 X145.985 Y94.284 E66.9717
G1 X146.152 Y94.726 E67.07542
G1 X146.243 Y95.19 E67.17922
G1 X146.26 Y95.495 E67.24627
G1 X146.26 Y97.543 E67.69584
G1 X146.22 Y98.014 E67.79961
G1 X146.101 Y98.472 E67.90349
G1 X145.907 Y98.903 E68.00724
G1 X145.644 Y99.296 E68.11105
G1 X145.44 Y99.523 E68.17804
G1 X145.264 Y99.699 E68.23268
G1 X144.902 Y100.004 E68.33659
G1 X144.495 Y100.244 E68.44031
G1 X144.053 Y100.411 E68.54403
G1 X143.589 Y100.502 E68.64783
G1 X143.284 Y100.519 E68.71488
G1 X139.673 Y100.519 E69.50756
G1 X139.583 Y100.975 E69.60959
G1 X139.43 Y101.488 E69.7271
G1 X139.406 Y101.547 E69.74109
G1 X139.137 Y102.052 E69.86669
G1 X138.801 Y102.553 E69.99911
G1 X138.456 Y102.973 E70.11842
G1 X138.417 Y103.012 E70.13053
G1 X137.995 Y103.358 E70.25032
G1 X137.492 Y103.695 E70.38323
G1 X136.965 Y103.972 E70.51392
G1 X136.912 Y103.993 E70.52644
G1 X136.429 Y104.136 E70.63701
G1 X135.813 Y104.259 E70.77491
G1 X135.524 Y104.301 E70.83901
G1 X135.236 Y104.316 E70.90232
G1 X130.729 Y104.316 E71.89168
G1 X131.013 Y106.252 E72.32122
G1 X131.043 Y106.678 E72.41496
G1 X131.025 Y109.255 E72.98067
G1 X130.987 Y109.704 E73.07959
G1 X130.58 Y112.228 E73.6408
G1 X130.481 Y112.641 E73.73403
G1 X129.689 Y115.097 E74.3005
G1 X129.527 Y115.494 E74.39463
G1 X128.373 Y117.794 E74.95951
G1 X128.278 Y117.966 E75.00264
G1 X131.738 Y117.966 E75.76217
G1 X131.947 Y117.974 E75.80808
G1 X132.297 Y118 E75.88512
G1 X132.611 Y118.017 E75.95415
G1 X132.872 Y118.043 E76.01173
G1 X133.007 Y118.063 E76.04169
G1 X133.279 Y118.117 E76.10256
G1 X134.012 Y118.301 E76.26846
G1 X134.37 Y118.417 E76.35107
G1 X134.405 Y118.431 E76.35934
G1 X134.702 Y118.571 E76.43142
G1 X134.991 Y118.728 E76.50362
G1 X135.325 Y118.929 E76.58919
G1 X135.689 Y119.195 E76.68815
G1 X135.726 Y119.227 E76.69889
G1 X136.009 Y119.51 E76.78675
G1 X136.264 Y119.804 E76.87218
G1 X136.629 Y120.34 E77.01453
G1 X136.662 Y120.403 E77.03014
G1 X136.88 Y120.954 E77.16022
G1 X136.969 Y121.275 E77.23334
G1 X137.05 Y121.684 E77.32487
G1 X137.055 Y121.725 E77.33394
G1 X137.076 Y122.064 E77.4085
G1 X137.076 Y122.919 E77.59618
G1 X137.07 Y123.095 E77.63484
G1 X137.039 Y123.587 E77.74306
G1 X136.994 Y123.945 E77.82226
G1 X136.987 Y123.981 E77.83031
G1 X136.925 Y124.234 E77.88749
G1 X136.836 Y124.538 E77.95703
G1 X136.653 Y125.003 E78.06672
G1 X136.629 Y125.051 E78.0785
G1 X136.367 Y125.477 E78.18829
G1 X136.233 Y125.656 E78.23737
G1 X136.009 Y125.919 E78.31321
G1 X135.984 Y125.945 E78.32113
G1 X135.691 Y126.21 E78.40785
G1 X135.347 Y126.479 E78.50371
G1 X135.126 Y126.635 E78.56309
G1 X134.736 Y126.849 E78.66074
G1 X134.473 Y126.967 E78.72402
G1 X134.2 Y127.073 E78.78831
G1 X133.828 Y127.195 E78.87425
G1 X133.576 Y127.269 E78.9319
G1 X133.081 Y127.364 E79.04255
G1 X132.648 Y127.407 E79.13806
G1 X131.843 Y127.472 E79.31535
G1 X131.618 Y127.481 E79.36478
G1 X80.928 Y127.48 E90.49209
G1 X80.735 Y127.473 E90.53449
G1 X79.083 Y127.359 E90.89799
G1 X78.852 Y127.334 E90.949
G1 X78.567 Y127.278 E91.01275
G1 X78.017 Y127.14 E91.13723
G1 X77.328 Y126.946 E91.29436
G1 X77.085 Y126.865 E91.35059
G1 X77.046 Y126.85 E91.35976
G1 X76.615 Y126.641 E91.46491
G1 X76.222 Y126.406 E91.56543
G1 X75.925 Y126.223 E91.64201
G1 X75.545 Y125.942 E91.74575
G1 X75.294 Y125.692 E91.82352
G1 X75.234 Y125.624 E91.84342
G1 X74.953 Y125.244 E91.94717
G1 X74.783 Y124.925 E92.02652
G1 X74.627 Y124.58 E92.10964
G1 X74.503 Y124.269 E92.18313
G1 X74.374 Y123.814 E92.28695
G1 X74.322 Y123.308 E92.39861
G1 X74.303 Y121.537 E92.7874
G1 X74.312 Y121.278 E92.84429
G1 X74.332 Y121.034 E92.89803
G1 X74.411 Y120.568 E93.00178
G1 X74.566 Y120.121 E93.10564
G1 X74.693 Y119.872 E93.167
G1 X74.833 Y119.627 E93.22894
G1 X74.955 Y119.401 E93.28532
G1 X75.36 Y118.833 E93.43845
G1 X75.418 Y118.77 E93.45725
G1 X75.767 Y118.45 E93.56119
G1 X76.031 Y118.269 E93.63146
G0 F6000 X76.444 Y118.954
G1 F1200 X77.017 Y118.608 E93.77839
G1 X77.364 Y118.442 E93.86283
G1 X77.641 Y118.346 E93.92719
G1 X77.994 Y118.244 E94.00785
G1 X78.081 Y118.221 E94.0276
G1 X78.783 Y118.052 E94.1861
G1 X79.108 Y118.001 E94.25832
G1 X80.128 Y117.928 E94.4828
G1 X80.821 Y117.884 E94.63523
G1 X80.948 Y117.88 E94.66312
G1 X117.167 Y117.88 E102.61381
G1 X117.502 Y117.688 E102.69857
G1 X119.036 Y116.544 E103.11864
G1 X120.33 Y115.209 E103.52676
G1 X121.395 Y113.683 E103.93526
G1 X122.201 Y112.009 E104.34311
G1 X122.731 Y110.219 E104.7529
G1 X122.966 Y108.369 E105.16227
G1 X122.903 Y106.51 E105.57059
G1 X122.542 Y104.685 E105.97897
G1 X121.839 Y102.791 E106.42245
G1 X121.769 Y102.56 E106.47544
G1 X121.599 Y101.849 E106.63591
G1 X121.545 Y101.451 E106.72408
G1 X121.543 Y101.391 E106.73726
G1 X121.569 Y100.995 E106.82438
G1 X121.683 Y100.312 E106.97638
G1 X121.779 Y99.95 E107.05859
G1 X121.8 Y99.893 E107.07193
G1 X121.99 Y99.509 E107.16597
G1 X122.366 Y98.919 E107.31955
G1 X122.622 Y98.597 E107.40986
G1 X122.664 Y98.554 E107.42305
G1 X122.962 Y98.303 E107.50858
G1 X123.532 Y97.911 E107.66044
G1 X123.905 Y97.709 E107.75355
G1 X123.961 Y97.686 E107.76684
G1 X124.321 Y97.576 E107.84948
G1 X125.031 Y97.431 E108.00855
G1 X125.461 Y97.388 E108.10341
G1 X129.183 Y97.388 E108.92045
G1 X129.183 Y95.495 E109.336
G1 X129.223 Y95.097 E109.42381
G1 X129.341 Y94.716 E109.51136
G1 X129.533 Y94.365 E109.59919
G1 X129.769 Y94.081 E109.68025
G1 X129.945 Y93.905 E109.73488
G1 X130.254 Y93.652 E109.82255
G1 X130.607 Y93.466 E109.91014
G1 X130.991 Y93.353 E109.99801
G1 X131.359 Y93.319 E110.07913
G1 X143.284 Y93.319 E112.69687
G1 X143.682 Y93.359 E112.78468
G1 X144.063 Y93.477 E112.87224
G1 X144.414 Y93.669 E112.96006
G1 X144.698 Y93.905 E113.04112
G1 X144.874 Y94.081 E113.09576
G1 X145.127 Y94.39 E113.18342
G1 X145.313 Y94.743 E113.27101
G1 X145.426 Y95.127 E113.35888
G1 X145.46 Y95.495 E113.44001
G1 X145.46 Y97.543 E113.88958
G1 X145.42 Y97.941 E113.97739
G1 X145.302 Y98.322 E114.06494
G1 X145.11 Y98.673 E114.15277
G1 X144.874 Y98.957 E114.23382
G1 X144.698 Y99.133 E114.28846
G1 X144.389 Y99.386 E114.37613
G1 X144.036 Y99.572 E114.46372
G1 X143.652 Y99.685 E114.55159
G1 X143.284 Y99.719 E114.63271
G1 X138.96 Y99.719 E115.5819
G1 X138.949 Y99.997 E115.64298
G1 X138.919 Y100.207 E115.68954
G1 X138.798 Y100.82 E115.8267
G1 X138.689 Y101.187 E115.91074
G1 X138.665 Y101.246 E115.92473
G1 X138.473 Y101.606 E116.01429
G1 X138.137 Y102.107 E116.14671
G1 X137.89 Y102.407 E116.23201
G1 X137.851 Y102.446 E116.24412
G1 X137.55 Y102.694 E116.32973
G1 X137.047 Y103.031 E116.46264
G1 X136.671 Y103.228 E116.55582
G1 X136.618 Y103.249 E116.56834
G1 X136.273 Y103.351 E116.64731
G1 X135.657 Y103.474 E116.7852
G1 X135.236 Y103.516 E116.87808
G1 X129.777 Y103.516 E118.07642
G1 X129.784 Y103.539 E118.0817
G1 X129.851 Y103.836 E118.14853
G1 X130.222 Y106.368 E118.71029
G1 X130.243 Y106.672 E118.77718
G1 X130.225 Y109.249 E119.34289
G1 X130.197 Y109.576 E119.41493
G1 X129.79 Y112.1 E119.97615
G1 X129.719 Y112.396 E120.04297
G1 X128.927 Y114.852 E120.60944
G1 X128.812 Y115.135 E120.6765
G1 X127.658 Y117.435 E121.24137
G1 X127.488 Y117.717 E121.31366
G1 X126.742 Y118.765 E121.59604
G1 X131.738 Y118.766 E122.69275
G1 X131.887 Y118.772 E122.72548
G1 X132.239 Y118.798 E122.80296
G1 X132.569 Y118.816 E122.87551
G1 X132.89 Y118.855 E122.9465
G1 X133.084 Y118.893 E122.98989
G1 X133.817 Y119.077 E123.15579
G1 X134.073 Y119.16 E123.21486
G1 X134.32 Y119.274 E123.27458
G1 X134.609 Y119.431 E123.34678
G1 X134.906 Y119.61 E123.4229
G1 X135.165 Y119.8 E123.49341
G1 X135.202 Y119.832 E123.50415
G1 X135.405 Y120.035 E123.56717
G1 X135.66 Y120.329 E123.6526
G1 X135.921 Y120.711 E123.75416
G1 X135.954 Y120.774 E123.76978
G1 X136.109 Y121.168 E123.86272
G1 X136.198 Y121.489 E123.93584
G1 X136.256 Y121.781 E124.00119
G1 X136.276 Y122.064 E124.06347
G1 X136.276 Y122.919 E124.25116
G1 X136.272 Y123.045 E124.27883
G1 X136.241 Y123.537 E124.38705
G1 X136.208 Y123.793 E124.44371
G1 X136.157 Y124.009 E124.49243
G1 X136.068 Y124.313 E124.56196
G1 X135.938 Y124.645 E124.64023
G1 X135.914 Y124.693 E124.65201
G1 X135.726 Y124.998 E124.73066
G1 X135.433 Y125.364 E124.83358
G1 X135.408 Y125.39 E124.84149
G1 X135.198 Y125.579 E124.90351
G1 X134.854 Y125.848 E124.99937
G1 X134.687 Y125.966 E125.04426
G1 X134.409 Y126.119 E125.11392
G1 X134.146 Y126.237 E125.1772
G1 X133.95 Y126.312 E125.22326
G1 X133.508 Y126.456 E125.32531
G1 X133.355 Y126.5 E125.36026
G1 X133.002 Y126.568 E125.43917
G1 X132.584 Y126.61 E125.53139
G1 X131.779 Y126.675 E125.70868
G1 X131.618 Y126.681 E125.74404
G1 X80.928 Y126.68 E136.87136
G1 X80.79 Y126.675 E136.90167
G1 X79.138 Y126.561 E137.26517
G1 X78.761 Y126.502 E137.34894
G1 X78.211 Y126.364 E137.47341
G1 X77.546 Y126.176 E137.62512
G1 X77.333 Y126.104 E137.67447
G1 X77.026 Y125.954 E137.74948
G1 X76.642 Y125.725 E137.84762
G1 X76.345 Y125.542 E137.9242
G1 X75.894 Y125.162 E138.05366
G1 X75.834 Y125.094 E138.07357
G1 X75.512 Y124.595 E138.20393
G1 X75.356 Y124.25 E138.28705
G1 X75.251 Y123.986 E138.34942
G1 X75.148 Y123.6 E138.43712
G1 X75.122 Y123.299 E138.50344
G1 X75.103 Y121.528 E138.89222
G1 X75.13 Y121.1 E138.98636
G1 X75.202 Y120.707 E139.07407
G1 X75.387 Y120.269 E139.17844
G1 X75.532 Y120.015 E139.24264
G1 X75.659 Y119.78 E139.30128
G1 X75.949 Y119.374 E139.41081
G1 X76.007 Y119.311 E139.4296
G1 X76.444 Y118.954 E139.55348
G0 F6000 X76.858 Y119.639
G1 F1200 X77.431 Y119.293 E139.70041
G1 X77.784 Y119.14 E139.78487
G1 X77.863 Y119.114 E139.80312
G1 X78.268 Y118.998 E139.8956
G1 X78.97 Y118.829 E140.05411
G1 X79.165 Y118.799 E140.09742
G1 X80.179 Y118.726 E140.32058
G1 X80.872 Y118.682 E140.47301
G1 X80.948 Y118.68 E140.4897
G1 X117.38 Y118.68 E148.48714
G1 X117.944 Y118.356 E148.62992
G1 X119.563 Y117.15 E149.07309
G1 X120.948 Y115.721 E149.50993
G1 X122.09 Y114.084 E149.94809
G1 X122.949 Y112.3 E150.38274
G1 X123.517 Y110.381 E150.82206
G1 X123.768 Y108.406 E151.25909
G1 X123.701 Y106.419 E151.69552
G1 X123.315 Y104.469 E152.13188
G1 X122.589 Y102.513 E152.58988
G1 X122.547 Y102.374 E152.62175
G1 X122.377 Y101.663 E152.78223
G1 X122.343 Y101.364 E152.84829
G1 X122.358 Y101.126 E152.90064
G1 X122.472 Y100.443 E153.05264
G1 X122.551 Y100.169 E153.11524
G1 X122.665 Y99.939 E153.17159
G1 X123.041 Y99.349 E153.32517
G1 X123.237 Y99.113 E153.39251
G1 X123.415 Y98.962 E153.44375
G1 X123.985 Y98.57 E153.59561
G1 X124.209 Y98.449 E153.6515
G1 X124.481 Y98.36 E153.71432
G1 X125.191 Y98.215 E153.87339
G1 X125.461 Y98.188 E153.93296
G1 X129.983 Y98.188 E154.92561
G1 X129.983 Y95.495 E155.51677
G1 X130.023 Y95.188 E155.58473
G1 X130.14 Y94.902 E155.65257
G1 X130.334 Y94.646 E155.72308
G1 X130.51 Y94.47 E155.77771
G1 X130.755 Y94.282 E155.8455
G1 X131.04 Y94.162 E155.91339
G1 X131.359 Y94.119 E155.98405
G1 X143.284 Y94.119 E158.60178
G1 X143.591 Y94.159 E158.66975
G1 X143.877 Y94.276 E158.73758
G1 X144.133 Y94.47 E158.80809
G1 X144.309 Y94.646 E158.86273
G1 X144.497 Y94.891 E158.93052
G1 X144.617 Y95.176 E158.9984
G1 X144.66 Y95.495 E159.06906
G1 X144.66 Y97.543 E159.51863
G1 X144.62 Y97.85 E159.58659
G1 X144.503 Y98.136 E159.65442
G1 X144.309 Y98.392 E159.72493
G1 X144.133 Y98.568 E159.77957
G1 X143.888 Y98.756 E159.84736
G1 X143.603 Y98.876 E159.91524
G1 X143.284 Y98.919 E159.9859
G1 X138.16 Y98.919 E161.11071
G1 X138.16 Y99.791 E161.30213
G1 X138.134 Y100.052 E161.3597
G1 X138.013 Y100.665 E161.49686
G1 X137.924 Y100.944 E161.56115
G1 X137.809 Y101.16 E161.61487
G1 X137.473 Y101.661 E161.74729
G1 X137.286 Y101.881 E161.81067
G1 X137.105 Y102.029 E161.86199
G1 X136.602 Y102.366 E161.9949
G1 X136.376 Y102.485 E162.05097
G1 X136.116 Y102.567 E162.11082
G1 X135.5 Y102.69 E162.24871
G1 X135.236 Y102.716 E162.30694
G1 X128.694 Y102.716 E163.74302
G1 X129.019 Y103.774 E163.98598
G1 X129.059 Y103.952 E164.02603
G1 X129.43 Y106.484 E164.58778
G1 X129.443 Y106.666 E164.62783
G1 X129.425 Y109.243 E165.19354
G1 X129.408 Y109.449 E165.23892
G1 X129.001 Y111.973 E165.80013
G1 X128.958 Y112.15 E165.84012
G1 X128.166 Y114.606 E166.40659
G1 X128.097 Y114.776 E166.44687
G1 X126.943 Y117.076 E167.01174
G1 X126.836 Y117.254 E167.05733
G1 X125.354 Y119.337 E167.61851
G1 X125.154 Y119.565 E167.68508
G1 X131.738 Y119.566 E169.13038
G1 X131.828 Y119.569 E169.15015
G1 X132.215 Y119.598 E169.23534
G1 X132.526 Y119.615 E169.30371
G1 X132.889 Y119.669 E169.38427
G1 X133.622 Y119.853 E169.55017
G1 X133.938 Y119.977 E169.62469
G1 X134.283 Y120.166 E169.71104
G1 X134.642 Y120.405 E169.80572
G1 X134.801 Y120.559 E169.85431
G1 X135.056 Y120.853 E169.93974
G1 X135.212 Y121.082 E170.00056
G1 X135.245 Y121.145 E170.01617
G1 X135.338 Y121.381 E170.07186
G1 X135.427 Y121.702 E170.14498
G1 X135.476 Y122.064 E170.22517
G1 X135.476 Y122.919 E170.41286
G1 X135.474 Y122.994 E170.42933
G1 X135.443 Y123.486 E170.53754
G1 X135.39 Y123.784 E170.60399
G1 X135.301 Y124.088 E170.67352
G1 X135.198 Y124.336 E170.73247
G1 X134.952 Y124.697 E170.82837
G1 X134.705 Y124.949 E170.90583
G1 X134.361 Y125.218 E171.00169
G1 X134.081 Y125.389 E171.07371
G1 X133.818 Y125.507 E171.13698
G1 X133.701 Y125.552 E171.1645
G1 X133.287 Y125.687 E171.26009
G1 X132.922 Y125.772 E171.34236
G1 X132.52 Y125.812 E171.43104
G1 X131.715 Y125.877 E171.60833
G1 X131.618 Y125.881 E171.62964
G1 X80.928 Y125.88 E182.75695
G1 X80.845 Y125.877 E182.77518
G1 X79.193 Y125.763 E183.13869
G1 X78.956 Y125.726 E183.19134
G1 X78.371 Y125.579 E183.32375
G1 X77.763 Y125.407 E183.46245
G1 X77.436 Y125.267 E183.54054
G1 X77.062 Y125.044 E183.63612
G1 X76.765 Y124.861 E183.7127
G1 X76.494 Y124.633 E183.79045
G1 X76.434 Y124.565 E183.81035
G1 X76.241 Y124.265 E183.88866
G1 X76.085 Y123.92 E183.97178
G1 X76 Y123.703 E184.02293
G1 X75.922 Y123.291 E184.11498
G1 X75.903 Y121.52 E184.50377
G1 X75.927 Y121.165 E184.58188
G1 X75.992 Y120.863 E184.64969
G1 X76.082 Y120.667 E184.69703
G1 X76.24 Y120.391 E184.76684
G1 X76.364 Y120.16 E184.8244
G1 X76.537 Y119.916 E184.89006
G1 X76.595 Y119.853 E184.90885
G1 X76.858 Y119.639 E184.98328
G0 F6000 X77.271 Y120.324
G1 F1200 X77.844 Y119.978 E185.13022
G1 X78.085 Y119.883 E185.18709
G1 X78.455 Y119.776 E185.27163
G1 X79.157 Y119.607 E185.43014
G1 X79.222 Y119.597 E185.44457
G1 X80.23 Y119.525 E185.66641
G1 X80.948 Y119.48 E185.82433
G1 X117.593 Y119.48 E193.86853
G1 X118.384 Y119.026 E194.06874
G1 X120.097 Y117.749 E194.53776
G1 X121.566 Y116.234 E195.00099
G1 X122.784 Y114.488 E195.46832
G1 X123.697 Y112.59 E195.93066
G1 X124.301 Y110.549 E196.3979
G1 X124.569 Y108.443 E196.86393
G1 X124.498 Y106.323 E197.32956
G1 X124.087 Y104.251 E197.79327
G1 X123.339 Y102.234 E198.2655
G1 X123.325 Y102.188 E198.27605
G1 X123.155 Y101.477 E198.43653
G1 X123.147 Y101.258 E198.48463
G1 X123.261 Y100.575 E198.63664
G1 X123.34 Y100.369 E198.68507
G1 X123.716 Y99.779 E198.83865
G1 X123.868 Y99.621 E198.88678
G1 X124.438 Y99.229 E199.03864
G1 X124.641 Y99.144 E199.08695
G1 X125.351 Y98.999 E199.24602
G1 X125.461 Y98.988 E199.27029
G1 X130.783 Y98.988 E200.43856
G1 X130.783 Y95.495 E201.20533
G1 X130.823 Y95.322 E201.24431
G1 X131.076 Y95.036 E201.32813
G1 X131.227 Y94.942 E201.36717
G1 X131.359 Y94.919 E201.39659
G1 X143.284 Y94.919 E204.01433
G1 X143.457 Y94.959 E204.0533
G1 X143.743 Y95.212 E204.13712
G1 X143.837 Y95.363 E204.17617
G1 X143.86 Y95.495 E204.20558
G1 X143.86 Y97.543 E204.65515
G1 X143.821 Y97.716 E204.69408
G1 X143.567 Y98.002 E204.77805
G1 X143.416 Y98.096 E204.81709
G1 X143.284 Y98.119 E204.84651
G1 X137.36 Y98.119 E206.14693
G1 X137.36 Y99.791 E206.51396
G1 X137.349 Y99.897 E206.53735
G1 X137.228 Y100.51 E206.67451
G1 X137.144 Y100.715 E206.72314
G1 X136.808 Y101.216 E206.85557
G1 X136.66 Y101.364 E206.90151
G1 X136.157 Y101.701 E207.03442
G1 X135.959 Y101.782 E207.08138
G1 X135.306 Y101.911 E207.22749
G1 X135.236 Y101.916 E207.2429
G1 X127.611 Y101.916 E208.91672
G1 X128.254 Y104.009 E209.39736
G1 X128.268 Y104.068 E209.41067
G1 X128.639 Y106.6 E209.97242
G1 X128.643 Y106.661 E209.98584
G1 X128.625 Y109.238 E210.55155
G1 X128.618 Y109.322 E210.57005
G1 X128.211 Y111.846 E211.13127
G1 X128.197 Y111.905 E211.14458
G1 X127.405 Y114.361 E211.71105
G1 X127.382 Y114.417 E211.72434
G1 X126.213 Y116.744 E212.29599
G1 X126.184 Y116.79 E212.30793
G1 X124.702 Y118.873 E212.8691
G1 X124.648 Y118.938 E212.88765
G1 X123.262 Y120.365 E213.32434
G1 X131.768 Y120.367 E215.19155
G1 X132.155 Y120.396 E215.27674
G1 X132.521 Y120.417 E215.35722
G1 X132.694 Y120.445 E215.39569
G1 X133.427 Y120.629 E215.56159
G1 X133.556 Y120.68 E215.59204
G1 X133.864 Y120.847 E215.66895
G1 X134.119 Y121.01 E215.73538
G1 X134.196 Y121.083 E215.75867
G1 X134.451 Y121.377 E215.84411
G1 X134.567 Y121.595 E215.89831
G1 X134.656 Y121.916 E215.97144
G1 X134.676 Y122.064 E216.00422
G1 X134.675 Y122.944 E216.1974
G1 X134.644 Y123.436 E216.30561
G1 X134.622 Y123.559 E216.33304
G1 X134.533 Y123.863 E216.40258
G1 X134.311 Y124.218 E216.49449
G1 X134.212 Y124.319 E216.52553
G1 X133.868 Y124.588 E216.62139
G1 X133.754 Y124.659 E216.65087
G1 X133.491 Y124.777 E216.71415
G1 X133.452 Y124.792 E216.72332
G1 X133.066 Y124.918 E216.81246
G1 X132.842 Y124.976 E216.86325
G1 X132.455 Y125.015 E216.94864
G1 X131.65 Y125.08 E217.12592
G1 X80.928 Y125.08 E228.26026
G1 X79.248 Y124.965 E228.62991
G1 X79.151 Y124.95 E228.65145
G1 X78.589 Y124.809 E228.77865
G1 X77.981 Y124.637 E228.91735
G1 X77.846 Y124.58 E228.94952
G1 X77.481 Y124.363 E229.04273
G1 X77.184 Y124.18 E229.11931
G1 X76.97 Y123.936 E229.19056
G1 X76.804 Y123.568 E229.27918
G1 X76.722 Y123.282 E229.34449
G1 X76.704 Y121.474 E229.74139
G1 X76.776 Y121.064 E229.83277
G1 X76.934 Y120.788 E229.90259
G1 X77.068 Y120.539 E229.96466
G1 X77.271 Y120.324 E230.02957
G1 F1500 E223.52957
;MESH:maniglia uniklat 32 mm.stl
G0 F6000 X77.134 Y120.098
G0 X78.028 Y119.621
G0 X78.99 Y119.387
G0 X80.213 Y119.261
G0 X80.965 Y120.499
G0 X119.525 Y120.758
G0 X120.419 Y120.111
G0 X120.708 Y120.86
G0 X122.259 Y121.465
G1 F1500 E230.02957
G0 F6000 X122.26 Y121.065
;TYPE:WALL-OUTER
G1 F1200 X131.721 Y121.066 E231.4456
G1 X132.11 Y121.095 E231.50398
G1 X132.427 Y121.111 E231.55149
G1 X132.531 Y121.126 E231.56722
G1 X133.239 Y121.303 E231.67644
G1 X133.5 Y121.447 E231.72106
G1 X133.683 Y121.559 E231.75317
G1 X133.901 Y121.812 E231.80316
G1 X133.976 Y122.085 E231.84553
G1 X133.976 Y122.905 E231.96826
G1 X133.947 Y123.377 E232.03904
G1 X133.868 Y123.642 E232.08043
G1 X133.764 Y123.781 E232.10641
G1 X133.45 Y124.027 E232.16611
G1 X133.224 Y124.13 E232.20328
G1 X132.862 Y124.25 E232.26036
G1 X132.759 Y124.281 E232.27646
G1 X132.396 Y124.317 E232.33106
G1 X131.612 Y124.381 E232.44879
G1 X80.943 Y124.38 E240.03245
G1 X79.309 Y124.268 E240.27759
G1 X78.777 Y124.135 E240.35966
G1 X78.189 Y123.969 E240.45111
G1 X77.849 Y123.766 E240.51038
G1 X77.589 Y123.607 E240.55599
G1 X77.465 Y123.331 E240.60128
G1 X77.422 Y123.24 E240.61634
G1 X77.403 Y121.508 E240.87559
G1 X77.404 Y121.378 E240.89505
G1 X77.542 Y121.136 E240.93674
G1 X77.666 Y120.904 E240.97611
G1 X78.194 Y120.585 E241.06844
G1 X78.306 Y120.546 E241.08619
G1 X78.622 Y120.456 E241.13537
G1 X79.311 Y120.291 E241.24141
G1 X80.274 Y120.223 E241.3859
G1 X80.962 Y120.18 E241.48907
G1 X117.78 Y120.18 E246.99965
G1 X118.771 Y119.61 E247.17076
G1 X120.555 Y118.282 E247.50362
G1 X122.11 Y116.678 E247.83799
G1 X123.387 Y114.847 E248.17211
G1 X124.355 Y112.835 E248.50628
G1 X124.989 Y110.694 E248.84048
G1 X125.271 Y108.479 E249.17468
G1 X125.196 Y106.247 E249.50893
G1 X124.763 Y104.057 E249.84306
G1 X124.004 Y102.017 E250.16883
G1 X123.843 Y101.342 E250.27269
G1 X123.947 Y100.718 E250.36738
G1 X124.289 Y100.182 E250.46254
G1 X124.812 Y99.823 E250.55748
G1 X125.475 Y99.688 E250.65875
G1 X131.483 Y99.688 E251.55797
G1 X131.483 Y95.619 E252.16698
G1 X143.16 Y95.619 E253.91469
G1 X143.16 Y97.419 E254.18409
G1 X136.66 Y97.419 E255.15695
G1 X136.66 Y99.777 E255.50988
G1 X136.547 Y100.348 E255.59699
G1 X136.244 Y100.8 E255.67844
G1 X135.792 Y101.103 E255.75988
G1 X135.222 Y101.216 E255.84686
G1 X126.664 Y101.216 E257.12774
G1 X127.577 Y104.182 E257.59222
G1 X127.944 Y106.691 E257.97174
G1 X127.925 Y109.222 E258.35056
G1 X127.522 Y111.722 E258.72957
G1 X126.741 Y114.136 E259.10931
G1 X125.606 Y116.394 E259.48756
G1 X124.137 Y118.459 E259.86686
G1 X122.356 Y120.292 E260.24938
G1 X122.065 Y120.547 E260.30729
G1 X122.26 Y121.065 E260.39013
G0 F6000 X121.914 Y121.565
;TYPE:WALL-INNER
G1 F1200 X131.698 Y121.566 E261.85451
G1 X132.079 Y121.594 E261.91169
G1 X132.374 Y121.609 E261.9559
G1 X132.436 Y121.618 E261.96527
G1 X133.053 Y121.772 E262.06045
G1 X133.355 Y121.944 E262.11247
G1 X133.449 Y122.053 E262.13401
G1 X133.476 Y122.151 E262.14923
G1 X133.476 Y122.89 E262.25983
G1 X133.451 Y123.289 E262.31967
G1 X133.404 Y123.428 E262.34163
G1 X133.188 Y123.597 E262.38268
G1 X133.079 Y123.646 E262.40057
G1 X133.045 Y123.662 E262.40619
G1 X132.662 Y123.788 E262.46654
G1 X132.347 Y123.82 E262.51392
G1 X131.596 Y123.881 E262.6267
G1 X80.962 Y123.88 E270.20512
G1 X79.386 Y123.772 E270.44155
G1 X78.905 Y123.652 E270.51575
G1 X78.387 Y123.506 E270.5963
G1 X77.981 Y123.26 E270.66735
G1 X77.921 Y123.126 E270.68933
G1 X77.903 Y121.512 E270.93091
G1 X78.042 Y121.261 E270.97385
G1 X78.41 Y121.039 E271.03818
G1 X78.449 Y121.025 E271.04438
G1 X78.498 Y121.012 E271.05197
G1 X78.759 Y120.937 E271.09261
G1 X79.384 Y120.787 E271.18881
G1 X80.309 Y120.722 E271.3276
G1 X80.977 Y120.68 E271.42778
G1 X117.914 Y120.68 E276.95616
G1 X119.046 Y120.029 E277.15161
G1 X120.886 Y118.659 E277.49495
G1 X122.497 Y116.997 E277.84139
G1 X123.82 Y115.1 E278.18754
G1 X124.823 Y113.016 E278.5337
G1 X125.48 Y110.797 E278.88007
G1 X125.772 Y108.502 E279.22633
G1 X125.694 Y106.19 E279.57257
G1 X125.246 Y103.92 E279.91888
G1 X124.482 Y101.867 E280.24674
G1 X124.353 Y101.325 E280.33012
G1 X124.423 Y100.902 E280.3943
G1 X124.657 Y100.536 E280.45931
G1 X125.011 Y100.293 E280.52358
G1 X125.526 Y100.188 E280.60224
G1 X125.987 Y100.188 E280.67124
G1 X131.983 Y100.188 E281.56867
G1 X131.983 Y96.119 E282.17768
G1 X142.66 Y96.119 E283.77571
G1 X142.66 Y96.919 E283.89545
G1 X136.16 Y96.919 E284.86831
G1 X136.16 Y99.731 E285.28918
G1 X136.076 Y100.153 E285.35358
G1 X135.884 Y100.44 E285.40526
G1 X135.597 Y100.632 E285.45694
G1 X135.478 Y100.655 E285.47508
G1 X135.237 Y100.703 E285.51186
G1 X135.175 Y100.716 E285.52134
G1 X131.983 Y100.716 E285.99909
G1 X126.392 Y100.716 E286.8359
G1 X126.391 Y100.716 E286.83605
G1 X125.987 Y100.716 E286.89652
G1 X126.106 Y101.103 E286.93274
G1 X127.088 Y104.292 E287.43216
G1 X127.444 Y106.727 E287.80048
G1 X127.425 Y109.177 E288.16718
G1 X127.034 Y111.605 E288.53527
G1 X126.277 Y113.945 E288.90337
G1 X125.174 Y116.139 E289.27091
G1 X123.753 Y118.137 E289.63787
G1 X122.014 Y119.927 E290.01139
G1 X121.475 Y120.399 E290.11862
G1 X121.914 Y121.565 E290.3051
G0 F6000 X121.499 Y122.165
G1 F1200 X131.681 Y122.166 E291.82904
G1 X132.042 Y122.193 E291.88323
G1 X132.324 Y122.208 E291.92549
G1 X132.828 Y122.334 E292.00325
G1 X132.876 Y122.361 E292.01149
G1 X132.876 Y122.868 E292.08737
G1 X132.862 Y123.086 E292.12007
G1 X132.831 Y123.101 E292.12522
G1 X132.536 Y123.198 E292.1717
G1 X132.287 Y123.223 E292.20916
G1 X131.572 Y123.281 E292.31652
G1 X80.988 Y123.28 E299.88746
G1 X79.476 Y123.176 E300.1143
G1 X79.05 Y123.07 E300.18
G1 X78.629 Y122.951 E300.24548
G1 X78.518 Y122.884 E300.26489
G1 X78.505 Y121.683 E300.44465
G1 X78.662 Y121.588 E300.47212
G1 X78.918 Y121.516 E300.51192
G1 X79.47 Y121.383 E300.5969
G1 X80.351 Y121.321 E300.72909
G1 X80.999 Y121.28 E300.82627
G1 X118.074 Y121.28 E306.37531
G1 X119.376 Y120.531 E306.60012
G1 X120.411 Y119.761 E306.7932
G1 X120.419 Y119.755 E306.7947
G1 X121.283 Y119.111 E306.95598
G1 X122.932 Y117.409 E307.31067
G1 X122.961 Y117.38 E307.31681
G1 X124.245 Y115.54 E307.65263
G1 X124.34 Y115.404 E307.67746
G1 X125.258 Y113.496 E307.99436
G1 X125.385 Y113.233 E308.03808
G1 X125.953 Y111.313 E308.33775
G1 X126.069 Y110.921 E308.39894
G1 X126.304 Y109.065 E308.67895
G1 X126.366 Y108.578 E308.75243
G1 X126.373 Y108.53 E308.75969
G1 X126.315 Y106.788 E309.02056
G1 X126.292 Y106.121 E309.12045
G1 X125.977 Y104.525 E309.36393
G1 X125.825 Y103.756 E309.48125
G1 X125.059 Y101.698 E309.80992
G1 X124.965 Y101.303 E309.87069
G1 X124.995 Y101.122 E309.89815
G1 X125.097 Y100.962 E309.92655
G1 X125.251 Y100.856 E309.95453
G1 X125.393 Y100.828 E309.97619
G1 X125.405 Y100.867
G1 X125.441 Y100.985 E309.98356
G1 X125.489 Y101.141 E310.00411
G1 X125.608 Y101.528 E310.06104
G1 X126.254 Y103.623 E310.34122
G1 X126.5 Y104.421 E310.44439
G1 X126.739 Y106.055 E310.64774
G1 X126.844 Y106.77 E310.737
G1 X126.83 Y108.533 E310.95446
G1 X126.825 Y109.13 E311.02977
G1 X126.525 Y110.994 E311.26255
G1 X126.45 Y111.46 E311.32115
G1 X125.83 Y113.376 E311.56911
G1 X125.72 Y113.717 E311.61387
G1 X124.764 Y115.617 E311.87598
G1 X124.658 Y115.828 E311.90579
G1 X123.356 Y117.66 E312.18297
G1 X123.289 Y117.754 E312.19811
G1 X121.637 Y119.454 E312.49071
G1 X121.599 Y119.493 E312.49814
G1 X120.767 Y120.221 E312.64698
G1 X120.77 Y120.231 E312.64852
G1 X121.499 Y122.165 E312.95787
G0 F6000 X121.673 Y120.449
G0 X127.605 Y106.714
G0 X126.226 Y100.893
G0 X132.583 Y100.116
G1 F1200 X132.583 Y96.719 E313.4663
G1 X135.56 Y96.719 E313.91187
G1 X135.56 Y99.674 E314.35415
G1 X135.512 Y99.916 E314.39107
G1 X135.36 Y100.068 E314.42324
G1 X135.118 Y100.116 E314.46017
G1 X132.583 Y100.116 E314.83959
G0 F6000 X133.273 Y99.426
;TYPE:SKIN
G1 F1200 X133.273 Y97.409 E315.2421
G1 X134.87 Y97.409 E315.5608
G1 X134.87 Y99.426 E315.96331
G1 X133.273 Y99.426 E316.28201
G0 F6000 X134.168 Y99.096
G1 F1200 X133.602 Y98.529 E316.44189
G0 F6000 X133.942 Y97.739
G1 F1200 X134.539 Y98.335 E316.61023
G1 F1500 E310.11023
G0 F6000 X135.35 Y98.335
G0 X135.261 Y99.782
G0 X133.669 Y100.881
G0 X126.226 Y100.893
G0 X127.192 Y108.561
G0 X120.679 Y120.587
G1 F1500 E316.61023
G0 F6000 X120.231 Y120.755
G1 F1200 X120.922 Y122.591 E317.00172
G1 X81.006 Y122.59 E324.96739
G1 X79.583 Y122.492 E325.25204
G1 X79.203 Y122.396 E325.33025
G1 X79.2 Y122.158 E325.37775
G1 X79.578 Y122.067 E325.45534
G1 X80.399 Y122.009 E325.61959
G1 X81.011 Y121.97 E325.74197
G1 X118.258 Y121.97 E333.17501
G1 X119.755 Y121.109 E333.51964
G1 X120.231 Y120.755 E333.63802
G0 F6000 X120.679 Y120.587
G0 X120.419 Y120.111
G0 X119.017 Y120.981
G0 X119.419 Y121.682
G1 F1200 X119.998 Y122.26 E333.80128
G0 F6000 X119.997 Y123.07
G0 X118.865 Y123.07
G0 X118.866 Y122.26
G1 F1200 X118.701 Y122.095 E333.84785
G0 F6000 X118.299 Y121.394
G0 X120.419 Y120.111
G0 X121.34 Y122.393
G0 X121.275 Y122.547
;TYPE:SKIN
G1 F1200 X121.777 Y123.05 E333.90103
G0 F6000 X122.201 Y123.05
G1 F1200 X121.545 Y122.394 E333.97046
G0 F6000 X121.97 Y122.394
G1 F1200 X122.625 Y123.05 E334.03983
G0 F6000 X123.05 Y123.05
G1 F1200 X122.394 Y122.394 E334.10926
G0 F6000 X122.818 Y122.394
G1 F1200 X123.474 Y123.05 E334.17868
G0 F6000 X123.898 Y123.05
G1 F1200 X123.243 Y122.394 E334.24806
G0 F6000 X123.667 Y122.394
G1 F1200 X124.322 Y123.05 E334.31743
G0 F6000 X124.747 Y123.05
G1 F1200 X124.091 Y122.394 E334.38686
G0 F6000 X124.515 Y122.394
G1 F1200 X125.171 Y123.05 E334.45629
G0 F6000 X125.595 Y123.05
G1 F1200 X124.94 Y122.395 E334.52561
G0 F6000 X125.365 Y122.395
G1 F1200 X126.019 Y123.05 E334.59487
G0 F6000 X126.444 Y123.05
G1 F1200 X125.789 Y122.395 E334.66419
G0 F6000 X126.213 Y122.395
G1 F1200 X126.869 Y123.05 E334.73357
G0 F6000 X127.293 Y123.05
G1 F1200 X126.637 Y122.395 E334.80294
G0 F6000 X127.062 Y122.395
G1 F1200 X127.717 Y123.05 E334.87226
G0 F6000 X128.141 Y123.05
G1 F1200 X127.486 Y122.395 E334.94158
G0 F6000 X127.91 Y122.395
G1 F1200 X128.566 Y123.05 E335.01096
G0 F6000 X128.99 Y123.05
G1 F1200 X128.335 Y122.395 E335.08028
G0 F6000 X128.759 Y122.395
G1 F1200 X129.414 Y123.05 E335.1496
G0 F6000 X129.838 Y123.05
G1 F1200 X129.184 Y122.395 E335.21887
G0 F6000 X129.608 Y122.395
G1 F1200 X130.263 Y123.05 E335.28819
G0 F6000 X130.687 Y123.05
G1 F1200 X130.032 Y122.395 E335.35751
G0 F6000 X130.456 Y122.395
G1 F1200 X131.111 Y123.05 E335.42683
G0 F6000 X131.536 Y123.05
G1 F1200 X130.881 Y122.395 E335.49615
G0 F6000 X131.305 Y122.395
G1 F1200 X131.93 Y123.021 E335.56235
G0 F6000 X132.322 Y122.988
G1 F1200 X131.734 Y122.4 E335.62458
G0 F6000 X132.188 Y122.43
G1 F1200 X132.645 Y122.887 E335.67294
G1 F1500 E329.17294
G0 F6000 X132.646 Y122.92
G0 X132.397 Y121.449
G0 X122.03 Y121.397
G0 X121.673 Y120.449
G0 X127.605 Y106.714
G0 X126.226 Y100.893
G0 X135.582 Y100.8
G0 X136.13 Y96.673
G0 X135.975 Y96.518
G1 F1500 E335.67294
G1 F1200 X136.399 Y96.518 E335.7068
G1 X141.914 Y96.518 E336.14723
G1 X142.299 Y96.478 E336.17815
G0 F6000 X142.26 Y96.519
;MESH:NONMESH
G0 F300 X142.26 Y96.519 Z1.2
G0 F6000 X136.332 Y97.091
G0 X135.226 Y99.817
G0 X132.583 Y100.116
;TIME_ELAPSED:102.054185
;LAYER:1
M140 S90
;TYPE:WALL-INNER
;MESH:maniglia uniklat 32 mm.stl
G1 F1575 X132.583 Y96.719 E336.68658
G1 X135.56 Y96.719 E337.13215
G1 X135.56 Y99.674 E337.57442
G1 X135.512 Y99.916 E337.61135
G1 X135.36 Y100.068 E337.64352
G1 X135.118 Y100.116 E337.68045
G1 X132.583 Y100.116 E338.05986
G0 F7875 X126.226 Y100.893
G0 X127.422 Y110.38
G0 X121.673 Y120.449
G0 X121.499 Y122.165
G1 F1575 X130.15 Y122.165 E339.35466
G1 X130.48 Y122.18 E339.40411
G1 X131.218 Y122.223 E339.51475
G1 X131.7 Y122.319 E339.58831
G1 X131.979 Y122.43 E339.63325
G1 X132.01 Y122.442 E339.63822
G1 X131.974 Y123.017 E339.72445
G1 X131.942 Y123.025 E339.72939
G1 X131.334 Y123.19 E339.82368
G1 X130.333 Y123.271 E339.97399
G1 X130.149 Y123.28 E340.00156
G1 X83.011 Y123.28 E347.05674
G1 X82.32 Y123.246 E347.16028
G1 X81.728 Y123.209 E347.24906
G1 X81.116 Y123.174 E347.34081
G1 X80.912 Y123.133 E347.37195
G1 X79.993 Y122.92 E347.51315
G1 X79.804 Y122.823 E347.54494
G1 X79.801 Y121.737 E347.70749
G1 X79.994 Y121.634 E347.74023
G1 X80.364 Y121.547 E347.79712
G1 X81.141 Y121.384 E347.91594
G1 X81.822 Y121.343 E348.01805
G1 X83.001 Y121.28 E348.19477
G1 X118.074 Y121.28 E353.44416
G1 X119.376 Y120.531 E353.66898
G1 X120.411 Y119.761 E353.86206
G1 X120.419 Y119.755 E353.86355
G1 X121.283 Y119.111 E354.02484
G1 X122.932 Y117.409 E354.37953
G1 X122.961 Y117.38 E354.38567
G1 X124.245 Y115.54 E354.72149
G1 X124.34 Y115.404 E354.74632
G1 X125.258 Y113.496 E355.06322
G1 X125.385 Y113.233 E355.10693
G1 X125.953 Y111.313 E355.40661
G1 X126.069 Y110.921 E355.4678
G1 X126.304 Y109.065 E355.7478
G1 X126.366 Y108.578 E355.82128
G1 X126.373 Y108.53 E355.82854
G1 X126.315 Y106.788 E356.08941
G1 X126.292 Y106.121 E356.1893
G1 X125.977 Y104.525 E356.43279
G1 X125.825 Y103.756 E356.55011
G1 X125.059 Y101.698 E356.87878
G1 X124.965 Y101.303 E356.93955
G1 X124.995 Y101.122 E356.96701
G1 X125.097 Y100.962 E356.99541
G1 X125.251 Y100.856 E357.02339
G1 X125.393 Y100.828 E357.04505
G1 X125.405 Y100.867
G1 X125.441 Y100.985 E357.05242
G1 X125.489 Y101.141 E357.07297
G1 X125.608 Y101.528 E357.1299
G1 X126.254 Y103.623 E357.41007
G1 X126.5 Y104.421 E357.51325
G1 X126.739 Y106.055 E357.7166
G1 X126.844 Y106.77 E357.80586
G1 X126.83 Y108.533 E358.02332
G1 X126.825 Y109.13 E358.09863
G1 X126.525 Y110.994 E358.33141
G1 X126.45 Y111.46 E358.39001
G1 X125.83 Y113.376 E358.63797
G1 X125.72 Y113.717 E358.68273
G1 X124.764 Y115.617 E358.94484
G1 X124.658 Y115.828 E358.97464
G1 X123.356 Y117.66 E359.25183
G1 X123.289 Y117.754 E359.26697
G1 X121.637 Y119.454 E359.55957
G1 X121.599 Y119.493 E359.567
G1 X120.767 Y120.221 E359.71584
G1 X120.77 Y120.231 E359.71738
G1 X121.499 Y122.165 E360.02673
G0 F7875 X121.914 Y121.565
G1 F1575 X130.155 Y121.565 E361.26016
G1 X130.515 Y121.581 E361.3141
G1 X131.298 Y121.627 E361.43149
G1 X131.817 Y121.73 E361.51068
G1 X132.026 Y121.782 E361.54292
G1 X132.447 Y121.989 E361.61313
G1 X132.586 Y122.123 E361.64203
G1 X132.622 Y122.27 E361.66468
G1 X132.561 Y123.246 E361.81105
G1 X132.512 Y123.383 E361.83282
G1 X132.308 Y123.548 E361.87209
G1 X132.131 Y123.595 E361.8995
G1 X131.437 Y123.784 E362.00716
G1 X130.376 Y123.869 E362.16647
G1 X130.364 Y123.869 E362.16826
G1 X130.182 Y123.878 E362.19554
G1 X130.16 Y123.88 E362.19884
G1 X83.003 Y123.88 E369.25686
G1 X82.282 Y123.845 E369.3649
G1 X81.692 Y123.808 E369.45338
G1 X81.041 Y123.771 E369.55097
G1 X80.777 Y123.718 E369.59127
G1 X79.787 Y123.489 E369.74336
G1 X79.379 Y123.279 E369.81204
G1 X79.279 Y123.218 E369.82957
G1 X79.205 Y123.069 E369.85447
G1 X79.2 Y121.491 E370.09065
G1 X79.274 Y121.343 E370.11542
G1 X79.331 Y121.308 E370.12543
G1 X79.78 Y121.068 E370.20163
G1 X80.227 Y120.963 E370.27035
G1 X80.241 Y120.961 E370.27247
G1 X81.017 Y120.798 E370.39115
G1 X81.063 Y120.788 E370.39819
G1 X81.786 Y120.744 E370.50661
G1 X82.969 Y120.682 E370.68391
G1 X82.988 Y120.68 E370.68677
G1 X117.914 Y120.68 E375.91416
G1 X119.046 Y120.029 E376.10961
G1 X120.886 Y118.659 E376.45296
G1 X122.497 Y116.997 E376.79939
G1 X123.82 Y115.1 E377.14555
G1 X124.823 Y113.016 E377.4917
G1 X125.48 Y110.797 E377.83808
G1 X125.772 Y108.502 E378.18434
G1 X125.694 Y106.19 E378.53057
G1 X125.246 Y103.92 E378.87688
G1 X124.482 Y101.867 E379.20474
G1 X124.353 Y101.325 E379.28813
G1 X124.423 Y100.902 E379.3523
G1 X124.657 Y100.536 E379.41732
G1 X125.011 Y100.293 E379.48158
G1 X125.526 Y100.188 E379.56025
G1 X125.987 Y100.188 E379.62925
G1 X131.983 Y100.188 E380.52667
G1 X131.983 Y96.119 E381.13568
G1 X142.66 Y96.119 E382.73372
G1 X142.66 Y96.919 E382.85345
G1 X136.16 Y96.919 E383.82631
G1 X136.16 Y99.731 E384.24718
G1 X136.076 Y100.153 E384.31158
G1 X135.884 Y100.44 E384.36327
G1 X135.597 Y100.632 E384.41495
G1 X135.478 Y100.655 E384.43309
G1 X135.237 Y100.703 E384.46987
G1 X135.175 Y100.716 E384.47935
G1 X131.983 Y100.716 E384.9571
G1 X126.392 Y100.716 E385.79391
G1 X126.391 Y100.716 E385.79405
G1 X125.987 Y100.716 E385.85452
G1 X126.106 Y101.103 E385.89075
G1 X127.088 Y104.292 E386.39016
G1 X127.444 Y106.727 E386.75849
G1 X127.425 Y109.177 E387.12519
G1 X127.034 Y111.605 E387.49327
G1 X126.277 Y113.945 E387.86137
G1 X125.174 Y116.139 E388.22891
G1 X123.753 Y118.137 E388.59587
G1 X122.014 Y119.927 E388.96939
G1 X121.475 Y120.399 E389.07663
G1 X121.914 Y121.565 E389.2631
G0 F7875 X122.26 Y121.065
;TYPE:WALL-OUTER
G1 F1575 X130.177 Y121.065 E390.44804
G1 X130.537 Y121.081 E390.50198
G1 X131.359 Y121.13 E390.62523
G1 X131.939 Y121.245 E390.71373
G1 X132.198 Y121.31 E390.75369
G1 X132.737 Y121.574 E390.84352
G1 X133.024 Y121.85 E390.90312
G1 X133.122 Y122.153 E390.95078
G1 X133.122 Y122.285 E390.97054
G1 X133.056 Y123.348 E391.12994
G1 X132.934 Y123.685 E391.18359
G1 X132.541 Y124.003 E391.25925
G1 X131.528 Y124.278 E391.41635
G1 X130.409 Y124.368 E391.58438
G1 X130.164 Y124.38 E391.62109
G1 X83 Y124.38 E398.68015
G1 X82.251 Y124.344 E398.79239
G1 X81.662 Y124.307 E398.88072
G1 X80.978 Y124.268 E398.98326
G1 X80.664 Y124.205 E399.03119
G1 X79.611 Y123.961 E399.19297
G1 X79.141 Y123.719 E399.27209
G1 X78.896 Y123.572 E399.31486
G1 X78.705 Y123.185 E399.37945
G1 X78.7 Y121.374 E399.6505
G1 X78.891 Y120.989 E399.71483
G1 X79.086 Y120.872 E399.74886
G1 X79.602 Y120.596 E399.83645
G1 X80.113 Y120.476 E399.91501
G1 X80.999 Y120.291 E400.05048
G1 X81.756 Y120.245 E400.16399
G1 X82.98 Y120.18 E400.34744
G1 X117.78 Y120.18 E405.55598
G1 X118.771 Y119.61 E405.72709
G1 X120.555 Y118.282 E406.05996
G1 X122.11 Y116.678 E406.39432
G1 X123.387 Y114.847 E406.72844
G1 X124.355 Y112.835 E407.06262
G1 X124.989 Y110.694 E407.39681
G1 X125.271 Y108.479 E407.73101
G1 X125.196 Y106.247 E408.06526
G1 X124.763 Y104.057 E408.39939
G1 X124.004 Y102.017 E408.72516
G1 X123.843 Y101.342 E408.82903
G1 X123.947 Y100.718 E408.92371
G1 X124.289 Y100.182 E409.01887
G1 X124.812 Y99.823 E409.11382
G1 X125.475 Y99.688 E409.21508
G1 X131.483 Y99.688 E410.11431
G1 X131.483 Y95.619 E410.72332
G1 X143.16 Y95.619 E412.47102
G1 X143.16 Y97.419 E412.74043
G1 X136.66 Y97.419 E413.71328
G1 X136.66 Y99.777 E414.06621
G1 X136.547 Y100.348 E414.15333
G1 X136.244 Y100.8 E414.23477
G1 X135.792 Y101.103 E414.31622
G1 X135.222 Y101.216 E414.40319
G1 X126.664 Y101.216 E415.68407
G1 X127.577 Y104.182 E416.14855
G1 X127.944 Y106.691 E416.52807
G1 X127.925 Y109.222 E416.9069
G1 X127.522 Y111.722 E417.2859
G1 X126.741 Y114.136 E417.66565
G1 X125.606 Y116.394 E418.0439
G1 X124.137 Y118.459 E418.42319
G1 X122.356 Y120.292 E418.80571
G1 X122.065 Y120.547 E418.86362
G1 X122.26 Y121.065 E418.94646
G0 F7875 X122.26 Y121.465
G0 X131.625 Y122.58
G0 X131.288 Y122.922
G0 X130.635 Y122.971
G0 X120.921 Y123.07
G0 X120.921 Y122.59
;TYPE:SKIN
G1 F1575 X83.045 Y122.59 E426.50503
G1 X82.237 Y122.55 E426.66647
G1 X81.2 Y122.488 E426.87379
G1 X81.059 Y122.459 E426.90251
G1 X80.492 Y122.328 E427.01864
G1 X80.506 Y122.223 E427.03978
G1 X81.243 Y122.068 E427.19008
G1 X81.718 Y122.04 E427.28503
G1 X83.019 Y121.97 E427.54504
G1 X118.258 Y121.97 E434.57736
G1 X119.755 Y121.109 E434.92199
G1 X120.231 Y120.755 E435.04037
G1 X120.921 Y122.59 E435.4316
G0 F7875 X120.283 Y121.83
G1 F1575 X119.853 Y122.259 E435.55281
G0 F7875 X119.138 Y121.843
G1 F1575 X118.722 Y122.259 E435.67022
G0 F7875 X118.722 Y123.07
G0 X130.32 Y123
G0 X131.288 Y122.922
G0 X131.709 Y122.801
G0 X131.18 Y122.492
G0 X130.885 Y122.477
G0 X121.309 Y122.375
G0 X121.309 Y122.642
;TYPE:SKIN
G1 F1575 X121.558 Y122.393 E435.69657
G0 F7875 X121.982 Y122.393
G1 F1575 X121.425 Y122.95 E435.75552
G0 F7875 X121.75 Y123.05
G1 F1575 X122.406 Y122.393 E435.825
G0 F7875 X122.83 Y122.393
G1 F1575 X122.174 Y123.05 E435.89448
G0 F7875 X122.598 Y123.05
G1 F1575 X123.255 Y122.393 E435.96401
G0 F7875 X123.679 Y122.393
G1 F1575 X123.023 Y123.05 E436.03349
G0 F7875 X123.447 Y123.05
G1 F1575 X124.103 Y122.393 E436.10297
G0 F7875 X124.527 Y122.393
G1 F1575 X123.871 Y123.05 E436.17245
G0 F7875 X124.295 Y123.05
G1 F1575 X124.952 Y122.393 E436.24198
G0 F7875 X125.376 Y122.393
G1 F1575 X124.72 Y123.05 E436.31146
G0 F7875 X125.144 Y123.05
G1 F1575 X125.8 Y122.393 E436.38094
G0 F7875 X126.224 Y122.393
G1 F1575 X125.568 Y123.05 E436.45042
G0 F7875 X125.992 Y123.05
G1 F1575 X126.649 Y122.393 E436.51995
G0 F7875 X127.073 Y122.393
G1 F1575 X126.417 Y123.05 E436.58943
G0 F7875 X126.841 Y123.05
G1 F1575 X127.497 Y122.393 E436.65891
G0 F7875 X127.921 Y122.393
G1 F1575 X127.265 Y123.05 E436.72839
G0 F7875 X127.69 Y123.05
G1 F1575 X128.346 Y122.393 E436.79787
G0 F7875 X128.77 Y122.393
G1 F1575 X128.114 Y123.05 E436.86735
G0 F7875 X128.538 Y123.05
G1 F1575 X129.194 Y122.393 E436.93683
G0 F7875 X129.619 Y122.393
G1 F1575 X128.962 Y123.05 E437.00636
G0 F7875 X129.387 Y123.05
G1 F1575 X130.043 Y122.393 E437.07584
G0 F7875 X130.453 Y122.407
G1 F1575 X129.811 Y123.05 E437.14384
G0 F7875 X130.24 Y123.045
G1 F1575 X130.854 Y122.431 E437.20882
G0 F7875 X131.246 Y122.463
G1 F1575 X130.699 Y123.01 E437.26671
G0 F7875 X131.161 Y122.972
G1 F1575 X131.601 Y122.533 E437.31322
G0 F7875 X131.756 Y122.801
G1 F1575 X131.707 Y122.85 E437.31841
G1 F1500 E430.81841
G0 F7875 X131.756 Y122.839
G0 X130.134 Y123.009
G0 X83.026 Y123.009
G0 X80.965 Y122.868
G0 X80.082 Y122.654
G0 X80.103 Y121.824
G1 F1500 E437.31841
G0 F7875 X80.106 Y121.842
G1 F1575 X80.031 Y121.917 E437.32635
G1 F1500 E430.82635
G0 F7875 X80.034 Y121.863
G0 X86.709 Y120.498
G0 X117.87 Y120.518
G0 X118.957 Y119.894
G0 X120.78 Y118.538
G0 X122.372 Y116.894
G0 X123.681 Y115.019
G0 X124.673 Y112.957
G0 X125.323 Y110.764
G0 X126.571 Y102.071
G0 X126.226 Y100.893
G0 X131.811 Y100.016
G0 X132.793 Y99.426
G1 F1500 E437.32635
G0 F7875 X133.273 Y99.426
;TYPE:SKIN
G1 F1575 X133.273 Y97.409 E437.72886
G1 X134.87 Y97.409 E438.04756
G1 X134.87 Y99.426 E438.45007
G1 X133.273 Y99.426 E438.76877
G0 F7875 X132.793 Y99.426
G0 X132.865 Y99.834
G0 X135.226 Y99.817
G0 X135.35 Y98.523
G0 X134.539 Y98.523
G1 F1575 X133.966 Y99.096 E438.93049
G0 F7875 X133.602 Y98.328
G1 F1575 X134.191 Y97.739 E439.09671
G0 F7875 X134.191 Y96.929
G0 X135.822 Y96.674
G0 X135.977 Y96.518
;TYPE:SKIN
G1 F1575 X136.401 Y96.518 E439.1322
G1 X141.917 Y96.518 E439.59384
G1 X142.3 Y96.56 E439.62609
G0 F7875 X142.414 Y96.446
G0 X136.332 Y97.091
G0 X135.761 Y100.129
G1 F1575 X135.572 Y100.317 E439.64604
G0 F7875 X135.492 Y100.31
;MESH:NONMESH
G0 F300 X135.492 Y100.31 Z1.8
G0 F7875 X132.583 Y100.116
;TIME_ELAPSED:137.418637
;LAYER:2
;TYPE:WALL-INNER
;MESH:maniglia uniklat 32 mm.stl
G1 F1950 X132.583 Y96.719 E440.15447
G1 X135.56 Y96.719 E440.60004
G1 X135.56 Y99.674 E441.04231
G1 X135.512 Y99.916 E441.07924
G1 X135.36 Y100.068 E441.11141
G1 X135.118 Y100.116 E441.14834
G1 X132.583 Y100.116 E441.52775
G0 F9750 X126.226 Y100.893
G0 X127.422 Y110.378
G0 X121.67 Y120.45
G0 X121.495 Y122.167
G1 F1950 X126.629 Y122.169 E442.29616
G1 X127.93 Y122.181 E442.49089
G1 X129.285 Y122.216 E442.69376
G1 X129.534 Y122.227 E442.73107
G1 X130.536 Y122.371 E442.88258
G1 X130.566 Y122.377 E442.88716
G1 X130.777 Y122.46 E442.92109
G1 X130.931 Y122.519 E442.94578
G1 X130.905 Y122.891 E443.00159
G1 X130.76 Y122.979 E443.02698
G1 X130.601 Y123.022 E443.04949
G1 X130.315 Y123.1 E443.09386
G1 X129.828 Y123.18 E443.16773
G1 X128.131 Y123.259 E443.42199
G1 X128.063 Y123.266 E443.43222
G1 X121.258 Y123.263 E444.45073
G1 X117.674 Y123.255 E444.98715
G1 X92.198 Y123.254 E448.80016
G1 X84.987 Y123.266 E449.87944
G1 X84.588 Y123.254 E449.93918
G1 X83.802 Y123.204 E450.05706
G1 X83.18 Y123.173 E450.15027
G1 X82.332 Y123.032 E450.27893
G1 X81.676 Y122.902 E450.37903
G1 X81.319 Y122.744 E450.43746
G1 X81.32 Y122.442 E450.48266
G1 X81.31 Y121.827 E450.57472
G1 X81.684 Y121.652 E450.63652
G1 X81.837 Y121.62 E450.65992
G1 X83.17 Y121.387 E450.86245
G1 X83.417 Y121.374 E450.89947
G1 X84.52 Y121.306 E451.06487
G1 X84.982 Y121.294 E451.13404
G1 X91.375 Y121.302 E452.09089
G1 X97.177 Y121.292 E452.95928
G1 X118.048 Y121.294 E456.08305
G1 X119.376 Y120.532 E456.31221
G1 X120.408 Y119.763 E456.50484
G1 X120.417 Y119.756 E456.50655
G1 X121.283 Y119.111 E456.66816
G1 X122.932 Y117.409 E457.02285
G1 X122.961 Y117.38 E457.02899
G1 X124.245 Y115.54 E457.36481
G1 X124.34 Y115.404 E457.38964
G1 X125.258 Y113.496 E457.70654
G1 X125.385 Y113.233 E457.75026
G1 X125.953 Y111.313 E458.04994
G1 X126.069 Y110.921 E458.11112
G1 X126.304 Y109.065 E458.39113
G1 X126.366 Y108.578 E458.46461
G1 X126.373 Y108.53 E458.47187
G1 X126.315 Y106.788 E458.73274
G1 X126.292 Y106.121 E458.83263
G1 X125.977 Y104.525 E459.07611
G1 X125.825 Y103.756 E459.19343
G1 X125.059 Y101.698 E459.5221
G1 X124.965 Y101.303 E459.58287
G1 X124.995 Y101.122 E459.61033
G1 X125.097 Y100.962 E459.63873
G1 X125.251 Y100.856 E459.66671
G1 X125.393 Y100.828 E459.68837
G1 X125.405 Y100.867
G1 X125.441 Y100.985 E459.69574
G1 X125.489 Y101.141 E459.71629
G1 X125.608 Y101.528 E459.77322
G1 X126.254 Y103.623 E460.0534
G1 X126.5 Y104.421 E460.15658
G1 X126.739 Y106.055 E460.35992
G1 X126.844 Y106.77 E460.44918
G1 X126.83 Y108.533 E460.66664
G1 X126.825 Y109.13 E460.74195
G1 X126.525 Y110.994 E460.97474
G1 X126.45 Y111.46 E461.03333
G1 X125.83 Y113.376 E461.2813
G1 X125.72 Y113.717 E461.32605
G1 X124.764 Y115.617 E461.58816
G1 X124.658 Y115.828 E461.61797
G1 X123.356 Y117.66 E461.89515
G1 X123.289 Y117.754 E461.91029
G1 X121.637 Y119.454 E462.20289
G1 X121.611 Y119.48 E462.20791
G1 X120.764 Y120.221 E462.35914
G1 X120.768 Y120.232 E462.36089
G1 X121.495 Y122.167 E462.67027
G0 F9750 X121.911 Y121.567
G1 F1950 X126.634 Y121.569 E463.37716
G1 X127.945 Y121.581 E463.57339
G1 X129.3 Y121.616 E463.77626
G1 X129.595 Y121.63 E463.82046
G1 X130.633 Y121.779 E463.97741
G1 X130.731 Y121.798 E463.99235
G1 X131.344 Y122.036 E464.09077
G1 X131.551 Y122.216 E464.13183
G1 X131.551 Y122.254 E464.13752
G1 X131.489 Y123.144 E464.27105
G1 X131.423 Y123.279 E464.29354
G1 X131 Y123.536 E464.36762
G1 X130.445 Y123.687 E464.4537
G1 X129.925 Y123.771 E464.53254
G1 X129.893 Y123.777 E464.53741
G1 X129.857 Y123.778 E464.54281
G1 X128.174 Y123.858 E464.79499
G1 X128.09 Y123.866 E464.80761
G1 X121.257 Y123.863 E465.83031
G1 X117.673 Y123.855 E466.36673
G1 X92.198 Y123.854 E470.17959
G1 X84.97 Y123.866 E471.26141
G1 X84.562 Y123.854 E471.32251
G1 X83.768 Y123.803 E471.44159
G1 X83.113 Y123.77 E471.53975
G1 X82.215 Y123.621 E471.67599
G1 X81.495 Y123.478 E471.78586
G1 X80.796 Y123.169 E471.90024
G1 X80.719 Y123.037 E471.92312
G1 X80.72 Y122.446 E472.01157
G1 X80.705 Y121.533 E472.14824
G1 X80.782 Y121.412 E472.1697
G1 X81.494 Y121.079 E472.28735
G1 X81.714 Y121.034 E472.32096
G1 X81.734 Y121.029 E472.32404
G1 X83.102 Y120.79 E472.5319
G1 X83.137 Y120.789 E472.53714
G1 X83.382 Y120.775 E472.57386
G1 X84.495 Y120.706 E472.74077
G1 X84.968 Y120.694 E472.81158
G1 X91.375 Y120.702 E473.77053
G1 X97.176 Y120.692 E474.63877
G1 X117.888 Y120.694 E477.73874
G1 X119.046 Y120.029 E477.93861
G1 X120.886 Y118.659 E478.28195
G1 X122.497 Y116.997 E478.62839
G1 X123.82 Y115.1 E478.97454
G1 X124.823 Y113.016 E479.3207
G1 X125.48 Y110.797 E479.66707
G1 X125.772 Y108.502 E480.01334
G1 X125.694 Y106.19 E480.35957
G1 X125.246 Y103.92 E480.70588
G1 X124.482 Y101.867 E481.03374
G1 X124.353 Y101.325 E481.11712
G1 X124.423 Y100.902 E481.1813
G1 X124.657 Y100.536 E481.24631
G1 X125.011 Y100.293 E481.31058
G1 X125.526 Y100.188 E481.38925
G1 X125.987 Y100.188 E481.45824
G1 X131.983 Y100.188 E482.35567
G1 X131.983 Y96.119 E482.96468
G1 X142.66 Y96.119 E484.56271
G1 X142.66 Y96.919 E484.68245
G1 X136.16 Y96.919 E485.65531
G1 X136.16 Y99.731 E486.07618
G1 X136.076 Y100.153 E486.14058
G1 X135.884 Y100.44 E486.19226
G1 X135.597 Y100.632 E486.24394
G1 X135.478 Y100.655 E486.26208
G1 X135.237 Y100.703 E486.29886
G1 X135.175 Y100.716 E486.30835
G1 X131.983 Y100.716 E486.78609
G1 X126.392 Y100.716 E487.6229
G1 X126.391 Y100.716 E487.62305
G1 X125.987 Y100.716 E487.68352
G1 X126.106 Y101.103 E487.71974
G1 X127.088 Y104.292 E488.21916
G1 X127.444 Y106.727 E488.58748
G1 X127.425 Y109.177 E488.95419
G1 X127.034 Y111.605 E489.32227
G1 X126.277 Y113.945 E489.69037
G1 X125.174 Y116.139 E490.05791
G1 X123.753 Y118.137 E490.42487
G1 X122.019 Y119.921 E490.79723
G1 X121.472 Y120.399 E490.90595
G1 X121.911 Y121.567 E491.09271
G0 F9750 X122.257 Y121.067
;TYPE:WALL-OUTER
G1 F1950 X126.639 Y121.069 E491.74856
G1 X127.958 Y121.081 E491.94599
G1 X129.313 Y121.117 E492.14886
G1 X129.648 Y121.132 E492.19905
G1 X130.707 Y121.284 E492.35918
G1 X130.873 Y121.317 E492.38451
G1 X131.589 Y121.595 E492.49947
G1 X131.965 Y121.882 E492.57026
G1 X132.051 Y122.131 E492.60969
G1 X132.051 Y122.275 E492.63124
G1 X131.981 Y123.276 E492.78143
G1 X131.853 Y123.539 E492.82521
G1 X131.805 Y123.632 E492.84087
G1 X131.201 Y123.999 E492.94665
G1 X130.551 Y124.176 E493.04748
G1 X129.944 Y124.275 E493.13953
G1 X128.21 Y124.357 E493.39935
G1 X128.118 Y124.366 E493.41319
G1 X121.257 Y124.363 E494.44008
G1 X117.673 Y124.355 E494.9765
G1 X92.198 Y124.354 E498.78936
G1 X84.957 Y124.366 E499.87312
G1 X84.543 Y124.354 E499.93511
G1 X83.739 Y124.302 E500.0557
G1 X83.058 Y124.268 E500.15775
G1 X82.127 Y124.113 E500.29901
G1 X81.344 Y123.957 E500.41851
G1 X80.545 Y123.604 E500.54925
G1 X80.423 Y123.521 E500.57133
G1 X80.219 Y123.172 E500.63183
G1 X80.22 Y122.45 E500.7399
G1 X80.203 Y121.391 E500.89842
G1 X80.439 Y121.02 E500.96423
G1 X81.336 Y120.601 E501.11241
G1 X81.633 Y120.54 E501.15779
G1 X83.047 Y120.292 E501.37265
G1 X83.353 Y120.276 E501.41851
G1 X84.479 Y120.206 E501.58737
G1 X84.956 Y120.194 E501.65878
G1 X91.375 Y120.202 E502.61952
G1 X97.175 Y120.192 E503.48761
G1 X117.754 Y120.194 E506.56768
G1 X118.771 Y119.61 E506.74321
G1 X120.555 Y118.282 E507.07608
G1 X122.11 Y116.678 E507.41045
G1 X123.387 Y114.847 E507.74456
G1 X124.355 Y112.835 E508.07874
G1 X124.989 Y110.694 E508.41294
G1 X125.271 Y108.479 E508.74713
G1 X125.196 Y106.247 E509.08139
G1 X124.763 Y104.057 E509.41551
G1 X124.004 Y102.017 E509.74129
G1 X123.843 Y101.342 E509.84515
G1 X123.947 Y100.718 E509.93983
G1 X124.289 Y100.182 E510.03499
G1 X124.812 Y99.823 E510.12994
G1 X125.475 Y99.688 E510.23121
G1 X131.483 Y99.688 E511.13043
G1 X131.483 Y95.619 E511.73944
G1 X143.16 Y95.619 E513.48714
G1 X143.16 Y97.419 E513.75655
G1 X136.66 Y97.419 E514.72941
G1 X136.66 Y99.777 E515.08233
G1 X136.547 Y100.348 E515.16945
G1 X136.244 Y100.8 E515.25089
G1 X135.792 Y101.103 E515.33234
G1 X135.222 Y101.216 E515.41931
G1 X126.664 Y101.216 E516.70019
G1 X127.577 Y104.182 E517.16467
G1 X127.944 Y106.691 E517.54419
G1 X127.925 Y109.222 E517.92302
G1 X127.522 Y111.722 E518.30203
G1 X126.741 Y114.136 E518.68177
G1 X125.606 Y116.394 E519.06002
G1 X124.137 Y118.459 E519.43931
G1 X122.36 Y120.288 E519.82099
G1 X122.062 Y120.548 E519.88018
G1 X122.257 Y121.067 E519.96316
G0 F9750 X122.256 Y121.467
G0 X130.491 Y122.638
G0 X129.802 Y122.91
G0 X128.811 Y122.957
G0 X120.909 Y123.052
G0 X120.91 Y122.572
;TYPE:SKIN
G1 F1950 X117.674 Y122.565 E520.60894
G1 X92.198 Y122.564 E525.69295
G1 X85.007 Y122.576 E527.128
G1 X84.609 Y122.564 E527.20746
G1 X83.841 Y122.515 E527.36103
G1 X83.25 Y122.485 E527.47912
G1 X82.457 Y122.353 E527.63955
G1 X82.08 Y122.278 E527.71626
G1 X83.251 Y122.074 E527.95347
G1 X83.456 Y122.063 E527.99444
G1 X84.538 Y121.996 E528.21077
G1 X85 Y121.984 E528.303
G1 X91.375 Y121.992 E529.5752
G1 X97.178 Y121.982 E530.73326
G1 X118.232 Y121.984 E534.93481
G1 X119.755 Y121.11 E535.28523
G1 X120.228 Y120.758 E535.40289
G1 X120.91 Y122.572 E535.78964
G0 F9750 X120.909 Y123.052
G0 X128.11 Y122.989
G0 X129.802 Y122.91
G0 X130.607 Y122.711
G0 X129.272 Y122.487
G0 X121.302 Y122.445
G0 X120.417 Y120.113
G0 X119.018 Y120.981
G0 X119.419 Y121.682
G1 F1950 X119.976 Y122.238 E535.94669
G0 F9750 X119.974 Y123.05
G0 X118.84 Y123.047
G0 X118.842 Y122.236
G1 F1950 X118.701 Y122.095 E535.98648
G0 F9750 X118.299 Y121.393
G0 X120.417 Y120.113
G0 X121.336 Y122.395
G0 X121.266 Y122.539
;TYPE:SKIN
G1 F1950 X121.759 Y123.032 E536.03866
G0 F9750 X122.183 Y123.032
G1 F1950 X121.548 Y122.397 E536.10586
G0 F9750 X121.973 Y122.397
G1 F1950 X122.608 Y123.033 E536.17312
G0 F9750 X123.033 Y123.033
G1 F1950 X122.397 Y122.397 E536.24043
G0 F9750 X122.822 Y122.398
G1 F1950 X123.457 Y123.033 E536.30764
G0 F9750 X123.882 Y123.033
G1 F1950 X123.246 Y122.398 E536.37489
G0 F9750 X123.67 Y122.398
G1 F1950 X124.306 Y123.033 E536.44215
G0 F9750 X124.73 Y123.033
G1 F1950 X124.095 Y122.398 E536.50935
G0 F9750 X124.52 Y122.398
G1 F1950 X125.155 Y123.034 E536.57661
G0 F9750 X125.58 Y123.034
G1 F1950 X124.944 Y122.398 E536.64392
G0 F9750 X125.369 Y122.399
G1 F1950 X126.005 Y123.035 E536.71123
G0 F9750 X126.429 Y123.035
G1 F1950 X125.793 Y122.399 E536.77854
G0 F9750 X126.217 Y122.399
G1 F1950 X126.853 Y123.035 E536.84585
G0 F9750 X127.278 Y123.035
G1 F1950 X126.642 Y122.4 E536.91311
G0 F9750 X127.07 Y122.403
G1 F1950 X127.702 Y123.035 E536.97999
G0 F9750 X128.12 Y123.029
G1 F1950 X127.498 Y122.407 E537.04582
G0 F9750 X127.926 Y122.411
G1 F1950 X128.525 Y123.01 E537.10922
G0 F9750 X128.931 Y122.991
G1 F1950 X128.361 Y122.422 E537.16949
G0 F9750 X128.797 Y122.433
G1 F1950 X129.336 Y122.972 E537.22653
G0 F9750 X129.742 Y122.953
G1 F1950 X129.232 Y122.444 E537.28045
G0 F9750 X129.695 Y122.482
G1 F1950 X130.111 Y122.899 E537.32453
G0 F9750 X130.191 Y122.554
G1 F1950 X130.458 Y122.821 E537.35279
G1 F1500 E530.85279
G0 F9750 X130.463 Y122.842
G0 X128.052 Y122.995
G0 X84.596 Y122.983
G0 X83.208 Y122.903
G0 X81.756 Y122.642
G0 X81.592 Y122.11
G1 F1500 E537.35279
G0 F9750 X81.738 Y122.043
G1 F1950 X81.626 Y121.932 E537.36459
G0 F9750 X81.546 Y122.275
G1 F1950 X81.733 Y122.463 E537.38443
G1 F1500 E530.88443
G0 F9750 X81.53 Y122.463
G0 X81.59 Y122.002
G0 X85.87 Y120.512
G0 X117.844 Y120.532
G0 X118.957 Y119.894
G0 X120.78 Y118.538
G0 X122.372 Y116.894
G0 X123.681 Y115.019
G0 X124.673 Y112.957
G0 X125.323 Y110.764
G0 X126.612 Y102.203
G0 X126.226 Y100.893
G0 X131.811 Y100.016
G0 X132.793 Y99.426
G1 F1500 E537.38443
G0 F9750 X133.273 Y99.426
;TYPE:SKIN
G1 F1950 X133.273 Y97.409 E537.78695
G1 X134.87 Y97.409 E538.10565
G1 X134.87 Y99.426 E538.50816
G1 X133.273 Y99.426 E538.82686
G0 F9750 X134.168 Y99.096
G1 F1950 X133.602 Y98.529 E538.98674
G0 F9750 X133.942 Y97.739
G1 F1950 X134.539 Y98.335 E539.15508
G0 F9750 X135.35 Y98.335
G0 X136.13 Y96.673
G0 X135.975 Y96.518
;TYPE:SKIN
G1 F1950 X136.399 Y96.518 E539.18894
G1 X141.914 Y96.518 E539.62938
G1 X142.299 Y96.478 E539.66029
G0 F9750 X142.26 Y96.519
;MESH:NONMESH
G0 F300 X142.26 Y96.519 Z2.4
G0 F9750 X136.332 Y97.091
G0 X135.226 Y99.817
G0 X132.583 Y100.116
;TIME_ELAPSED:167.728307
;LAYER:3
;TYPE:WALL-INNER
;MESH:maniglia uniklat 32 mm.stl
G1 F1950 X132.583 Y96.719 E540.16872
G1 X135.56 Y96.719 E540.61429
G1 X135.56 Y99.674 E541.05656
G1 X135.512 Y99.916 E541.09349
G1 X135.36 Y100.068 E541.12566
G1 X135.118 Y100.116 E541.16259
G1 X132.583 Y100.116 E541.542
G0 F9750 X126.226 Y100.893
G0 X127.445 Y110.229
G0 X121.493 Y120.597
G0 X121.308 Y122.315
G1 F1950 X124.239 Y122.329 E541.98069
G1 X126.601 Y122.332 E542.33422
G1 X127.96 Y122.371 E542.5377
G1 X128.408 Y122.411 E542.60502
G1 X128.547 Y122.423 E542.6259
G1 X129.134 Y122.523 E542.71503
G1 X129.171 Y122.533 E542.72076
G1 X129.547 Y122.639 E542.77923
G1 X129.546 Y122.738 E542.79405
G1 X129.25 Y122.844 E542.80836
G1 X129.066 Y122.911 E542.82198
G1 X128.637 Y122.98 E542.8717
G1 X128.499 Y123.002 E542.892
G1 X128.376 Y123.022 E542.91066
G1 X128.13 Y123.041 E542.94758
G1 X127.866 Y123.082 E542.98757
G1 X123.657 Y123.083 E543.61753
G1 X117.675 Y123.063 E544.51287
G1 X95.566 Y123.086 E547.82194
G1 X84.984 Y123.089 E549.40575
G1 X84.923 Y123.081 E549.41496
G1 X83.771 Y122.885 E549.58986
G1 X83.159 Y122.654 E549.68777
G1 X83.16 Y121.905 E549.79987
G1 X83.689 Y121.696 E549.885
G1 X83.748 Y121.677 E549.89428
G1 X84.049 Y121.624 E549.94002
G1 X84.883 Y121.484 E550.06659
G1 X84.958 Y121.477 E550.07787
G1 X105.671 Y121.483 E553.17799
G1 X117.648 Y121.478 E554.9706
G1 X118.343 Y121.112 E555.08816
G1 X118.834 Y120.842 E555.17203
G1 X119.376 Y120.532 E555.26548
G1 X120.231 Y119.895 E555.42506
G1 X120.235 Y119.892 E555.42581
G1 X121.283 Y119.111 E555.62143
G1 X122.932 Y117.409 E555.97612
G1 X122.961 Y117.38 E555.98226
G1 X124.245 Y115.54 E556.31808
G1 X124.34 Y115.404 E556.34291
G1 X125.258 Y113.496 E556.65981
G1 X125.385 Y113.233 E556.70353
G1 X125.953 Y111.313 E557.0032
G1 X126.069 Y110.921 E557.06439
G1 X126.304 Y109.065 E557.3444
G1 X126.366 Y108.578 E557.41787
G1 X126.373 Y108.53 E557.42514
G1 X126.315 Y106.788 E557.68601
G1 X126.292 Y106.121 E557.7859
G1 X125.977 Y104.525 E558.02938
G1 X125.825 Y103.756 E558.1467
G1 X125.059 Y101.698 E558.47537
G1 X124.965 Y101.303 E558.53614
G1 X124.995 Y101.122 E558.5636
G1 X125.097 Y100.962 E558.592
G1 X125.251 Y100.856 E558.61998
G1 X125.393 Y100.828 E558.64164
G1 X125.405 Y100.867
G1 X125.441 Y100.985 E558.64901
G1 X125.489 Y101.141 E558.66956
G1 X125.608 Y101.528 E558.72649
G1 X126.254 Y103.623 E559.00667
G1 X126.5 Y104.421 E559.10984
G1 X126.739 Y106.055 E559.31319
G1 X126.844 Y106.77 E559.40245
G1 X126.83 Y108.533 E559.61991
G1 X126.825 Y109.13 E559.69522
G1 X126.525 Y110.994 E559.928
G1 X126.45 Y111.46 E559.9866
G1 X125.83 Y113.376 E560.23456
G1 X125.72 Y113.717 E560.27932
G1 X124.764 Y115.617 E560.54143
G1 X124.658 Y115.828 E560.57124
G1 X123.356 Y117.66 E560.84842
G1 X123.289 Y117.754 E560.86356
G1 X121.637 Y119.454 E561.15616
G1 X121.613 Y119.478 E561.16079
G1 X120.588 Y120.364 E561.34428
G1 X120.59 Y120.369 E561.34508
G1 X121.308 Y122.315 E561.65554
G0 F9750 X121.727 Y121.717
G1 F1950 X124.241 Y121.729 E562.03181
G1 X126.618 Y121.732 E562.38758
G1 X127.995 Y121.772 E562.59376
G1 X128.615 Y121.826 E562.68691
G1 X129.272 Y121.938 E562.78666
G1 X129.778 Y122.08 E562.86532
G1 X130.148 Y122.284 E562.92856
G1 X130.145 Y123.143 E563.05713
G1 X130.134 Y123.163 E563.06054
G1 X129.75 Y123.301 E563.12162
G1 X129.218 Y123.494 E563.20632
G1 X128.471 Y123.613 E563.31953
G1 X128.445 Y123.618 E563.32349
G1 X128.423 Y123.619 E563.32679
G1 X128.2 Y123.637 E563.36028
G1 X127.915 Y123.682 E563.40346
G1 X123.655 Y123.683 E564.04106
G1 X117.674 Y123.663 E564.93624
G1 X95.567 Y123.686 E568.24501
G1 X84.946 Y123.689 E569.83466
G1 X84.822 Y123.673 E569.85338
G1 X83.617 Y123.468 E570.03632
G1 X82.639 Y123.099 E570.19277
G1 X82.559 Y122.991 E570.21289
G1 X82.559 Y121.984 E570.36361
G1 X82.563 Y121.594 E570.42198
G1 X82.674 Y121.452 E570.44896
G1 X83.485 Y121.132 E570.57945
G1 X83.499 Y121.128 E570.58163
G1 X83.602 Y121.093 E570.59791
G1 X83.95 Y121.032 E570.65079
G1 X84.798 Y120.89 E570.77947
G1 X84.829 Y120.888 E570.78412
G1 X84.899 Y120.881 E570.79465
G1 X84.931 Y120.877 E570.79948
G1 X105.671 Y120.883 E573.90365
G1 X117.5 Y120.878 E575.6741
G1 X118.059 Y120.584 E575.76863
G1 X118.54 Y120.319 E575.85083
G1 X119.046 Y120.029 E575.93812
G1 X120.886 Y118.659 E576.28146
G1 X122.497 Y116.997 E576.6279
G1 X123.82 Y115.1 E576.97405
G1 X124.823 Y113.016 E577.32021
G1 X125.48 Y110.797 E577.66658
G1 X125.772 Y108.502 E578.01285
G1 X125.694 Y106.19 E578.35908
G1 X125.246 Y103.92 E578.70539
G1 X124.482 Y101.867 E579.03325
G1 X124.353 Y101.325 E579.11663
G1 X124.423 Y100.902 E579.18081
G1 X124.657 Y100.536 E579.24583
G1 X125.011 Y100.293 E579.31009
G1 X125.526 Y100.188 E579.38876
G1 X125.987 Y100.188 E579.45775
G1 X131.983 Y100.188 E580.35518
G1 X131.983 Y96.119 E580.96419
G1 X142.66 Y96.119 E582.56222
G1 X142.66 Y96.919 E582.68196
G1 X136.16 Y96.919 E583.65482
G1 X136.16 Y99.731 E584.07569
G1 X136.076 Y100.153 E584.14009
G1 X135.884 Y100.44 E584.19177
G1 X135.597 Y100.632 E584.24345
G1 X135.478 Y100.655 E584.26159
G1 X135.237 Y100.703 E584.29837
G1 X135.175 Y100.716 E584.30786
G1 X131.983 Y100.716 E584.7856
G1 X126.392 Y100.716 E585.62241
G1 X126.391 Y100.716 E585.62256
G1 X125.987 Y100.716 E585.68303
G1 X126.106 Y101.103 E585.71925
G1 X127.088 Y104.292 E586.21867
G1 X127.444 Y106.727 E586.58699
G1 X127.425 Y109.177 E586.9537
G1 X127.034 Y111.605 E587.32178
G1 X126.277 Y113.945 E587.68988
G1 X125.174 Y116.139 E588.05742
G1 X123.753 Y118.137 E588.42438
G1 X122.024 Y119.916 E588.79568
G1 X121.295 Y120.546 E588.93989
G1 X121.727 Y121.717 E589.1267
G0 F9750 X122.076 Y121.219
;TYPE:WALL-OUTER
G1 F1950 X124.242 Y121.229 E589.45089
G1 X126.632 Y121.232 E589.8086
G1 X128.02 Y121.272 E590.01643
G1 X128.681 Y121.33 E590.11574
G1 X129.38 Y121.449 E590.22187
G1 X129.969 Y121.615 E590.31346
G1 X130.537 Y121.928 E590.41052
G1 X130.648 Y122.142 E590.4466
G1 X130.645 Y123.27 E590.61543
G1 X130.512 Y123.515 E590.65716
G1 X130.463 Y123.576 E590.66887
G1 X129.341 Y123.981 E590.8474
G1 X128.513 Y124.114 E590.97292
G1 X128.259 Y124.134 E591.01105
G1 X127.955 Y124.182 E591.05712
G1 X123.653 Y124.183 E591.701
G1 X117.673 Y124.163 E592.59604
G1 X95.568 Y124.186 E595.90451
G1 X84.912 Y124.189 E597.4994
G1 X84.751 Y124.168 E597.5237
G1 X83.486 Y123.953 E597.71575
G1 X82.335 Y123.519 E597.89986
G1 X82.209 Y123.362 E597.92999
G1 X82.059 Y123.152 E597.96861
G1 X82.059 Y121.979 E598.14418
G1 X82.065 Y121.42 E598.22785
G1 X82.362 Y121.038 E598.30027
G1 X83.318 Y120.661 E598.45408
G1 X83.476 Y120.608 E598.47902
G1 X83.868 Y120.539 E598.53859
G1 X84.741 Y120.393 E598.67107
G1 X84.902 Y120.377 E598.69529
G1 X105.671 Y120.383 E601.80379
G1 X117.377 Y120.378 E603.55584
G1 X117.822 Y120.144 E603.63109
G1 X118.295 Y119.883 E603.71195
G1 X118.771 Y119.61 E603.79407
G1 X120.555 Y118.282 E604.12694
G1 X122.11 Y116.678 E604.46131
G1 X123.387 Y114.847 E604.79542
G1 X124.355 Y112.835 E605.1296
G1 X124.989 Y110.694 E605.4638
G1 X125.271 Y108.479 E605.798
G1 X125.196 Y106.247 E606.13225
G1 X124.763 Y104.057 E606.46637
G1 X124.004 Y102.017 E606.79215
G1 X123.843 Y101.342 E606.89601
G1 X123.947 Y100.718 E606.9907
G1 X124.289 Y100.182 E607.08586
G1 X124.812 Y99.823 E607.1808
G1 X125.475 Y99.688 E607.28207
G1 X131.483 Y99.688 E608.18129
G1 X131.483 Y95.619 E608.7903
G1 X143.16 Y95.619 E610.53801
G1 X143.16 Y97.419 E610.80741
G1 X136.66 Y97.419 E611.78027
G1 X136.66 Y99.777 E612.13319
G1 X136.547 Y100.348 E612.22031
G1 X136.244 Y100.8 E612.30176
G1 X135.792 Y101.103 E612.3832
G1 X135.222 Y101.216 E612.47018
G1 X126.664 Y101.216 E613.75106
G1 X127.577 Y104.182 E614.21554
G1 X127.944 Y106.691 E614.59506
G1 X127.925 Y109.222 E614.97388
G1 X127.522 Y111.722 E615.35289
G1 X126.741 Y114.136 E615.73263
G1 X125.606 Y116.394 E616.11088
G1 X124.137 Y118.459 E616.49018
G1 X122.363 Y120.285 E616.87122
G1 X121.884 Y120.698 E616.96588
G1 X122.076 Y121.219 E617.04898
G0 F9750 X122.074 Y121.618
G0 X128.367 Y122.715
G0 X127.946 Y122.792
G0 X120.596 Y122.862
G0 X120.598 Y122.383
;TYPE:SKIN
G1 F1950 X117.675 Y122.373 E617.6323
G1 X95.566 Y122.396 E622.0444
G1 X85.026 Y122.399 E624.14777
G1 X84.319 Y122.279 E624.29087
G1 X84.988 Y122.167 E624.42624
G1 X105.671 Y122.173 E628.55375
G1 X117.818 Y122.168 E630.97782
G1 X118.67 Y121.72 E631.16992
G1 X119.172 Y121.444 E631.28424
G1 X119.755 Y121.11 E631.41832
G1 X120.048 Y120.892 E631.4912
G1 X120.598 Y122.383 E631.80835
G0 F9750 X120.596 Y122.862
G0 X128.098 Y122.772
G0 X128.367 Y122.715
G0 X127.943 Y122.642
G0 X121.114 Y122.592
G0 X120.239 Y120.246
G0 X118.759 Y121.123
G0 X119.149 Y121.832
G1 F1950 X118.968 Y122.013 E631.85943
G0 F9750 X118.965 Y122.857
G0 X128.098 Y122.772
G0 X128.367 Y122.715
G0 X127.943 Y122.642
G0 X121.114 Y122.592
G0 X120.239 Y120.246
G0 X120.207 Y120.35
;TYPE:SKIN
G1 F1950 X120.361 Y120.196 E631.87573
G0 F9750 X121.407 Y122.526
G0 X121.407 Y122.544
G1 F1950 X121.128 Y122.823 E631.90526
G0 F9750 X121.53 Y122.845
G1 F1950 X121.829 Y122.546 E631.9369
G0 F9750 X121.953 Y122.847
G1 F1950 X122.251 Y122.548 E631.96849
G0 F9750 X122.376 Y122.848
G1 F1950 X122.673 Y122.55 E631.99998
G0 F9750 X122.798 Y122.849
G1 F1950 X123.095 Y122.552 E632.03141
G0 F9750 X123.221 Y122.851
G1 F1950 X123.518 Y122.555 E632.06279
G0 F9750 X123.644 Y122.852
G1 F1950 X123.94 Y122.556 E632.09412
G0 F9750 X124.068 Y122.852
G1 F1950 X124.363 Y122.558 E632.12528
G0 F9750 X124.493 Y122.852
G1 F1950 X124.786 Y122.559 E632.15629
G0 F9750 X124.917 Y122.852
G1 F1950 X125.21 Y122.559 E632.1873
G0 F9750 X125.341 Y122.852
G1 F1950 X125.634 Y122.559 E632.21831
G0 F9750 X125.766 Y122.852
G1 F1950 X126.058 Y122.56 E632.24921
G0 F9750 X126.19 Y122.852
G1 F1950 X126.481 Y122.561 E632.28001
G0 F9750 X126.614 Y122.852
G1 F1950 X126.896 Y122.57 E632.30986
G0 F9750 X127.038 Y122.852
G1 F1950 X127.308 Y122.582 E632.33843
G0 F9750 X127.463 Y122.852
G1 F1950 X127.721 Y122.593 E632.36579
G0 F9750 X127.894 Y122.845
G1 F1950 X128.123 Y122.616 E632.39003
G0 F9750 X128.374 Y122.789
G1 F1950 X128.481 Y122.683 E632.4013
G1 F1500 E625.9013
G0 F9750 X126.592 Y122.603
G0 X121.102 Y122.545
G0 X120.239 Y120.246
G0 X117.716 Y121.75
G0 X84.916 Y121.753
G0 X83.912 Y121.861
G1 F1500 E632.4013
G0 F9750 X83.973 Y122.218
G1 F1950 X83.613 Y122.579 E632.43945
G0 F9750 X83.389 Y122.378
G1 F1950 X83.884 Y121.883 E632.49184
G1 F1500 E625.99184
G0 F9750 X83.882 Y121.867
G0 X94.765 Y120.707
G0 X117.46 Y120.716
G0 X118.957 Y119.894
G0 X120.78 Y118.538
G0 X122.372 Y116.894
G0 X123.681 Y115.019
G0 X124.673 Y112.957
G0 X125.323 Y110.764
G0 X126.628 Y102.253
G0 X126.226 Y100.893
G0 X131.811 Y100.016
G0 X132.793 Y99.426
G1 F1500 E632.49184
G0 F9750 X133.273 Y99.426
;TYPE:SKIN
G1 F1950 X133.273 Y97.409 E632.89435
G1 X134.87 Y97.409 E633.21305
G1 X134.87 Y99.426 E633.61556
G1 X133.273 Y99.426 E633.93426
G0 F9750 X132.793 Y99.426
G0 X132.865 Y99.834
G0 X135.226 Y99.817
G0 X135.35 Y98.523
G0 X134.539 Y98.523
G1 F1950 X133.966 Y99.096 E634.09598
G0 F9750 X133.602 Y98.328
G1 F1950 X134.191 Y97.739 E634.2622
G0 F9750 X134.191 Y96.929
G0 X135.822 Y96.674
G0 X135.977 Y96.518
;TYPE:SKIN
G1 F1950 X136.401 Y96.518 E634.29769
G1 X141.917 Y96.518 E634.75933
G1 X142.3 Y96.56 E634.79158
G0 F9750 X142.414 Y96.446
G0 X136.332 Y97.091
G0 X135.761 Y100.129
G1 F1950 X135.572 Y100.317 E634.81153
G0 F9750 X135.492 Y100.31
;MESH:NONMESH
G0 F300 X135.492 Y100.31 Z3
G0 F9750 X132.583 Y100.116
;TIME_ELAPSED:197.059102
;LAYER:4
;TYPE:WALL-INNER
;MESH:maniglia uniklat 32 mm.stl
G1 F1950 X132.583 Y96.719 E635.31996
G1 X135.56 Y96.719 E635.76553
G1 X135.56 Y99.674 E636.2078
G1 X135.512 Y99.916 E636.24473
G1 X135.36 Y100.068 E636.2769
G1 X135.118 Y100.116 E636.31383
G1 X132.583 Y100.116 E636.69324
G0 F9750 X126.226 Y100.893
G0 X127.343 Y107.433
G0 X120.259 Y122.045
G1 F1950 X120.397 Y122.442 E636.75615
G1 X119.977 Y122.442 E636.79342
G1 X119.976 Y122.442 E636.79357
G1 X117.673 Y122.442 E637.13826
G1 X116.738 Y122.442 E637.2782
G1 X116.702 Y122.442 E637.28359
G1 X116.056 Y122.443 E637.38028
G1 X108.536 Y122.453 E638.5058
G1 X106.935 Y122.453 E638.74542
G1 X100.641 Y122.457 E639.68745
G1 X85.541 Y122.467 E641.94748
G1 X85.542 Y122.102 E642.00211
G1 X100.64 Y122.093 E643.37713
G1 X106.934 Y122.107 E643.93552
G1 X108.535 Y122.105 E644.07439
G1 X116.055 Y122.09 E644.73305
G1 X116.701 Y121.857 E644.81448
G1 X116.734 Y121.844 E644.81973
G1 X117.301 Y121.618 E644.91108
G1 X118.526 Y120.983 E645.1176
G1 X118.856 Y120.816 E645.17296
G1 X119.135 Y120.668 E645.22023
G1 X119.371 Y120.535 E645.26077
G1 X119.511 Y120.431 E645.28687
G1 X120.728 Y119.525 E645.51396
G1 X121.117 Y119.235 E645.58658
G1 X121.283 Y119.111 E645.61759
G1 X122.932 Y117.409 E645.97228
G1 X122.961 Y117.38 E645.97842
G1 X124.245 Y115.54 E646.31423
G1 X124.34 Y115.404 E646.33906
G1 X125.258 Y113.496 E646.65597
G1 X125.385 Y113.233 E646.69968
G1 X125.953 Y111.313 E646.99936
G1 X126.069 Y110.921 E647.06055
G1 X126.304 Y109.065 E647.34055
G1 X126.366 Y108.578 E647.41403
G1 X126.373 Y108.53 E647.42129
G1 X126.315 Y106.788 E647.68216
G1 X126.292 Y106.121 E647.78205
G1 X125.977 Y104.525 E648.02553
G1 X125.825 Y103.756 E648.14286
G1 X125.059 Y101.698 E648.47152
G1 X124.965 Y101.303 E648.5323
G1 X124.995 Y101.122 E648.55976
G1 X125.097 Y100.962 E648.58815
G1 X125.251 Y100.856 E648.61614
G1 X125.393 Y100.828 E648.6378
G1 X125.405 Y100.867
G1 X125.441 Y100.985 E648.64517
G1 X125.489 Y101.141 E648.66572
G1 X125.608 Y101.528 E648.72265
G1 X126.254 Y103.623 E649.00282
G1 X126.5 Y104.421 E649.106
G1 X126.739 Y106.055 E649.30935
G1 X126.844 Y106.77 E649.39861
G1 X126.83 Y108.533 E649.61606
G1 X126.825 Y109.13 E649.69138
G1 X126.525 Y110.994 E649.92416
G1 X126.45 Y111.46 E649.98275
G1 X125.83 Y113.376 E650.23072
G1 X125.72 Y113.717 E650.27548
G1 X124.764 Y115.617 E650.53759
G1 X124.658 Y115.828 E650.56739
G1 X123.356 Y117.66 E650.84458
G1 X123.289 Y117.754 E650.85972
G1 X121.637 Y119.454 E651.15232
G1 X121.618 Y119.473 E651.15405
G1 X121.602 Y119.486 E651.15714
G1 X121.42 Y119.641 E651.18735
G1 X121.043 Y119.947 E651.24995
G1 X119.856 Y120.893 E651.45892
G1 X120.259 Y122.045 E651.64159
G0 F9750 X120.982 Y122.299
G1 F1950 X123.466 Y122.314 E652.01338
G1 X126.587 Y122.329 E652.4805
G1 X127.666 Y122.447 E652.64296
G1 X127.695 Y122.45 E652.64733
G1 X127.817 Y122.464 E652.66571
G1 X127.837 Y122.48 E652.66954
G1 X127.844 Y122.485 E652.67083
G1 X127.843 Y122.784 E652.71558
G1 X127.843 Y122.904 E652.73354
G1 X127.631 Y123.036 E652.76717
G1 X127.622 Y123.037 E652.76852
G1 X127.602 Y123.042 E652.77161
G1 X127.519 Y123.061 E652.78435
G1 X127.399 Y123.06 E652.80231
G1 X125.79 Y123.042 E653.04315
G1 X117.673 Y123.042 E654.25803
G1 X108.536 Y123.053 E655.62557
G1 X85.259 Y123.067 E659.10945
G1 X85.008 Y123.067 E659.14702
G1 X84.932 Y122.994 E659.16279
G1 X84.936 Y122.743 E659.20036
G1 X84.942 Y122.398 E659.25201
G1 X84.941 Y121.8 E659.34151
G1 X84.941 Y121.542 E659.38012
G1 X85.013 Y121.502 E659.39245
G1 X85.271 Y121.502 E659.43107
G1 X100.641 Y121.493 E661.73151
G1 X106.934 Y121.507 E662.67338
G1 X115.95 Y121.49 E664.02282
G1 X116.488 Y121.296 E664.10842
G1 X117.051 Y121.072 E664.1991
G1 X118.25 Y120.45 E664.40127
G1 X118.58 Y120.283 E664.45663
G1 X118.848 Y120.141 E664.50202
G1 X119.044 Y120.031 E664.53566
G1 X120.886 Y118.659 E664.87942
G1 X122.497 Y116.997 E665.22586
G1 X123.82 Y115.1 E665.57201
G1 X124.823 Y113.016 E665.91817
G1 X125.48 Y110.797 E666.26454
G1 X125.772 Y108.502 E666.61081
G1 X125.694 Y106.19 E666.95704
G1 X125.246 Y103.92 E667.30335
G1 X124.482 Y101.867 E667.63121
G1 X124.353 Y101.325 E667.7146
G1 X124.423 Y100.902 E667.77877
G1 X124.657 Y100.536 E667.84379
G1 X125.011 Y100.293 E667.90805
G1 X125.526 Y100.188 E667.98672
G1 X125.987 Y100.188 E668.05571
G1 X131.983 Y100.188 E668.95314
G1 X131.983 Y96.119 E669.56215
G1 X142.66 Y96.119 E671.16018
G1 X142.66 Y96.919 E671.27992
G1 X136.16 Y96.919 E672.25278
G1 X136.16 Y99.731 E672.67365
G1 X136.076 Y100.153 E672.73805
G1 X135.884 Y100.44 E672.78973
G1 X135.597 Y100.632 E672.84141
G1 X135.478 Y100.655 E672.85956
G1 X135.237 Y100.703 E672.89633
G1 X135.175 Y100.716 E672.90582
G1 X131.983 Y100.716 E673.38356
G1 X126.392 Y100.716 E674.22037
G1 X126.391 Y100.716 E674.22052
G1 X125.987 Y100.716 E674.28099
G1 X126.106 Y101.103 E674.31721
G1 X127.088 Y104.292 E674.81663
G1 X127.444 Y106.727 E675.18495
G1 X127.425 Y109.177 E675.55166
G1 X127.034 Y111.605 E675.91974
G1 X126.277 Y113.945 E676.28784
G1 X125.174 Y116.139 E676.65538
G1 X123.753 Y118.137 E677.02234
G1 X122.024 Y119.916 E677.39364
G1 X121.808 Y120.099 E677.43601
G1 X121.417 Y120.416 E677.51135
G1 X120.563 Y121.097 E677.67483
G1 X120.982 Y122.299 E677.86535
G0 F9750 X121.338 Y121.801
;TYPE:WALL-OUTER
G1 F1950 X123.469 Y121.814 E678.18431
G1 X126.616 Y121.829 E678.65532
G1 X128.013 Y121.983 E678.86568
G1 X128.304 Y122.21 E678.92092
G1 X128.344 Y122.245 E678.92887
G1 X128.343 Y123.181 E679.06897
G1 X127.821 Y123.506 E679.161
G1 X127.574 Y123.562 E679.19891
G1 X125.787 Y123.542 E679.46638
G1 X117.673 Y123.542 E680.68081
G1 X108.536 Y123.553 E682.04835
G1 X84.893 Y123.567 E685.58702
G1 X84.689 Y123.469 E685.62089
G1 X84.429 Y123.184 E685.67863
G1 X84.442 Y122.394 E685.79688
G1 X84.441 Y121.381 E685.9485
G1 X84.601 Y121.159 E685.98946
G1 X84.659 Y121.112 E686.00063
G1 X84.906 Y121.002 E686.0411
G1 X100.642 Y120.993 E688.39632
G1 X106.934 Y121.007 E689.33805
G1 X115.862 Y120.99 E690.67431
G1 X116.311 Y120.828 E690.74575
G1 X116.843 Y120.617 E690.83141
G1 X118.025 Y120.003 E691.03077
G1 X118.351 Y119.839 E691.08538
G1 X118.608 Y119.703 E691.1289
G1 X118.77 Y119.611 E691.15679
G1 X120.555 Y118.282 E691.48987
G1 X122.11 Y116.678 E691.82423
G1 X123.387 Y114.847 E692.15835
G1 X124.355 Y112.835 E692.49252
G1 X124.989 Y110.694 E692.82672
G1 X125.271 Y108.479 E693.16092
G1 X125.196 Y106.247 E693.49517
G1 X124.763 Y104.057 E693.8293
G1 X124.004 Y102.017 E694.15507
G1 X123.843 Y101.342 E694.25893
G1 X123.947 Y100.718 E694.35362
G1 X124.289 Y100.182 E694.44878
G1 X124.812 Y99.823 E694.54373
G1 X125.475 Y99.688 E694.64499
G1 X131.483 Y99.688 E695.54421
G1 X131.483 Y95.619 E696.15322
G1 X143.16 Y95.619 E697.90093
G1 X143.16 Y97.419 E698.17033
G1 X136.66 Y97.419 E699.14319
G1 X136.66 Y99.777 E699.49612
G1 X136.547 Y100.348 E699.58324
G1 X136.244 Y100.8 E699.66468
G1 X135.792 Y101.103 E699.74613
G1 X135.222 Y101.216 E699.8331
G1 X126.664 Y101.216 E701.11398
G1 X127.577 Y104.182 E701.57846
G1 X127.944 Y106.691 E701.95798
G1 X127.925 Y109.222 E702.33681
G1 X127.522 Y111.722 E702.71581
G1 X126.741 Y114.136 E703.09556
G1 X125.606 Y116.394 E703.4738
G1 X124.137 Y118.459 E703.8531
G1 X122.364 Y120.284 E704.23393
G1 X122.131 Y120.481 E704.2796
G1 X121.729 Y120.807 E704.35706
G1 X121.152 Y121.267 E704.46751
G1 X121.338 Y121.801 E704.55214
G0 F9750 X121.336 Y122.201
G0 X119.878 Y121.596
G0 X119.426 Y121.752
;TYPE:SKIN
G1 F1950 X118.541 Y121.752 E704.72875
G1 X119.291 Y121.366 E704.89708
G1 X119.426 Y121.752 E704.97869
G0 F9750 X119.878 Y121.596
G0 X119.992 Y122.155
G0 X118.267 Y122.232
G0 X118.267 Y122.086
;TYPE:SKIN
G1 F1950 X117.8 Y121.618 E705.02816
G0 F9750 X118.079 Y121.473
G1 F1950 X118.13 Y121.524 E705.03356
G0 F9750 X117.52 Y121.763
G1 F1950 X117.968 Y122.211 E705.08097
G0 F9750 X117.544 Y122.211
G1 F1950 X117.227 Y121.894 E705.11452
G0 F9750 X116.923 Y122.014
G1 F1950 X117.12 Y122.212 E705.13543
G1 F1500 E698.63543
G0 F9750 X117.119 Y122.233
G0 X116.807 Y122.14
G0 X120.78 Y118.538
G0 X122.372 Y116.894
G0 X123.681 Y115.019
G0 X127.605 Y106.714
G0 X126.226 Y100.893
G0 X130.733 Y100.885
G0 X132.793 Y99.426
G1 F1500 E705.13543
G0 F9750 X133.273 Y99.426
;TYPE:SKIN
G1 F1950 X133.273 Y97.409 E705.53794
G1 X134.87 Y97.409 E705.85664
G1 X134.87 Y99.426 E706.25915
G1 X133.273 Y99.426 E706.57785
G0 F9750 X134.168 Y99.096
G1 F1950 X133.602 Y98.529 E706.73773
G0 F9750 X133.942 Y97.739
G1 F1950 X134.539 Y98.335 E706.90607
G0 F9750 X135.35 Y98.335
G0 X136.13 Y96.673
G0 X135.975 Y96.518
;TYPE:SKIN
G1 F1950 X136.399 Y96.518 E706.93994
G1 X141.914 Y96.518 E707.38037
G1 X142.299 Y96.478 E707.41128
G1 F1500 E700.91128
G0 F9750 X142.414 Y96.593
G0 X136.332 Y97.091
G0 X135.191 Y100.877
G0 X126.226 Y100.893
G0 X125.313 Y116.221
G0 X120.761 Y121.154
G0 X121.101 Y122.132
G0 X127.323 Y122.656
G0 X127.402 Y122.735
G1 F1500 E707.41128
G1 F1950 X126.949 Y122.706 E707.4387
G1 X120.971 Y122.669 E707.79991
G0 F9750 X120.775 Y122.587
;TIME_ELAPSED:219.548299
G1 F1500 E701.29991
M140 S0
G91 ;Relative positioning
G1 E-2 F2700 ;Retract a bit
G1 E-2 Z0.2 F2400 ;Retract and raise Z
G1 X5 Y5 F3000 ;Wipe out
G1 Z10 ;Raise Z more
G90 ;Absolute positioning

G1 X0 Y220 ;Present print
M106 S0 ;Turn-off fan
M104 S0 ;Turn-off hotend
M140 S0 ;Turn-off bed

M84 X Y E ;Disable all steppers but Z

M82 ;absolute extrusion mode
M104 S0
;End of Gcode
;SETTING_3 {"global_quality": "[general]\\nversion = 4\\nname = Draft Quality #2
;SETTING_3 \\ndefinition = creality_ender3pro\\n\\n[metadata]\\ntype = quality_c
;SETTING_3 hanges\\nquality_type = draft\\nsetting_version = 17\\n\\n[values]\\n
;SETTING_3 adhesion_type = brim\\nlayer_height = 0.6\\nlayer_height_0 = 0.6\\nma
;SETTING_3 terial_bed_temperature = 90\\nmaterial_bed_temperature_layer_0 = 105\
;SETTING_3 \nsupport_enable = True\\n\\n", "extruder_quality": ["[general]\\nver
;SETTING_3 sion = 4\\nname = Draft Quality #2\\ndefinition = creality_ender3pro\
;SETTING_3 \n\\n[metadata]\\ntype = quality_changes\\nquality_type = draft\\nset
;SETTING_3 ting_version = 17\\nposition = 0\\n\\n[values]\\nbrim_width = 4.0\\nc
;SETTING_3 ool_fan_enabled = False\\ncool_fan_speed = 0\\ncool_min_layer_time_fa
;SETTING_3 n_speed_max = 0\\ninfill_pattern = cross\\ninfill_sparse_density = 50
;SETTING_3 \\nmaterial_print_temperature = 255.0\\nskirt_brim_material_flow = 11
;SETTING_3 0.0\\nskirt_gap = 0\\nspeed_print = 65\\nwall_line_width = 0.6\\n\\n"
;SETTING_3 ]}
